"T_IDX","STATION_NAME","T_NAME","CATE","ADDRESS","LAT","LON"
1,"가락시장","롯데마트/송파점","관광지","서울 송파구 중대로 80-0",37.49175008,127.1177491
2,"가산디지털단지","가리봉시장","관광지","서울 구로구",37.48130544,126.8891587
3,"가산디지털단지","가산물갈비&백년불고기","맛집","서울 금천구 가산디지털1로 128-0",37.477238,126.8837
4,"가산디지털단지","호세가","맛집","서울 금천구 남부순환로108길 19-0",37.477936,126.89235
5,"가산디지털단지","파티엘하우스","맛집","서울 금천구 디지털로 173-0",37.47797,126.88607
6,"가산디지털단지","코애식당","맛집","서울 금천구 가산디지털2로 127-33",37.478382,126.87779
7,"가산디지털단지","커피베이가산직영점","맛집","서울 금천구 벚꽃로 254-0",37.477764,126.88549
8,"가산디지털단지","인크커피가산점","맛집","서울 금천구 가산디지털2로 127-20",37.47934,126.878075
9,"가산디지털단지","은행골가산디지털단지역점","맛집","서울 금천구 가산디지털1로 171-0",37.480762,126.88068
10,"가산디지털단지","아웃백스테이크하우스가산점","맛집","서울 금천구 디지털로10길 9-0",37.47762,126.88905
11,"가산디지털단지","미분당가산점","맛집","서울 금천구 디지털로10길 69-0",37.4753,126.890854
12,"가산디지털단지","망향비빔국수금천직영점","맛집","서울 금천구 가산디지털1로 186-0",37.481915,126.881584
13,"가산디지털단지","두껍삼가산직영점","맛집","서울 금천구 벚꽃로38길 43-0",37.483017,126.88476
14,"가산디지털단지","동남집","맛집","서울 금천구 가산디지털1로 149-0",37.47874,126.88187
15,"가산디지털단지","도넛 인사이드 도넛","맛집","서울 금천구 시흥대로141길 81-0",37.476505,126.897644
16,"가산디지털단지","김명태매운갈비찜가산점","맛집","서울 금천구 가산로 132-1",37.47735,126.89192
17,"가산디지털단지","풍년갈비","맛집","서울 금천구 디지털로12길 33-0",37.477497,126.890076
18,"가산디지털단지","춘천옥","맛집","서울 금천구 디지털로12길 19-0",37.47791,126.88969
19,"가산디지털단지","참숯구이육향","맛집","서울 금천구 가산디지털1로 225-0",37.485073,126.87888
20,"가산디지털단지","차림","맛집","서울 금천구 가산디지털1로 131-0",37.47708,126.88198
21,"가산디지털단지","SJ아울렛","관광지","서울 금천구 벚꽃로 278-0",37.47958338,126.884437
22,"가산디지털단지","이비그가죽공방","관광지","서울 금천구 시흥대로153길 68-3",37.47676794,126.8944701
23,"가산디지털단지","퐁퐁플라워/가산센터","관광지","서울 금천구 벚꽃로 278-0",37.47941674,126.8845758
24,"가산디지털단지","마리오아울렛/2관","관광지","서울 금천구 디지털로9길 23-0",37.47872239,126.8864646
25,"가산디지털단지","롯데팩토리아울렛/가산점","관광지","서울 금천구 벚꽃로 278-0",37.47933341,126.8846869
26,"가산디지털단지","롯데시네마/가산디지털","관광지","서울 금천구 디지털로10길 9-0",37.47763122,126.889016
27,"가산디지털단지","마리오아울렛/3관","관광지","서울 금천구 벚꽃로 266-0",37.47844463,126.8850758
28,"가산디지털단지","W몰","관광지","서울 금천구 디지털로 188-0",37.47736144,126.8876589
29,"가산디지털단지","현대시티아울렛/가산점","관광지","서울 금천구 디지털로10길 9-0",37.47769474,126.8891866
30,"가산디지털단지","마리오아울렛/1관","관광지","서울 금천구 디지털로 185-0",37.4780558,126.8873812
31,"가산디지털단지","구로구리틀야구장","관광지","서울 구로구 경인로67길 0-0",37.4998079,126.8711168
32,"가산디지털단지","솔길어린이공원","관광지","서울 구로구",37.48930446,126.8806317
33,"가산디지털단지","순댕이네얼큰수제비","맛집","서울 금천구 시흥대로136길 1-0",37.472343,126.89933
34,"가산디지털단지","개성손만두요리전문점가산디지털점","맛집","서울 금천구 가산로9길 22-0",37.47684,126.89053
35,"강남","딘타이펑강남역점","맛집","서울 서초구 서초대로73길 12-0",37.49855,127.025734
36,"강남","창고43강남점","맛집","서울 강남구 강남대로 362-0",37.495304,127.02942
37,"강남","신정역삼점","맛집","서울 강남구 테헤란로8길 29-0",37.497093,127.0324
38,"강남","대려도","맛집","서울 강남구 역삼로 118-0",37.49343,127.03218
39,"강남","무지개쇼핑센터","관광지","서울 서초구 사임당로 151-0",37.49227723,127.0258963
40,"강남","메가박스/강남","관광지","서울 서초구 서초대로77길 3-0",37.49808212,127.0265351
41,"강남","메가박스/강남대로","관광지","서울 강남구 강남대로 422-0",37.50041518,127.0270072
42,"강남","한우다이닝울릉","맛집","서울 서초구 서운로 135-0",37.495518,127.02453
43,"강남","하이디라오서초지점","맛집","서울 서초구 서초대로77길 54-0",37.50258,127.02482
44,"강남","아티제삼성타운점","맛집","서울 서초구 서초대로74길 11-0",37.49663,127.02692
45,"강남구청","스케줄청담","맛집","서울 강남구 선릉로152길 37-0",37.524647,127.04268
46,"강남구청","테라스룸서울","맛집","서울 강남구 선릉로152길 37-0",37.524647,127.04268
47,"강남구청","울프강스테이크하우스","맛집","서울 강남구 선릉로152길 21-0",37.524498,127.041466
48,"강남구청","정식당","맛집","서울 강남구 선릉로158길 11-0",37.525658,127.041084
49,"강남구청","오아시스","맛집","서울 강남구 도산대로55길 20-0",37.524776,127.0406
50,"강남구청","한성칼국수논현점","맛집","서울 강남구 언주로148길 14-0",37.52063,127.03616
51,"강남구청","한우리본점","맛집","서울 강남구 도산대로 304-0",37.52115,127.03473
52,"강남구청","해목","맛집","서울 강남구 선릉로145길 14-0",37.52153,127.03829
53,"강남구청","한국순대","맛집","서울 서초구 바우뫼로35길 4-0",37.4788,127.039734
54,"강남구청","쉐이크쉑청담점","맛집","서울 강남구 도산대로 327-0",37.52312,127.0376
55,"강남구청","비비브라운","맛집","서울 강남구 도산대로 412-0",37.522964,127.04071
56,"강남구청","보메청담","맛집","서울 강남구 선릉로152길 40-0",37.524246,127.04268
57,"강남구청","미엘","맛집","서울 강남구 도산대로67길 13-12",37.525257,127.043625
58,"강남구청","더라운드","맛집","서울 강남구 선릉로148길 37-0",37.523014,127.04253
59,"강남구청","대가방본점","맛집","서울 강남구 선릉로145길 13-0",37.521156,127.03855
60,"강남구청","나리식당청담점","맛집","서울 강남구 선릉로152길 25-0",37.52448,127.041695
61,"강남구청","고센클래식","맛집","서울 강남구 선릉로158길 18-0",37.52521,127.041435
62,"강남구청","JS가든청담점","맛집","서울 강남구 도산대로 318-0",37.521843,127.036896
63,"강남구청","10꼬르소꼬모청담점","맛집","서울 강남구 압구정로 416-0",37.526928,127.042404
64,"강동","안말어린이공원","관광지","서울 강동구 풍성로45길 11-0",37.53149557,127.1299421
65,"강동","강풀만화거리","관광지","서울 강동구",37.53607837,127.1304142
66,"강동","길동우동길동본점","맛집","서울 강동구 천호대로 1135-0",37.53463,127.13779
67,"강동","꿀꿀진순대국강동본점","맛집","서울 강동구 양재대로103길 70-0",37.533985,127.13419
68,"강동","이바돔감자탕강동역점","맛집","서울 강동구 천호대로 1099-0",37.535763,127.13412
69,"강동구청","송파구여성축구장","관광지","서울 송파구 올림픽로 474-0",37.52442574,127.1185569
70,"강동구청","성내유수지축구장","관광지","서울 송파구",37.5268016,127.1200819
71,"강동구청","버섯잔치집본점","맛집","서울 강동구 성내로 52-0",37.528316,127.125694
72,"강동구청","생어거스틴성내점","맛집","서울 강동구 강동대로 143-64",37.52808,127.12012
73,"강동구청","셀프하우스","맛집","서울 강동구 올림픽로 572-0",37.532555,127.12182
74,"강동구청","수라연","맛집","서울 강동구 강동대로 143-64",37.52808,127.12012
75,"강동구청","오륜정","맛집","서울 강동구 성내로6길 32-0",37.5286,127.12219
76,"강동구청","장어집","맛집","서울 강동구 가래여울2길 33-0",37.576954,127.17073
77,"강동구청","주문진","맛집","서울 강동구 성안로3길 27-0",37.525955,127.12812
78,"강동구청","메가박스/강동","관광지","서울 강동구 성내로 48-0",37.52846811,127.1253869
79,"강동구청","최냉면본점","맛집","서울 강동구 천호옛8길 34-0",37.532745,127.124985
80,"강동구청","커피몽타주","맛집","서울 강동구 올림픽로48길 23-12",37.5295,127.121864
81,"강동구청","채선당올림픽공원점","맛집","서울 강동구 강동대로 143-22",37.52718,127.12188
82,"강동구청","유천냉면본점","맛집","서울 송파구 강동대로3길 22-0",37.528503,127.11558
83,"강동구청","화진포막국수","맛집","서울 강동구 성내로10길 12-0",37.52844,127.124535
84,"강변","CGV/강변","관광지","서울 광진구 광나루로56길 85-0",37.53585596,127.0956951
85,"강변","롯데마트/강변점","관광지","서울 광진구 광나루로56길 85-0",37.53571709,127.0956951
86,"강변","동서울아트홀","관광지","서울 광진구 구의강변로 38-0",37.53416169,127.0918621
87,"강변","구의공원","관광지","서울 광진구",37.53696694,127.0946119
88,"강변","대가식당","맛집","서울 광진구 광나루로 596-0",37.54203,127.09437
89,"강변","고고기","맛집","서울 광진구 아차산로 471-0",37.54042,127.09397
90,"강변","도치피자강변점","맛집","서울 광진구 아차산로62길 14-4",37.53906,127.09334
91,"강변","바르미샤브샤브앤칼국수구의점","맛집","서울 광진구 아차산로 471-0",37.54042,127.09397
92,"강변","스시텐강변점","맛집","서울 광진구 구의강변로 86-0",37.538116,127.09404
93,"강변","애슐리퀸즈강변점","맛집","서울 광진구 광나루로56길 85-0",37.535725,127.095695
94,"강변","양촌리생삼겹살","맛집","서울 광진구 아차산로 482-0",37.54054,127.09548
95,"강일","고덕차량사업소야구장","관광지","서울 강동구 아리수로87길 32-0",37.56546412,127.1702436
96,"강일","폴바셋상일동점","맛집","서울 강동구 상일로6길 21-0",37.549744,127.174355
97,"개롱","버드나무집","맛집","서울 송파구 동남로 309-0",37.503063,127.137566
98,"개봉","신선설농탕고척점","맛집","서울 구로구 경인로 387-0",37.497086,126.863144
99,"개봉","향원갈비","맛집","서울 구로구 개봉로20길 18-0",37.492893,126.85645
100,"개봉","개봉중앙시장","관광지","서울 구로구 개봉로17길 34-0",37.49180401,126.8539118
101,"개봉","2001아울렛/구로점","관광지","서울 구로구 중앙로1길 36-0",37.49808111,126.8626888
102,"개봉","고척근린공원","관광지","서울 구로구",37.50574683,126.8522452
103,"개봉","명륜진사갈비서울 개봉점","맛집","서울 구로구 개봉로 27-0",37.48819,126.856
104,"개봉","다채개봉점","맛집","서울 구로구 개봉로23길 38-0",37.495995,126.856674
105,"개봉","고척근린소공원","관광지","서울 구로구",37.50344154,126.8525507
106,"개봉","2001아울렛소극장키즈홀/구로점","관광지","서울 구로구 중앙로1길 36-0",37.49808111,126.862661
107,"개화산","방신재래시장","관광지","서울 강서구 방화동로16길 32-0",37.57160008,126.812387
108,"거여","밀파니","맛집","서울 송파구 위례서로 273-0",37.489124,127.14246
109,"건대입구","감성타코건대점","맛집","서울 광진구 능동로13길 39-0",37.54396,127.069756
110,"건대입구","광진문화예술회관/나루아트센터","관광지","서울 광진구 능동로 76-0",37.5374945,127.0706418
111,"건대입구","퐁퐁플라워/건대센터","관광지","서울 광진구 아차산로 272-0",37.5386055,127.0730582
112,"건대입구","한아름쇼핑센터","관광지","서울 광진구 능동로13길 39-0",37.5434938,127.069864
113,"건대입구","스타시티","관광지","서울 광진구 아차산로 272-0",37.5387166,127.0725305
114,"건대입구","CGV/건대입구","관광지","서울 광진구 아차산로30길 26-0",37.53979977,127.0668921
115,"건대입구","커먼그라운드","관광지","서울 광진구 아차산로 200-0",37.54129959,127.0658644
116,"건대입구","롯데시네마/건대입구","관광지","서울 광진구 아차산로 272-0",37.53863328,127.0732527
117,"건대입구","롯데백화점/건대스타시티점","관광지","서울 광진구 능동로 90-0",37.53904988,127.0713084
118,"건대입구","이마트/자양점","관광지","서울 광진구 아차산로 272-0",37.53866105,127.0731138
119,"건대입구","호야본점","맛집","서울 광진구 능동로13길 39-0",37.54396,127.069756
120,"건대입구","하이디라오건대지점","맛집","서울 광진구 능동로 110-0",37.54084,127.071045
121,"건대입구","원조남원추어탕숙회","맛집","서울 광진구 동일로 114-0",37.542747,127.06458
122,"건대입구","우성식당","맛집","서울 광진구 자양번영로 60-1",37.534863,127.07643
123,"건대입구","아웃백스테이크하우스건대스타시티점","맛집","서울 광진구 능동로 92-0",37.539,127.07121
124,"건대입구","송화양꼬치","맛집","서울 광진구 동일로18길 70-0",37.53879,127.06656
125,"건대입구","송화산시도삭면","맛집","서울 광진구 뚝섬로27길 48-0",37.537903,127.06652
126,"건대입구","송림식당","맛집","서울 광진구 자양번영로 79-0",37.536785,127.076515
127,"건대입구","설빙건대직영2호점","맛집","서울 광진구 아차산로 230-0",37.540257,127.06873
128,"건대입구","선남SEA","맛집","서울 광진구 자양번영로 62-0",37.535004,127.07648
129,"건대입구","뽕사부건대점","맛집","서울 광진구 아차산로 205-0",37.541683,127.06638
130,"건대입구","매화반점건대점 ","맛집","서울 광진구 동일로18길 96-0",37.538357,127.06792
131,"건대입구","로니로티건대점","맛집","서울 광진구 아차산로 225-0",37.540916,127.06848
132,"건대입구","라구뜨","맛집","서울 광진구 능동로 90-0",37.538364,127.07092
133,"건대입구","등촌샤브칼국수자양점","맛집","서울 광진구 자양번영로 84-1",37.537014,127.07709
134,"건대입구","남한강민물매운탕","맛집","서울 광진구 동일로 150-0",37.545628,127.06621
135,"건대입구","귀품찬숯불갈비건대직영점","맛집","서울 광진구 아차산로 192-0",37.541557,127.064964
136,"건대입구","경복궁불고기건대점","맛집","서울 광진구 능동로 92-0",37.539,127.07121
137,"건대입구","건대우동집","맛집","서울 광진구 아차산로 201-0",37.54175,127.06602
138,"건대입구","건대양꼬치거리","맛집","서울 광진구",37.53856,127.08238
139,"건대입구","성수낙낙","관광지","서울 성동구 아차산로17길 48-0",37.54643041,127.0659668
140,"건대입구","나루아트센터/대공연장","관광지","서울 광진구 능동로 76-0",37.53755005,127.070614
141,"경복궁","무궁화동산","관광지","서울 종로구",37.58423849,126.9722891
142,"경복궁","사직공원","관광지","서울 종로구 사직로 89-0",37.57579499,126.967623
143,"경복궁","토속촌삼계탕","맛집","서울 종로구 자하문로5길 5-0",37.577602,126.971634
144,"경복궁","스태픽스","맛집","서울 종로구 사직로9길 22-0",37.577473,126.96788
145,"경복궁","효자베이커리","맛집","서울 종로구 필운대로 54-0",37.58094,126.968666
146,"경복궁","아키비스트","맛집","서울 종로구 효자로13길 52-0",37.58222,126.97268
147,"경복궁","경복궁","맛집","서울 종로구 사직로 101-0",37.5763,126.97
148,"경복궁","국립어린이박물관","관광지","서울 종로구 삼청로 37-0",37.58173882,126.978983
149,"경복궁","청와대/영빈문","관광지","서울 종로구 청와대로 1-0",37.58396075,126.9737334
150,"경복궁","청와대/춘추관","관광지","서울 종로구 청와대로 1-0",37.58401633,126.9790663
151,"경복궁","청와대앞길","관광지","서울 종로구",37.58384967,126.9765387
152,"경복궁","청와대/춘추문","관광지","서울 종로구 청와대로 1-0",37.58371081,126.9792052
153,"경복궁","석파정","관광지","서울 종로구",37.59498728,126.9624827
154,"경복궁","그라운드시소/서촌","관광지","서울 종로구 자하문로6길 18-8",37.57787711,126.9729279
155,"경복궁","통인시장","관광지","서울 종로구 자하문로15길 18-0",37.5807111,126.9700394
156,"경복궁","국립민속박물관","관광지","서울 종로구 삼청로 37-0",37.58168327,126.9789274
157,"경복궁","국립고궁박물관","관광지","서울 종로구 효자로 12-0",37.57661538,126.97497
158,"경복궁","청와대사랑채","관광지","서울 종로구 효자로13길 45-0",37.58259979,126.9731224
159,"경복궁","서울미술관","관광지","서울 종로구 자하문로 231-0",37.59473722,126.9632343
160,"경복궁","청와대/정문","관광지","서울 종로구 청와대로 1-0",37.58443293,126.9752055
161,"경복궁","광화문","관광지","서울 종로구 사직로 161-0",37.57604502,126.9769277
162,"경복궁","청와대","관광지","서울 종로구 청와대로 1-0",37.58559947,126.9764276
163,"경복궁","북악팔각정","관광지","서울 종로구 북악산로 267-0",37.60159764,126.9806493
164,"경복궁","팔각정북악스카이","관광지","서울 종로구 북악산로 267-0",37.60159764,126.9806493
165,"경복궁","경복궁","관광지","서울 종로구 사직로 161-0",37.57807256,126.9768999
166,"경복궁","들풀청운동점","맛집","서울 종로구 자하문로 118-0",37.586426,126.97014
167,"경찰병원","함경도찹쌀순대","맛집","서울 송파구 송파대로28길 32-0",37.494736,127.1213
168,"경찰병원","명인밥상","맛집","서울 송파구 송이로 157-0",37.49319,127.12524
169,"경찰병원","산삼청각","맛집","서울 송파구 송이로 151-0",37.493507,127.124916
170,"경찰병원","오향가가락본점","맛집","서울 송파구 송이로 106-0",37.49676,127.121376
171,"경찰병원","취영루송파점","맛집","서울 송파구 송이로 162-0",37.49261,127.124954
172,"경찰병원","가락골마산아구찜","맛집","서울 송파구 송이로19길 3-0",37.49746,127.12172
173,"고덕","샘터근린공원","관광지","서울 강동구",37.56210332,127.1577448
174,"고덕","고덕수변생태공원","관광지","서울 강동구",37.57021348,127.1557727
175,"고덕","숟가락반상마실강동점","맛집","서울 강동구 동남로73길 31-0",37.552673,127.154465
176,"고덕","스테이지28","맛집","서울 강동구 아리수로61길 105-0",37.565826,127.14695
177,"고덕","우드멜로우","맛집","서울 강동구 아리수로 243-0",37.563072,127.1551
178,"고덕","이마트/명일점","관광지","서울 강동구 고덕로 276-0",37.55463195,127.1559673
179,"고덕","강동아트센터","관광지","서울 강동구 동남로 870-0",37.55129901,127.1576338
180,"고덕","주양쇼핑","관광지","서울 강동구 고덕로62길 55-0",37.55246551,127.1536341
181,"고덕","브이센터","관광지","서울 강동구 아리수로61길 103-0",37.56539523,127.1477224
182,"고덕","강동아트센터/대극장한강","관광지","서울 강동구 동남로 870-0",37.55104904,127.1575505
183,"고려대","오소리순대본점","맛집","서울 동대문구 회기로4길 16-0",37.59056,127.03716
184,"고려대","제기시장","관광지","서울 동대문구 제기로 19-0",37.58626642,127.0350056
185,"고려대","홍릉숲","관광지","서울 동대문구 회기로 57-0",37.59532099,127.0448936
186,"고려대","영휘원","관광지","서울 동대문구 홍릉로 90-0",37.58976607,127.043977
187,"고려대","보타사마애불","관광지","서울 성북구 개운사길 60-46",37.59082142,127.0311171
188,"고려대","팔선생제기점","맛집","서울 동대문구 회기로 34-0",37.59108,127.040245
189,"고려대","세종대왕기념관","관광지","서울 동대문구 회기로 56-0",37.5908215,127.0435604
190,"고려대","큰대문집","맛집","서울 성북구 종암로14길 6-21",37.596294,127.03614
191,"고려대","KOCCA콘텐츠문화광장","관광지","서울 동대문구 회기로 66-0",37.591377,127.0451713
192,"고려대","김희수기념수림아트센터","관광지","서울 동대문구 홍릉로 118-0",37.59057152,127.0428938
193,"고려대","한국경제발전전시관","관광지","서울 동대문구 회기로 47-0",37.59487321,127.043052
194,"고려대","고려대아이스링크","관광지","서울 성북구 안암로 145-0",37.59351552,127.0262008
195,"고려대","고려시장","관광지","서울 성북구",37.59529316,127.0368943
196,"고려대","홍능갈비집본점","맛집","서울 동대문구 제기로 85-0",37.586895,127.04267
197,"고속터미널","브루클린더버거조인트서래마을점","맛집","서울 서초구 서래로2길 27-0",37.496105,126.99974
198,"고속터미널","모던눌랑반포센트럴시티점","맛집","서울 서초구 사평대로 205-0",37.504494,127.00784
199,"고속터미널","원더볼즈플레이파크","관광지","서울 서초구 고무래로 22-0",37.50249818,127.0107031
200,"고속터미널","한생연/휴먼탐구과학관","관광지","서울 서초구 반포대로 300-0",37.50594216,127.0010651
201,"고속터미널","달빛광장","관광지","서울 서초구",37.51158038,126.997482
202,"고속터미널","반포쇼핑타운","관광지","서울 서초구 신반포로 165-0",37.5058033,127.0023149
203,"고속터미널","메가박스/센트럴","관광지","서울 서초구 신반포로 176-0",37.50508117,127.004037
204,"고속터미널","신세계백화점/강남점","관광지","서울 서초구 신반포로 176-0",37.50502562,127.0042314
205,"고속터미널","텍사스데브라질센트럴시티점","맛집","서울 서초구 사평대로 205-0",37.504494,127.00784
206,"고속터미널","서래본가","맛집","서울 서초구 사평대로 126-0",37.499767,126.99835
207,"고속터미널","산들해반포점","맛집","서울 서초구 반포대로 287-0",37.50433,127.00109
208,"공덕","만리재길","관광지","서울 중구",37.55204771,126.9629847
209,"공덕","송추가마골인어반마포점","맛집","서울 마포구 독막로 311-0",37.543995,126.94748
210,"공덕","역전회관","맛집","서울 마포구 토정로37길 47-0",37.54294,126.947014
211,"공덕","탑클라우드23","맛집","서울 마포구 백범로 192-0",37.543232,126.95162
212,"공덕","두껍삼마포직영점","맛집","서울 마포구 독막로 331-0",37.543003,126.94938
213,"공덕","마키노차야마포점","맛집","서울 마포구 마포대로 92-0",37.54254,126.952194
214,"공덕","효창공원","관광지","서울 용산구 임정로 58-0",37.54552067,126.9601239
215,"공덕","마포진짜원조최대포본점","맛집","서울 마포구 마포대로 112-4",37.54456,126.95197
216,"공덕","몽중헌공덕점","맛집","서울 마포구 마포대로 92-0",37.54254,126.952194
217,"공덕","비파티세리공덕점","맛집","서울 마포구 마포대로14길 4-0",37.548634,126.95508
218,"공덕","이마트/마포점","관광지","서울 마포구 백범로 212-0",37.5423821,126.9533746
219,"공덕","공덕시장족발골목","관광지","서울 마포구 만리재로 19-0",37.54471954,126.9532896
220,"공덕","공덕시장","관광지","서울 마포구",37.54468739,126.9532912
221,"공덕","마포양지설렁탕","맛집","서울 마포구 새창로 6-0",37.542038,126.95051
222,"공릉","경복식당","맛집","서울 노원구 공릉로39길 10-0",37.62371,127.07886
223,"공릉","서울과학기술대학교 백주년기념관","관광지","서울 노원구 공릉로 232-0",37.63067822,127.0784457
224,"공릉","공릉동국수거리","맛집","서울 노원구",37.65436,127.05643
225,"공릉","라라브레드공릉점","맛집","서울 노원구 공릉로41길 32-0",37.624863,127.07786
226,"공릉","마포생고기","맛집","서울 노원구 동일로190길 39-0",37.62601,127.075264
227,"공릉","멍텅구리즉석떡볶이","맛집","서울 노원구 공릉로51길 14-2",37.628876,127.076385
228,"공릉","무봉리토종순대국","맛집","서울 노원구 동일로192길 63-0",37.627155,127.07627
229,"공릉","생선까시","맛집","서울 노원구 동일로191가길 22-0",37.62598,127.07142
230,"공릉","소문난멸치국수","맛집","서울 노원구 동일로173가길 81-0",37.621883,127.07242
231,"공릉","유정집","맛집","서울 노원구 동일로173가길 65-0",37.621162,127.07265
232,"공릉","쪼매매운떡볶이공릉점","맛집","서울 노원구 공릉로 208-0",37.62827,127.07778
233,"공릉","청학골","맛집","서울 노원구 동일로192길 6-0",37.625538,127.07358
234,"공릉","춘보만두","맛집","서울 노원구 섬밭로 56-0",37.621918,127.07184
235,"공릉","코타브레드","맛집","서울 노원구 공릉로 165-0",37.624733,127.07956
236,"공릉","공릉쇼핑센터","관광지","서울 노원구 동일로180길 14-0",37.62209586,127.0752794
237,"공릉","한촌설렁탕공릉역점","맛집","서울 노원구 동일로 1045-0",37.623405,127.07341
238,"공릉","핏짜굽는언니","맛집","서울 노원구 동일로198길 58-0",37.629486,127.07473
239,"광나루","아차산배수지/축구장","관광지","서울 광진구 천호대로 731-0",37.54879891,127.0967782
240,"광나루","파라다이스카지노/워커힐","관광지","서울 광진구 워커힐로 177-0",37.55523021,127.1107617
241,"광나루","아차산생태공원","관광지","서울 광진구",37.55188192,127.1007778
242,"광나루","구의야구공원","관광지","서울 광진구 광나루로 571-0",37.54696579,127.0956672
243,"광나루","아차산","관광지","서울 광진구",37.57154633,127.1037774
244,"광나루","예스24라이브홀","관광지","서울 광진구 구천면로 20-0",37.54577156,127.1079717
245,"광나루","빛의시어터","관광지","서울 광진구 워커힐로 177-0",37.55549267,127.1103603
246,"광나루","워커힐숲길","관광지","서울 광진구",37.55163198,127.1063051
247,"광나루","서울거리예술창작센터","관광지","서울 광진구 아차산로 710-0",37.55596485,127.1128045
248,"광나루","피자힐","맛집","서울 광진구 워커힐로 177-0",37.558628,127.11171
249,"광나루","콩예원","맛집","서울 광진구 아차산로78길 75-0",37.551598,127.110985
250,"광나루","카페드노보","맛집","서울 광진구 아차산로78길 157-0",37.548145,127.1091
251,"광나루","중일가든","맛집","서울 광진구 아차산로76가길 4-0",37.547523,127.1075
252,"광나루","신선설농탕광나루역점","맛집","서울 광진구 천호대로 813-0",37.545616,127.10413
253,"광나루","스시토푸","맛집","서울 광진구 아차산로 612-0",37.54734,127.1067
254,"광나루","서울편백찜광장점","맛집","서울 광진구 광장로 83-0",37.54803,127.106285
255,"광나루","범가","맛집","서울 광진구 광장로 58-1",37.54711,127.10361
256,"광나루","버터버거","맛집","서울 광진구 구천면로 13-0",37.5468,127.107285
257,"광나루","명월관","맛집","서울 광진구 워커힐로 177-0",37.558628,127.11171
258,"광나루","메이탄구의점","맛집","서울 광진구 광나루로 590-0",37.542587,127.09394
259,"광나루","더뷔페","맛집","서울 광진구 워커힐로 177-0",37.558628,127.11171
260,"광나루","37.5광진점","맛집","서울 광진구 아차산로76가길 5-0",37.5472,127.107605
261,"광운대","애슐리퀸즈이마트월계점","맛집","서울 노원구 마들로3길 15-0",37.62651,127.06198
262,"광화문","경희궁","관광지","서울 종로구 새문안로 55-0",37.5707678,126.9688729
263,"광화문","청계광장","관광지","서울 종로구 청계천로 1-0",37.56926803,126.9779276
264,"광화문","광화문광장","관광지","서울 종로구 세종대로 지하 172-0",37.5724276,126.9769283
265,"광화문","씨네큐브/광화문점","관광지","서울 종로구 새문안로 68-0",37.56974016,126.9722615
266,"광화문","동화면세점/본점","관광지","서울 종로구 세종대로 149-0",37.56960131,126.97615
267,"광화문","대한민국역사박물관","관광지","서울 종로구 세종대로 198-0",37.57393416,126.9778165
268,"광화문","오제제","맛집","서울 중구 세종대로 136-0",37.568424,126.97826
269,"광화문","붓처스컷광화문점","맛집","서울 중구 세종대로 136-0",37.568424,126.97826
270,"광화문","디라이프스타일키친","맛집","서울 중구 세종대로 136-0",37.568424,126.97826
271,"광화문","광화문국밥본점","맛집","서울 중구 세종대로21길 53-0",37.568954,126.975426
272,"광화문","파리크라상광화문점","맛집","서울 종로구 종로 1-0",37.573055,127.016594
273,"광화문","폴바셋광화문점","맛집","서울 종로구 종로1길 50-0",37.574726,126.97902
274,"광화문","라그릴리아광화문점","맛집","서울 종로구 청계천로 11-0",37.569485,126.97887
275,"광화문","아우어베이커리광화문디팰리스점","맛집","서울 종로구 새문안로2길 10-0",37.568703,126.971985
276,"광화문","암소서울","맛집","서울 종로구 새문안로 76-0",37.569798,126.973175
277,"광화문","덕후선생광화문D타워점","맛집","서울 종로구 종로3길 17-0",37.570995,126.97891
278,"광화문","한일관광화문점","맛집","서울 종로구 종로1길 50-0",37.574726,126.97902
279,"광화문","테라로사광화문지점","맛집","서울 종로구 종로1길 50-0",37.574726,126.97902
280,"광화문","송추가마골인어반광화문점","맛집","서울 종로구 새문안로5길 31-0",37.572975,126.97435
281,"광화문","청진옥본점","맛집","서울 종로구 종로3길 32-0",37.571728,126.97946
282,"광흥창","프랑제리피어 신촌점","맛집","서울 마포구 서강로 75-16",37.54962,126.93126
283,"교대","푸주옥","맛집","서울 양천구 남부순환로 663-0",37.51022,126.84296
284,"교대","헬로방방/서초본점","관광지","서울 서초구 사임당로 115-0",37.4910829,127.0223966
285,"교대","탐라도야지본점","맛집","서울 서초구 서초대로50길 82-0",37.489594,127.01356
286,"교대","이남장서초점","맛집","서울 서초구 서초대로49길 4-0",37.49379,127.01238
287,"교대","서석대","맛집","서울 서초구 서초대로 346-0",37.4951,127.019424
288,"교대","서관면옥","맛집","서울 서초구 서초대로56길 11-0",37.49399,127.01727
289,"교대","샘밭막국수","맛집","서울 서초구 서초중앙로24길 27-0",37.49541,127.0164
290,"교대","삿뽀로서초점","맛집","서울 서초구 서초중앙로 195-0",37.499184,127.012024
291,"교대","김영모과자점서초성당점","맛집","서울 서초구 서초대로64길 41-4",37.493793,127.021385
292,"교대","금수복국서초점","맛집","서울 서초구 서초중앙로24길 22-0",37.494724,127.01599
293,"교대","교대이층집본점","맛집","서울 서초구 서초대로50길 24-0",37.49209,127.01282
294,"교대","교대곱창","맛집","서울 서초구 서초중앙로 77-0",37.488678,127.01425
295,"교대","곤드레집","맛집","서울 서초구 청룡마을1길 1-0",37.445404,127.05785
296,"교대","경복궁서초점","맛집","서울 서초구 서초중앙로 195-0",37.499184,127.012024
297,"교대","3대삼계장인","맛집","서울 서초구 반포대로28길 56-3",37.491302,127.01159
298,"교대","푸주옥","맛집","서울 강동구 강동대로 209-0",37.523857,127.1298
299,"교대","푸주옥","맛집","서울 영등포구 대림로 171-0",37.496037,126.899
300,"구로","구로거리공원","관광지","서울 구로구",37.50102539,126.8903807
301,"구로","애슐리퀸즈NC신구로점","맛집","서울 구로구 구로중앙로 152-0",37.50116,126.882774
302,"구로","이키즈랜드/신구로점","관광지","서울 구로구 구로중앙로 152-0",37.50115742,126.8828273
303,"구로","구로어린이교통공원","관광지","서울 구로구",37.50852442,126.8746042
304,"구로","헬로방방/신도림점","관광지","서울 구로구 경인로59길 8-0",37.50644138,126.8833535
305,"구로","삼성패션아울렛/NC신구로점","관광지","서울 구로구 구로중앙로 152-0",37.50116421,126.882798
306,"구로","화원상상어린이공원","관광지","서울 구로구 벚꽃로 490-0",37.49774793,126.8802705
307,"구로","평화의 소녀상","관광지","서울 구로구",37.50316397,126.8804649
308,"구로","구로안양천물놀이장","관광지","서울 양천구",37.50596916,126.8732988
309,"구로","예술나무씨어터","관광지","서울 구로구 구로중앙로 134-0",37.49988659,126.8841035
310,"구로","리치몰","관광지","서울 구로구 구로중앙로 134-0",37.49999769,126.8841035
311,"구로","CGV/구로","관광지","서울 구로구 구로중앙로 152-0",37.50113644,126.8827702
312,"구로","조선갈비실록구로점","맛집","서울 구로구 경인로 572-0",37.503307,126.88108
313,"구로","한우가","맛집","서울 구로구 공원로 67-0",37.502354,126.888466
314,"구로","NC백화점/신구로점","관광지","서울 구로구 구로중앙로 152-0",37.50116421,126.8828258
315,"구로","서울특별시교육청과학전시관/남부분관","관광지","서울 구로구 구로중앙로27나길 21-0",37.49655365,126.8857145
316,"구로디지털단지","물찬조개","맛집","서울 관악구 조원로 43-0",37.483788,126.90737
317,"구로디지털단지","구룡공원","관광지","서울 금천구 독산로107길 13-0",37.4779448,126.9028242
318,"구로디지털단지","G밸리산업박물관","관광지","서울 구로구 디지털로26길 38-0",37.47997295,126.8952847
319,"구로디지털단지","지밸리몰","관광지","서울 구로구 디지털로 300-0",37.4848884,126.8965192
320,"구로디지털단지","이마트/구로점","관광지","서울 구로구 디지털로32길 43-0",37.48444402,126.8979357
321,"구로디지털단지","롯데시네마/신대방","관광지","서울 동작구 시흥대로 606-0",37.4863177,126.9052019
322,"구로디지털단지","스타인라인스쿨","관광지","서울 금천구 남부순환로 1424-0",37.48050827,126.9089483
323,"구로디지털단지","상무초밥구로디지털점","맛집","서울 관악구 시흥대로 568-0",37.483376,126.902374
324,"구로디지털단지","엔제리너스구로디지털역점","맛집","서울 관악구 시흥대로 572-0",37.48389,126.90282
325,"구로디지털단지","은행골본점","맛집","서울 관악구 조원로 10-1",37.483295,126.90345
326,"구로디지털단지","조마루감자탕구로1호점","맛집","서울 관악구 조원로 8-0",37.48336,126.90302
327,"구로디지털단지","한우정육마당구로점","맛집","서울 관악구 시흥대로164길 3-0",37.48251,126.901764
328,"구로디지털단지","갓파스시구로점","맛집","서울 구로구 디지털로 288-0",37.48357,126.8955
329,"구로디지털단지","깔깔거리","맛집","서울 구로구",37.495434,126.887505
330,"구로디지털단지","메이비","맛집","서울 구로구 디지털로32나길 51-0",37.4849,126.90038
331,"구로디지털단지","생어거스틴지밸리몰점","맛집","서울 구로구 디지털로 300-0",37.48493,126.89654
332,"구로디지털단지","스시메이진구로점","맛집","서울 구로구 디지털로 300-0",37.48493,126.89654
333,"구로디지털단지","신림춘천집구로디지털직영점","맛집","서울 구로구 디지털로32나길 17-23",37.48406,126.89985
334,"구로디지털단지","어다리횟집구로점","맛집","서울 구로구 시흥대로 551-0",37.48254,126.900246
335,"구로디지털단지","최우영스시","맛집","서울 구로구 디지털로 288-0",37.48357,126.8955
336,"구로디지털단지","폴바셋구로지밸리몰점","맛집","서울 구로구 디지털로 300-0",37.48493,126.89654
337,"구로디지털단지","어물전금천독산점","맛집","서울 금천구 시흥대로152길 11-43",37.478546,126.90057
338,"구로디지털단지","복만루","맛집","서울 영등포구 디지털로 346-0",37.488613,126.899254
339,"구로디지털단지","대림어린이공원","관광지","서울 영등포구 대림로 106-0",37.49135992,126.903324
340,"구산","역촌중앙시장","관광지","서울 은평구 연서로17길 18-6",37.61331811,126.9161828
341,"구산","길마공원","관광지","서울 은평구",37.61473461,126.9158495
342,"구산","만포면옥본점","맛집","서울 은평구 연서로 171-0",37.614143,126.91746
343,"구산","서오릉피자구산역점","맛집","서울 은평구 서오릉로 124-0",37.610497,126.919014
344,"구산","구산동마을공원","관광지","서울 은평구",37.61459569,126.9084057
345,"구산","가이오국수본점","맛집","서울 은평구 연서로 132-0",37.61054,126.91728
346,"구산","폴스타베이커스","맛집","서울 은평구 서오릉로 256-0",37.617188,126.90701
347,"구산","홍제동우동국수","맛집","서울 은평구 서오릉로 242-0",37.616344,126.907814
348,"구산","채선당구산점","맛집","서울 은평구 연서로 106-0",37.60836,126.91587
349,"구의","마루샤브아차산역점","맛집","서울 광진구 천호대로 633-0",37.554195,127.08803
350,"구의","마루샤브구의점","맛집","서울 광진구 아차산로 355-0",37.53737,127.082565
351,"구의","팀스쿡","맛집","서울 광진구 광나루로50길 10-0",37.542477,127.09361
352,"구의","줄줄이김밥","맛집","서울 광진구 구의로12길 4-0",37.542957,127.09039
353,"구의","신선설농탕자양점","맛집","서울 광진구 자양로 139-0",37.540318,127.08291
354,"구의","송쉐프구의점","맛집","서울 광진구 아차산로 355-0",37.53737,127.082565
355,"구의","삼백집건대점","맛집","서울 광진구 아차산로 350-0",37.536663,127.08158
356,"구의","모두랑분식","맛집","서울 광진구 자양로28길 24-0",37.54207,127.08552
357,"구의","정말공원","관광지","서울 광진구",37.53324504,127.07828
358,"구의","TTM스퀘어","관광지","서울 광진구 아차산로 355-0",37.5373557,127.0826129
359,"구의","자양골목시장","관광지","서울 광진구 자양로15길 96-0",37.53477264,127.0783633
578,"내방","스시타노","맛집","서울 서초구 서래로5길 30-0",37.497986,126.99649
579,"노량진","63아트홀","관광지","서울 영등포구 63로 50-0",37.51982907,126.9401538
580,"노량진","노량진수산시장","관광지","서울 동작구 노들로 674-0",37.51474631,126.9378485
581,"노량진","동작구노량진야구장","관광지","서울 동작구 노들로 688-0",37.51526163,126.943113
582,"노량진","동작구노량진축구장","관광지","서울 동작구 노들로 688-0",37.51537629,126.9417823
583,"노량진","CTS아트홀","관광지","서울 동작구 노량진로 100-0",37.51299651,126.9370152
584,"노량진","전라상회","관광지","서울 동작구 노들로 674-0",37.51460743,126.9368208
585,"노량진","여의도한강공원/민속놀이마당","관광지","서울 영등포구",37.52044013,126.9424591
586,"노량진","노량진수산시장구시장","관광지","서울 동작구 노들로 688-0",37.51524628,126.9415703
587,"노량진","아쿠아플라넷63","관광지","서울 영등포구 63로 50-0",37.51949577,126.9397649
588,"노량진","노량진컵밥거리","맛집","서울 동작구",37.51248,126.939316
589,"노량진","순천집","맛집","서울 동작구 노량진로 80-0",37.512886,126.934586
590,"노량진","형제상회","맛집","서울 동작구 노들로 688-0",37.51501,126.94453
591,"노량진","63스퀘어","관광지","서울 영등포구 63로 50-0",37.51974575,126.9397094
592,"노량진","청원민물고기직판장","관광지","서울 동작구 노량진로 86-0",37.51305205,126.9352932
593,"노원","신선설농탕노원역점","맛집","서울 노원구 노해로 511-0",37.655457,127.06473
594,"노원","스시웨이노원점","맛집","서울 노원구 동일로 1374-0",37.65131,127.06176
595,"노원","쉐이크쉑노원점","맛집","서울 노원구 동일로 1414-0",37.655277,127.06139
596,"노원","소담촌노원역점","맛집","서울 노원구 상계로 90-0",37.656277,127.064575
597,"노원","보타닉커피","맛집","서울 노원구 상계로3길 38-8",37.657974,127.06304
598,"노원","아웃백스테이크하우스노원점","맛집","서울 노원구 동일로 1419-0",37.655308,127.059845
599,"노원","이춘복참치노원직영점","맛집","서울 노원구 노해로85길 10-7",37.65617,127.06552
600,"노원","전민규의황제누룽지탕노원직영점","맛집","서울 노원구 노해로77길 14-8",37.654728,127.05964
601,"노원","풍미연노원본점","맛집","서울 노원구 노해로85길 7-0",37.655666,127.06481
602,"노원","풍년상회쪽갈비","맛집","서울 강동구 천호옛14길 23-6",37.536366,127.12692
603,"노원","감동식당","맛집","서울 노원구 한글비석로47길 58-0",37.661617,127.06659
604,"노원","로니로티노원점","맛집","서울 노원구 상계로 63-7",37.65651,127.06189
605,"노원","롯데백화점/노원점","관광지","서울 노원구 동일로 1414-0",37.6550364,127.0611137
606,"노원","롯데시네마/노원","관광지","서울 노원구 동일로 1414-0",37.65498085,127.0611693
607,"노원","와우쇼핑몰","관광지","서울 노원구 노해로 507-0",37.65539749,127.0638912
608,"노원","노원문화의거리","관광지","서울 노원구",37.65563418,127.0637485
609,"노원","노원어린이극장","관광지","서울 노원구 노해로 502-0",37.65459202,127.063669
610,"노원","마실노원점","맛집","서울 노원구 노원로 412-0",37.653404,127.06811
611,"노원","금호프라자","관광지","서울 노원구 상계로5길 32-0",37.65706395,127.0627247
612,"노원","더숲","관광지","서울 노원구 노해로 480-0",37.65414762,127.0614193
613,"녹번","심택사","관광지","서울 은평구 은평로20나길 5-23",37.59729229,126.9333203
614,"녹번","북한산둘레길/7구간","관광지","서울 서대문구",37.60701347,126.9471245
615,"녹번","동굴과화로구이","맛집","서울 은평구 은평로 185-0",37.602173,126.92826
616,"녹번","우주미","맛집","서울 은평구 은평로 185-0",37.602173,126.92826
617,"녹번","37.5녹번점","맛집","서울 은평구 통일로 636-0",37.603516,126.93531
618,"녹사평","보니스피자펍","맛집","서울 용산구 신흥로3길 2-0",37.54119,126.98694
619,"녹사평","이태원시장","관광지","서울 용산구 이태원로14길 6-0",37.53382776,126.990038
620,"녹사평","용산아트홀","관광지","서울 용산구 녹사평대로 150-0",37.53252236,126.9901769
621,"녹사평","마오이태원점","맛집","서울 용산구 회나무로 57-0",37.540337,126.99292
622,"녹사평","보마켓경리단점","맛집","서울 용산구 녹사평대로 286-0",37.54313,126.98952
623,"녹사평","비스테까","맛집","서울 용산구 회나무로 49-0",37.540077,126.992096
624,"녹사평","더베이커스테이블본점","맛집","서울 용산구 녹사평대로 244-1",37.539448,126.987465
625,"녹사평","명동교자이태원점","맛집","서울 용산구 녹사평대로 136-0",37.530872,126.99096
626,"녹사평","경리단길","맛집","서울 용산구",37.53243,126.99058
627,"녹사평","신흥시장","관광지","서울 용산구 신흥로 95-9",37.54527085,126.9850661
628,"논현","언구비공원","관광지","서울 서초구 강남대로89길 0-0",37.50894193,127.0202022
629,"논현","무한쌈밥집","맛집","서울 서초구 강남대로93길 23-10",37.5124,127.01885
630,"논현","진동둔횟집","맛집","서울 서초구 강남대로91길 18-0",37.51227,127.01964
631,"답십리","성천막국수","맛집","서울 동대문구 답십리로48나길 2-0",37.569893,127.05781
632,"답십리","안흥갈비","맛집","서울 동대문구 장한로 153-0",37.574158,127.07157
633,"답십리","장안순대국밥","맛집","서울 동대문구 고미술로 81-0",37.5656,127.055725
634,"답십리","장원닭한마리","맛집","서울 동대문구 전농로 30-1",37.567474,127.05713
635,"답십리","갈비명가이상답십리점","맛집","서울 동대문구 천호대로 327-0",37.564545,127.05642
636,"답십리","천호낙지","맛집","서울 동대문구 사가정로 207-0",37.57889,127.068016
637,"답십리","배봉산근린공원","관광지","서울 동대문구 전농로16길 97-0",37.58082279,127.0641975
638,"답십리","동부시장","관광지","서울 동대문구 천호대로 281-0",37.56724095,127.0527542
639,"답십리","클럽롤러힐","관광지","서울 동대문구 답십리로 209-0",37.57329588,127.063781
640,"답십리","현대시장","관광지","서울 동대문구 한천로11길 61-0",37.56726876,127.0581426
641,"답십리","커피나인본점","맛집","서울 동대문구 전농로3길 12-0",37.568546,127.056625
642,"답십리","늘봄해물찜손칼국수답십리본점","맛집","서울 동대문구 전농로 39-0",37.56856,127.05681
643,"당고개","수락산당고개지구공원","관광지","서울 노원구",37.66875713,127.0769455
644,"당고개","학림사","관광지","서울 노원구 덕릉로129가길 241-0",37.6821761,127.0774177
645,"당고개","엄마손칼국수","맛집","서울 노원구 상계로39길 5-0",37.67104,127.08023
646,"당고개","도안사","관광지","서울 노원구 덕릉로145길 99-0",37.68388037,127.0854268
647,"당고개","불암산도시자연공원","관광지","서울 노원구",37.66453544,127.082445
648,"당산","서울마리나클럽앤요트","관광지","서울 영등포구 여의서로 160-0",37.53482716,126.9115451
649,"당산","이조보쌈","맛집","서울 영등포구 당산로 244-0",37.534966,126.90309
650,"당산","어라운지선유도점","맛집","서울 영등포구 양평로28마길 9-0",37.542336,126.89072
651,"당산","아리수만찬","맛집","서울 영등포구 노들로 111-0",37.54534,126.893684
652,"당산","뚜스뚜스선유도점","맛집","서울 영등포구 양평로 132-0",37.538513,126.89337
653,"당산","또순이네","맛집","서울 영등포구 선유로47길 16-0",37.53587,126.895386
654,"당산","강강술래당산점","맛집","서울 영등포구 선유로 251-0",37.535244,126.89674
655,"당산","양화한강공원","관광지","서울 영등포구 노들로 221-0",37.54132633,126.8981296
656,"대림","대림중앙시장","관광지","서울 영등포구 디지털로37나길 15-0",37.49116085,126.8992298
657,"대림","명화사","관광지","서울 구로구 가마산로20나길 11-0",37.49302629,126.8865478
658,"대림","갈비명가","맛집","서울 구로구 가마산로 260-0",37.495262,126.88966
659,"대림","동대문엽기떡볶이구로점","맛집","서울 구로구 도림천로 338-0",37.494804,126.8938
660,"대림","서울안심축산정육식당","맛집","서울 구로구 공원로 47-0",37.501022,126.88964
661,"대림","서일순대국전문구로점","맛집","서울 구로구 구로중앙로 6-0",37.491085,126.89278
662,"대림","참조은순대국전문점구로직영점","맛집","서울 구로구 구로중앙로 47-0",37.493874,126.88959
663,"대림","가족천하","맛집","서울 영등포구 가마산로 330-0",37.498806,126.89633
664,"대림","구로리공원","관광지","서울 구로구 구로중앙로 13-0",37.4908599,126.8916029
665,"대림","거리공원","관광지","서울 구로구",37.49924782,126.8919083
666,"대림","구로아트밸리예술극장","관광지","서울 구로구 가마산로25길 9-24",37.49655367,126.8889086
667,"대방","희래등","맛집","서울 동작구 등용로 123-0",37.512104,126.931725
668,"대방","노량진근린공원","관광지","서울 동작구 여의대방로44길 39-0",37.50724711,126.9273495
669,"대방","초록애대방점","맛집","서울 동작구 여의대방로54길 5-0",37.511974,126.925934
670,"대방","다채대방점","맛집","서울 동작구 알마타길 6-0",37.509857,126.92496
671,"대방","아트홀봄","관광지","서울 동작구 여의대방로54길 18-0",37.51163549,126.9271828
672,"대방","스페이스살림","관광지","서울 동작구 노량진로 10-0",37.51235763,126.927155
673,"대치","할매재첩국대치점","맛집","서울 강남구 삼성로 308-0",37.49967,127.06082
674,"대흥","조선초가한끼","맛집","서울 마포구 독막로 288-0",37.544434,126.94497
675,"대흥","을밀대본점","맛집","서울 마포구 숭문길 24-0",37.547493,126.94553
676,"대흥","아소정","맛집","서울 마포구 백범로25길 9-0",37.546604,126.94637
677,"대흥","램랜드","맛집","서울 마포구 토정로 255-0",37.54345,126.93887
678,"도곡","아웃백스테이크하우스도곡점","맛집","서울 강남구 남부순환로 2909-0",37.492184,127.05741
679,"도곡","VIPS도곡역점","맛집","서울 강남구 남부순환로 2912-0",37.490707,127.056145
680,"도림천","행주산성 국수집","맛집","서울 구로구 신도림로 105-0",37.512157,126.88531
681,"도림천","안양천생태공원","관광지","서울 영등포구 영등포로2길 62-0",37.5183225,126.8811369
682,"도림천","해마루축구장","관광지","서울 양천구",37.5179678,126.8785482
683,"도림천","안양천/생태초화원","관광지","서울 구로구",37.51182961,126.8774928
684,"도림천","안양천c축구장","관광지","서울 구로구",37.51510574,126.8800577
685,"도봉","로로옴","맛집","서울 도봉구 도봉로152가길 152-0",37.676323,127.045235
686,"도봉","메이다이닝","맛집","서울 도봉구 도봉로169길 202-0",37.67794,127.03536
687,"도봉","무수옥","맛집","서울 도봉구 도봉로165길 15-0",37.677162,127.04416
688,"도봉","묵은지사랑","맛집","서울 도봉구 도봉로164길 38-0",37.675343,127.04675
689,"도봉","장수옥설렁탕도가니탕","맛집","서울 도봉구 도봉로 805-0",37.67644,127.04424
690,"도봉","삼오집","맛집","서울 도봉구 도봉로165길 4-0",37.6777,127.04461
691,"도봉","무수골계곡","관광지","서울 도봉구",37.67664484,127.0335604
692,"도봉","도봉시장","관광지","서울 도봉구 마들로 724-0",37.67464516,127.0475036
693,"도봉","도봉구야외물놀이축제","관광지","서울 도봉구 도봉로168길 30-0",37.6787558,127.0484202
694,"도봉","성신여자대학교/난향원","관광지","서울 도봉구 도봉로169길 416-0",37.67546774,127.0234657
695,"도봉","도봉튜빙눈썰매장","관광지","서울 도봉구 도봉로168길 30-0",37.67839472,127.0471425
696,"도봉","도봉구야외수영장","관광지","서울 도봉구 도봉로168길 30-0",37.67886634,127.0483685
697,"도봉","도봉암","관광지","서울 도봉구 도봉로173다길 32-68",37.68036541,127.0356413
698,"도봉","갈대밭어린이공원","관광지","서울 도봉구",37.6743674,127.0458371
699,"도봉","서원암","관광지","서울 도봉구 도봉로155길 40-0",37.67306197,127.0417264
700,"도봉","자현암","관광지","서울 도봉구 도봉로169길 500-0",37.67675586,127.0217837
701,"도봉","무수어린이공원","관광지","서울 도봉구",37.68061666,127.042754
702,"도봉","서원어린이공원","관광지","서울 도봉구",37.68383851,127.0433373
703,"도봉산","서울창포원","관광지","서울 도봉구 마들로 916-0",37.68936568,127.0481146
704,"도봉산","도봉산양고기","맛집","서울 도봉구 도봉로191길 99-6",37.689922,127.04174
705,"도봉산","인디언소울","맛집","서울 도봉구 도봉산길 12-15",37.688137,127.04396
706,"도봉산","장위동유성집본점","맛집","서울 도봉구 도봉로180나길 56-0",37.68379,127.05068
707,"도봉산","내자사","관광지","서울 도봉구 도봉로191길 88-94",37.68969891,127.0388098
708,"도봉산","새동네어린이공원","관광지","서울 도봉구",37.6889768,127.0431983
709,"도봉산","도봉구평화울림터","관광지","서울 도봉구",37.69126936,127.0486058
710,"도봉산","도봉계곡","관광지","서울 도봉구",37.68700473,127.0297274
711,"도봉산","도봉사","관광지","서울 도봉구 도봉산길 89-0",37.68631037,127.0304217
712,"도봉산","다락원체육공원","관광지","서울 도봉구 창포원로 45-0",37.69189316,127.0475868
713,"도봉산","북한산국립공원/도봉탐방지원센터","관광지","서울 도봉구 도봉산길 73-0",37.68611598,127.0359768
714,"도봉산","한신쇼핑","관광지","서울 도봉구 도봉로180나길 41-0",37.68417185,127.0499478
715,"도봉산","도봉산","관광지","서울 도봉구 도봉산길 58-0",37.70050307,127.0157007
716,"도봉산","다락체육공원/축구장","관광지","서울 도봉구 창포원로 45-0",37.69169874,127.0479757
717,"도봉산","광륜사","관광지","서울 도봉구 도봉산길 86-1",37.68775467,127.0354491
718,"도봉산","평화문화진지","관광지","서울 도봉구 마들로 932-0",37.69083772,127.0471146
719,"도봉산","연수암","관광지","서울 도봉구 도봉산4길 28-19",37.68894903,127.0436705
720,"도봉산","옛골토성도봉산점","맛집","서울 도봉구 도봉산4나길 43-0",37.68883,127.04464
721,"도봉산","영수네감자국","맛집","서울 도봉구 도봉로181길 86-0",37.6856,127.04176
722,"도봉산","명륜진사갈비서울도봉산점","맛집","서울 도봉구 도봉산길 10-0",37.687634,127.04485
723,"도봉산","도봉산갈비","맛집","서울 도봉구 도봉로 919-0",37.686466,127.045654
724,"도봉산","옹기꽃게장","맛집","서울 도봉구 도봉산4가길 14-9",37.688503,127.04125
725,"독립문","대성집","맛집","서울 종로구 사직로 5-0",37.572735,126.96093
726,"독립문","수성동계곡","관광지","서울 종로구",37.58254418,126.9621789
727,"독립문","서대문독립공원","관광지","서울 서대문구 통일로 251-0",37.57410067,126.956374
728,"독립문","독립문","관광지","서울 서대문구",37.57243422,126.9595404
729,"독립문","국립대한민국임시정부기념관","관광지","서울 서대문구 통일로 279-24",37.57606082,126.9543945
730,"독립문","안산자락길","관광지","서울 서대문구",37.57576707,126.9446528
731,"독립문","독립관","관광지","서울 서대문구 통일로 251-0",37.57304525,126.9582072
732,"독립문","청운대안내소","관광지","서울 종로구",37.59617742,126.9730104
733,"독립문","서대문형무소역사관","관광지","서울 서대문구 통일로 251-0",37.57457284,126.9559018
734,"독립문","경찰박물관","관광지","서울 종로구 송월길 162-0",37.57207316,126.9621235
735,"독립문","환기미술관","관광지","서울 종로구 자하문로40길 63-0",37.59411766,126.9661264
736,"독립문","윤동주문학관","관광지","서울 종로구 창의문로 119-0",37.5921542,126.9671228
737,"독바위","둘렛길맛집","맛집","서울 은평구 불광로18가길 49-0",37.626,126.93364
738,"독바위","삼천사계곡","관광지","서울 은평구",37.64078739,126.9547346
739,"독바위","북한산생태공원","관광지","서울 은평구",37.61128099,126.9401158
740,"독바위","선림사","관광지","서울 은평구",37.62751104,126.9370697
741,"독바위","다문화박물관","관광지","서울 은평구 불광로 135-0",37.6187898,126.9325146
742,"독바위","불광사","관광지","서울 은평구 불광로18길 49-0",37.62331708,126.9365975
743,"독산","명륜진사갈비독산점","맛집","서울 금천구 시흥대로 447-0",37.473564,126.89789
744,"독산","도원","맛집","서울 금천구 범안로 1130-0",37.465523,126.88767
745,"독산","더카페이네스트점","맛집","서울 금천구 범안로 1155-0",37.46682,126.89003
746,"독산","김밥전문공간얌얌","맛집","서울 금천구 금하로 675-0",37.452797,126.905426
747,"독산","LAB1004","맛집","서울 금천구 벚꽃로 104-0",37.464565,126.89107
748,"독산","화로구이독산점","맛집","서울 금천구 범안로 1200-0",37.46633,126.89507
749,"독산","우시장3호집","맛집","서울 금천구 시흥대로 364-0",37.466076,126.89807
750,"독산","우리소양평해장국본점","맛집","서울 금천구 범안로 1244-0",37.46625,126.900055
751,"독산","신선설농탕독산점","맛집","서울 금천구 시흥대로 405-0",37.46995,126.89757
752,"독산","북창동순두부독산점","맛집","서울 금천구 시흥대로123길 14-0",37.470493,126.89726
753,"독산","독산동먹자골목","맛집","서울 금천구",37.45684,126.895454
754,"독산","논빼미돼지볶음","맛집","서울 금천구 시흥대로 185-0",37.45036,126.90183
755,"독산","궁전산들애밥상","맛집","서울 금천구 독산로 178-1",37.46325,126.90396
756,"독산","무지개상상어린이공원","관광지","서울 금천구 시흥대로90길 60-3",37.46297429,126.9009634
757,"독산","모닝푸드","관광지","서울 금천구 범안로21길 6-0",37.46683493,126.8969082
758,"독산","예술의시간","관광지","서울 금천구 범안로9길 23-0",37.46750148,126.8898533
759,"독산","베짱이유아숲체험장","관광지","서울 금천구 독산로54길 102-82",37.46711276,126.9096015
760,"독산","천불사","관광지","서울 금천구 독산로50길 163-16",37.46139122,126.9135178
761,"독산","세광사","관광지","서울 금천구 독산로54길 57-0",37.46516328,126.9071563
762,"독산","심원사","관광지","서울 금천구 독산로50가길 50-0",37.46402979,126.9116846
763,"독산","벚꽃십리길","관광지","서울 금천구",37.46883465,126.8886311
764,"독산","사조씨푸드/구로지점","관광지","서울 금천구 두산로7길 13-0",37.47138993,126.8913253
765,"독산","문화정원아트홀","관광지","서울 금천구 가산로 61-0",37.47183435,126.8959082
766,"독산","금천예술공장","관광지","서울 금천구 범안로15길 57-0",37.46889022,126.8919364
767,"독산","금천뮤지컬센터","관광지","서울 금천구 시흥대로115길 48-0",37.4689205,126.8938754
768,"독산","금천체육공원","관광지","서울 금천구 독산로54길 102-27",37.46819596,126.9086849
769,"독산","독산근린공원","관광지","서울 금천구 범안로 1096-0",37.46366856,126.8842149
770,"독산","산기슭공원","관광지","서울 금천구 독산로54길 6-0",37.46341873,126.9073239
771,"독산","진영면옥","맛집","서울 금천구 가산로 22-5",37.47157,126.9004
772,"독산","왕게수산시흥동점","맛집","서울 금천구 시흥대로 182-0",37.45017,126.90276
773,"독산","암소한마리","맛집","서울 금천구 시흥대로 371-0",37.466694,126.89731
774,"독산","솔향기해물칼국수","맛집","서울 금천구 금하로 722-0",37.45041,126.90992
775,"독산","빵집아저씨","맛집","서울 금천구 독산로 112-0",37.457382,126.90562
776,"독산","부뚜막청국장","맛집","서울 금천구 독산로 242-0",37.46838,126.902405
777,"독산","쌈지어린이공원","관광지","서울 금천구",37.47091784,126.9039908
778,"독산","뽀로로파크/롯데빅마켓금천점","관광지","서울 금천구 두산로 71-0",37.4704734,126.8957416
779,"독산","쥬라리움/금천점","관광지","서울 금천구 두산로 71-0",37.47061227,126.895686
780,"독산","CT LEX","관광지","서울 금천구 시흥대로 399-0",37.4693902,126.8972415
781,"독산","별빛남문시장","관광지","서울 금천구 시흥대로144길 17-0",37.47336198,126.9007411
782,"독산","롯데시네마/독산","관광지","서울 금천구 시흥대로 399-0",37.46936242,126.8970748
783,"독산","독산동우시장","관광지","서울 금천구 범안로 1209-0",37.46680716,126.8962693
784,"독산","빅마켓/금천점","관광지","서울 금천구 두산로 71-0",37.47061227,126.8956583
785,"독산","롯데마트/금천점","관광지","서울 금천구 시흥대로 291-0",37.45930224,126.89709
786,"독산","홈플러스/금천점","관광지","서울 금천구 시흥대로 391-0",37.46866806,126.8969082
787,"돌곶이","스카이방방/서울석관점","관광지","서울 성북구 돌곶이로 51-0",37.608514,127.0592532
788,"돌곶이","돌곶이시장","관광지","서울 성북구 한천로73길 26-0",37.60970832,127.0620308
789,"돌곶이","헬로방방/돌곶이역점","관광지","서울 성북구 화랑로 248-0",37.61029155,127.0569201
790,"돌곶이","석관시장","관광지","서울 성북구 돌곶이로22가길 27-0",37.60926391,127.0601143
791,"돌곶이","장위전통시장","관광지","서울 성북구 화랑로19가길 20-22",37.61031929,127.0513095
792,"돌곶이","의릉","관광지","서울 성북구 화랑로32길 146-37",37.60362566,127.0572535
793,"돌곶이","태성식당","맛집","서울 성북구 화랑로33길 38-0",37.611866,127.05487
794,"돌곶이","조마루감자탕석관점","맛집","서울 성북구 화랑로 262-0",37.611267,127.05833
795,"돌곶이","장위기사식당","맛집","서울 성북구 돌곶이로 215-0",37.618546,127.04603
796,"돌곶이","일번지정육식당돌곶이직영점","맛집","서울 성북구 화랑로 254-0",37.61081,127.0576
797,"돌곶이","성가네낙지마을석관점","맛집","서울 성북구 화랑로 236-0",37.609875,127.05575
798,"돌곶이","성가네낙지마을본점","맛집","서울 도봉구 방학로 99-22",37.66192,127.041595
799,"돌곶이","한상","맛집","서울 성북구 화랑로 248-0",37.610405,127.05691
800,"돌곶이","방문자센터/북서울꿈의숲","관광지","서울 강북구 월계로 173-0",37.62042919,127.0442545
801,"동대문","JW메리어트동대문더라운지","맛집","서울 종로구 청계천로 279-0",37.57045,127.00874
802,"동대문","흥인지문","관광지","서울 종로구 종로 288-0",37.57101802,127.0097025
803,"동대문","진고개","맛집","서울 중구 충무로 19-1",37.56309,126.99282
804,"동대문","쉐이크쉑두타점","맛집","서울 중구 장충단로 275-0",37.568886,127.00877
805,"동대문","진옥화할매원조닭한마리본점","맛집","서울 종로구 종로40가길 18-0",37.570374,127.0057
806,"동대문","두산타워","관광지","서울 중구 장충단로 275-0",37.56890715,127.0087026
807,"동대문","동대문종합시장/A동","관광지","서울 종로구 종로 266-0",37.570157,127.0082027
808,"동대문","밀리오레/명동점","관광지","서울 중구 퇴계로 115-0",37.56107457,126.9845105
809,"동대문","CGV/동대문","관광지","서울 중구 장충단로13길 20-0",37.56879605,127.007675
810,"동대문","신평화패션타운","관광지","서울 중구 청계천로 298-0",37.56946266,127.0107858
811,"동대문","평화시장","관광지","서울 중구 청계천로 274-0",37.56943486,127.0075083
812,"동대문","맥스타일","관광지","서울 중구 마장로 3-0",37.56876829,127.0106747
813,"동대문","현대백화점면세점/동대문점","관광지","서울 중구 장충단로 275-0",37.56879605,127.0087304
814,"동대문","청해진","맛집","서울 강동구 강동대로 187-0",37.524815,127.12742
815,"동대문","동대문종합시장","관광지","서울 종로구 종로 266-0",37.57046252,127.0080082
816,"동대문","동대문쇼핑타운","관광지","서울 종로구 종로 266-0",37.57074027,127.0081749
817,"동대문","개뿔","맛집","서울 종로구 낙산성곽서1길 26-0",37.57818,127.00805
818,"동대문역사문화공원","평양면옥","맛집","서울 구로구 고척로10길 65-0",37.496445,126.84218
819,"동대문역사문화공원","오장동함흥냉면","맛집","서울 중구 마른내로 108-0",37.564274,126.999886
820,"동대문역사문화공원","오장동흥남집본점","맛집","서울 중구 마른내로 114-0",37.564342,127.00054
821,"동대문역사문화공원","평양면옥장충본점","맛집","서울 중구 장충단로 207-0",37.56303,127.00647
822,"동대문역사문화공원","VIPS제일제당센터점","맛집","서울 중구 동호로 330-0",37.563972,127.00325
823,"동대문역사문화공원","밀리오레/동대문점","관광지","서울 중구 장충단로 263-0",37.56815724,127.0084249
824,"동대문역사문화공원","우육미","맛집","서울 중구 퇴계로 373-0",37.565216,127.012985
825,"동대문역사문화공원","그릴1492본점","맛집","서울 중구 퇴계로 369-0",37.565163,127.01255
826,"동대문역사문화공원","현대시티아울렛/동대문점","관광지","서울 중구 장충단로13길 20-0",37.56876827,127.007675
827,"동대문역사문화공원","제일평화시장","관광지","서울 중구 마장로 13-0",37.56849055,127.0113968
828,"동대문역사문화공원","HelloAPM","관광지","서울 중구 장충단로 253-0",37.56746287,127.0082027
829,"동대문역사문화공원","에이피엠플레이스","관광지","서울 중구 을지로 276-0",37.56526868,127.0083971
830,"동대문역사문화공원","동대문역사문화공원","관광지","서울 중구 을지로 281-0",37.56707404,127.0100081
831,"동대문역사문화공원","메가박스/동대문","관광지","서울 중구 장충단로 247-0",37.56674073,127.0074806
832,"동대입구","신라면세점/서울점","관광지","서울 중구 동호로 249-0",37.55721405,127.0077584
833,"동대입구","태극당장충본점","맛집","서울 중구 동호로24길 7-0",37.55952,127.00509
834,"동대입구","더킹스앰배서더서울풀만호텔","맛집","서울 중구 동호로 287-0",37.5606,127.00214
835,"동대입구","장충동족발골목","맛집","서울 중구 장충단로 0-0",37.55737,126.98612
836,"동대입구","평안도족발집","맛집","서울 중구 장충단로 174-6",37.56026,127.00605
837,"동대입구","뚱뚱이할머니족발집","맛집","서울 중구 장충단로 174-1",37.560413,127.0059
838,"동대입구","더파크뷰서울신라호텔","맛집","서울 중구 동호로 249-0",37.557507,127.00795
839,"동묘앞","디오트쇼핑몰","관광지","서울 중구 다산로 293-0",37.56915716,127.0149798
840,"동묘앞","동묘시장","관광지","서울 종로구 종로58길 12-0",37.5728512,127.0179795
841,"동묘앞","낙산냉면","맛집","서울 종로구 지봉로5길 8-0",37.574486,127.01527
842,"동묘앞","창신동문구거리","관광지","서울 종로구",37.57146244,127.0140632
843,"동묘앞","동대문문구완구종합시장","관광지","서울 종로구 종로54길 19-0",37.57146244,127.0140632
844,"동묘앞","동묘","관광지","서울 종로구 난계로27길 84-0",37.57318449,127.0182295
845,"동묘앞","이마트/청계천점","관광지","서울 중구 청계천로 400-0",37.57085146,127.0228402
846,"동작","더리버","맛집","서울 서초구 동작대로 350-0",37.505764,126.98109
847,"동작","동작주차공원","관광지","서울 동작구 현충로 213-0",37.50332041,126.9781669
848,"동작","호국지장사","관광지","서울 동작구 현충로 210-0",37.49872055,126.9647351
849,"동작","국립서울현충원/현충문","관광지","서울 동작구 현충로 210-0",37.50130364,126.9732343
850,"동작","학도의용군무명용사탑","관광지","서울 동작구 현충로 210-0",37.5006926,126.974012
851,"동작","더리버마리나","관광지","서울 서초구",37.50674752,126.9848443
852,"둔촌동","호원아트홀","관광지","서울 강동구 성안로 30-0",37.52627395,127.1303865
853,"둔촌동","갓잇올림픽공원점","맛집","서울 강동구 성안로 14-0",37.52505,127.12966
854,"둔촌동","착한낙지서울둔촌점","맛집","서울 강동구 동남로 592-0",37.5273,127.14829
855,"둔촌동","오늘손칼국수&찜강동본점","맛집","서울 강동구 풍성로 206-0",37.529087,127.13459
856,"둔촌동","신흥정육식당","맛집","서울 강동구 양재대로89길 16-0",37.526882,127.1347
857,"둔촌동","산장가든","맛집","서울 강동구 동남로49길 26-0",37.5325,127.1485
858,"둔촌동","산수고원","맛집","서울 강동구 동남로 588-0",37.526924,127.14808
859,"둔촌동","보릿골강동점","맛집","서울 강동구 동남로 708-0",37.53719,127.15228
860,"둔촌동","백제추어탕","맛집","서울 강동구 양재대로 1406-0",37.531456,127.13815
861,"둔촌동","백년화편","맛집","서울 강동구 양재대로81길 18-0",37.523014,127.13318
862,"둔촌동","디자인카페허브","맛집","서울 강동구 천호대로200길 15-16",37.536003,127.15038
863,"둔촌동","동남스프링","맛집","서울 강동구 동남로49길 24-0",37.532516,127.1487
864,"둔촌동","동구밖장작구이","맛집","서울 강동구 풍성로 309-0",37.52653,127.145805
865,"둔촌동","도원한우","맛집","서울 강동구 진황도로 227-0",37.526356,127.145
866,"둔촌동","다람","맛집","서울 강동구 양재대로85길 29-0",37.52456,127.13298
867,"둔촌동","농협안심한우마을길동사거리점","맛집","서울 강동구 양재대로 1422-0",37.532772,127.138725
868,"둔촌동","꼼떼바베큐둔촌본점","맛집","서울 강동구 동남로51길 9-0",37.532986,127.14975
869,"둔촌동","고모네원조콩탕황태탕","맛집","서울 강동구 풍성로57길 13-0",37.52966,127.13593
870,"둔촌동","강동해물찜해천탕","맛집","서울 강동구 양재대로 1416-0",37.532253,127.13858
871,"둔촌동","둔촌역전통시장","관광지","서울 강동구",37.52796823,127.1350805
872,"디지털미디어시티","난지천공원","관광지","서울 마포구",37.57235044,126.8861026
873,"디지털미디어시티","미스터아구DMC점","맛집","서울 은평구 수색로 190-0",37.57866,126.90168
874,"디지털미디어시티","아리산채","맛집","서울 은평구 수색로 217-1",37.57862,126.899536
875,"디지털미디어시티","쿠우쿠우상암점","맛집","서울 마포구 매봉산로 80-0",37.57853,126.89429
876,"디지털미디어시티","창고43상암점","맛집","서울 마포구 매봉산로 75-0",37.578453,126.8929
877,"디지털미디어시티","서룡","맛집","서울 마포구 월드컵북로 361-0",37.57711,126.8914
878,"디지털미디어시티","덕승재","맛집","서울 마포구 월드컵북로 361-0",37.57711,126.8914
879,"디지털미디어시티","김영섭초밥","맛집","서울 마포구 월드컵북로 352-18",37.57766,126.89332
880,"디지털미디어시티","노리들노리쌤/은평점","관광지","서울 은평구 수색로 200-0",37.5793775,126.9007123
881,"디지털미디어시티","이마트/수색점","관광지","서울 은평구 수색로 217-0",37.57976633,126.8988514
882,"디지털미디어시티","제일라아트홀","관광지","서울 마포구 월드컵북로 323-0",37.57510018,126.8955462
883,"디지털미디어시티","난지미술창작스튜디오","관광지","서울 마포구 하늘공원로 108-1",37.569073,126.8788811
884,"디지털미디어시티","어깨동무스토리움","관광지","서울 마포구 월드컵로 386-0",37.57487793,126.8863248
885,"디지털미디어시티","DMC홍보관","관광지","서울 마포구 월드컵북로 366-0",37.5776832,126.8921853
886,"디지털미디어시티","난지천공원/인조잔디축구장","관광지","서울 마포구",37.5742391,126.8838805
887,"뚝섬","피어 컨템포러리","관광지","서울 성동구 성수일로10가길 18-0",37.54843757,127.0526155
888,"뚝섬","제스티살룬","맛집","서울 성동구 서울숲2길 19-0",37.54716,127.040855
889,"뚝섬","제제","맛집","서울 성동구 서울숲길 46-1",37.547897,127.04257
890,"뚝섬","중앙감속기","맛집","서울 성동구 성수일로6길 7-1",37.545574,127.05109
891,"뚝섬","진작다이닝","맛집","서울 성동구 왕십리로14나길 10-0",37.549347,127.04571
892,"뚝섬","채선당성수점","맛집","서울 성동구 왕십리로 38-0",37.541008,127.044235
893,"뚝섬","쵸리상경","맛집","서울 성동구 서울숲4길 18-8",37.54705,127.04267
894,"뚝섬","카나비스트릿","맛집","서울 성동구 왕십리로 136-0",37.549694,127.04456
895,"뚝섬","카멜커피","맛집","서울 성동구 성덕정19길 6-0",37.537243,127.055916
896,"뚝섬","카페차성수점","맛집","서울 성동구 서울숲6길 2-0",37.547863,127.04185
897,"뚝섬","하프커피성수점","맛집","서울 성동구 서울숲4길 12-0",37.5474,127.04233
898,"뚝섬","호호식당성수동점","맛집","서울 성동구 서울숲4길 25-0",37.547176,127.04386
899,"뚝섬","훼미리손칼국수보쌈","맛집","서울 성동구 왕십리로 134-0",37.549526,127.04463
900,"뚝섬","게토얼라이브","관광지","서울 성동구 왕십리로 104-0",37.5468266,127.0448663
901,"뚝섬","EV6언플러그드그라운드/성수","관광지","서울 성동구 상원4길 10-0",37.54699455,127.0494397
902,"뚝섬","스파크플러스/성수2호점","관광지","서울 성동구 아차산로 38-0",37.54655559,127.0484571
903,"뚝섬","서울숲/곤충식물원","관광지","서울 성동구 왕십리로11길 9-0",37.54138275,127.0392002
904,"뚝섬","뚝섬미술관","관광지","서울 성동구 아차산로 33-0",37.5472125,127.04842
905,"뚝섬","오발탄서울숲점","맛집","서울 성동구 왕십리로 50-0",37.541885,127.044914
906,"뚝섬","센터커피서울숲점","맛집","서울 성동구 서울숲2길 28-11",37.546562,127.04162
907,"뚝섬","서울앵무새","맛집","서울 성동구 서울숲9길 3-0",37.54832,127.04355
908,"뚝섬","비사벌전주콩나물국밥","맛집","서울 성동구 왕십리로6길 1-2",37.54628,127.04502
909,"뚝섬","블루보틀성수카페","맛집","서울 성동구 아차산로 7-0",37.548107,127.04564
910,"뚝섬","보마켓서울숲점","맛집","서울 성동구 왕십리로 83-21",37.544155,127.04336
911,"뚝섬","백야드빌더성수점","맛집","서울 성동구 광나루로 152-0",37.551426,127.04705
912,"뚝섬","밀도","맛집","서울 성동구 왕십리로 96-0",37.54624,127.04488
913,"뚝섬","무식당","맛집","서울 성동구 왕십리로10길 5-9",37.54722,127.045235
914,"뚝섬","몽련","맛집","서울 성동구 왕십리로10길 3-0",37.547142,127.04503
915,"뚝섬","메종파이프그라운드","맛집","서울 성동구 왕십리로 83-21",37.544155,127.04336
916,"뚝섬","로와이드","맛집","서울 성동구 서울숲2길 22-1",37.54694,127.041046
917,"뚝섬","대성갈비","맛집","서울 성동구 서울숲4길 27-0",37.547127,127.04402
918,"뚝섬","난포","맛집","서울 성동구 서울숲4길 18-8",37.54705,127.04267
919,"뚝섬","강남면옥성수점","맛집","서울 성동구 성수일로 77-0",37.547405,127.05035
920,"뚝섬유원지","한강공원","관광지","서울 성동구",37.54088268,127.018952
921,"뚝섬유원지","뚝섬유원지","관광지","서울 광진구",37.52905103,127.0698086
922,"뚝섬유원지","노룬산골목시장","관광지","서울 광진구",37.53657791,127.0650312
923,"뚝섬유원지","한강시민공원뚝섬지구수영장","관광지","서울 광진구",37.52963428,127.0670589
924,"뚝섬유원지","뚝섬한강공원/벽천마당","관광지","서울 광진구",37.5323006,127.061726
925,"뚝섬유원지","자양종합시장","관광지","서울 광진구 자양번영로6길 20-0",37.53205072,127.0764469
926,"뚝섬유원지","소문난숯불구이","맛집","서울 광진구 자양번영로 28-0",37.532154,127.075615
927,"뚝섬유원지","뚝섬전망문화콤플렉스","관광지","서울 광진구 강변북로 2202-0",37.5306897,127.0650313
928,"뚝섬유원지","한강수상법당","관광지","서울 광진구 강변북로 2160-0",37.52982868,127.0637258
929,"뚝섬유원지","뚝섬한강공원뚝섬안내센터","관광지","서울 광진구",37.52955099,127.0731694
930,"뚝섬유원지","뚝섬한강공원/눈썰매장","관광지","서울 광진구",37.52960651,127.0676977
931,"뚝섬유원지","뚝섬한강공원","관광지","서울 광진구 강변북로 2273-0",37.52913436,127.071364
932,"뚝섬유원지","서울윈드서핑장","관광지","서울 광진구",37.52702354,127.0793356
933,"마곡","강서농산물도매시장","관광지","서울 강서구 발산로 40-0",37.55332447,126.8208587
934,"마곡","헬로방방/마곡점","관광지","서울 강서구 마곡서로 101-0",37.56296226,126.823525
935,"마곡","스페이스K/서울","관광지","서울 강서구 마곡중앙8로 32-0",37.56129583,126.8311077
936,"마곡","서울식물원호수공원","관광지","서울 강서구",37.57568308,126.834635
937,"마들","상계근린공원","관광지","서울 노원구",37.67006237,127.0503923
938,"마들","피노키오냉면","맛집","서울 노원구 한글비석로 474-0",37.66482,127.065445
939,"마들","천하뼈다귀감자탕","맛집","서울 노원구 동일로 1595-0",37.670918,127.055695
940,"마장","화로구이마장점","맛집","서울 성동구 마장로 315-0",37.567318,127.04395
941,"마장","엘트레이드","관광지","서울 성동구 마장로44길 3-0",37.56718536,127.0454493
942,"마장","마장축산물시장","관광지","서울 성동구 마장로31길 40-0",37.569935,127.0386444
943,"마장","마장동먹자골목","관광지","서울 성동구 마장로35길 68-0",37.57104818,127.0414385
944,"마장","인더매스마장점","맛집","서울 성동구 마장로 270-0",37.565544,127.03997
945,"마장","마장동한우촌","맛집","서울 성동구 마장로35길 68-0",37.570683,127.041275
946,"마장","목포산꽃게아구찜탕","맛집","서울 성동구 마장로 331-0",37.568108,127.045364
360,"구의","하이웨이마트/구의점","관광지","서울 광진구 광나루로 516-0",37.54463267,127.0866403
361,"구의","우리유황온천","관광지","서울 광진구 자양로5길 33-0",37.53088424,127.0840573
362,"구의","자양전통시장","관광지","서울 광진구 자양로13길 72-0",37.53410247,127.0800023
363,"구일","샤브향구로점","맛집","서울 구로구 중앙로 13-0",37.499172,126.864105
364,"구일","소담촌고척점","맛집","서울 구로구 경인로 397-0",37.4977,126.86387
365,"구일","고척스카이돔","관광지","서울 구로구 경인로 430-0",37.49822001,126.8671328
366,"구일","고척스카이돔/축구장","관광지","서울 구로구 안양천로 545-0",37.49608137,126.8668828
367,"구일","사모아쇼핑","관광지","서울 구로구 구일로10길 93-0",37.49588701,126.8769653
368,"구일","뒤뜰","맛집","서울 구로구 안양천로539길 6-0",37.505077,126.870544
369,"구일","안양천야구장","관광지","서울 양천구",37.51560696,126.8780483
370,"구일","송림가","맛집","서울 구로구 경인로 398-0",37.496998,126.86435
371,"구일","실크로드","맛집","서울 구로구 경인로 398-0",37.496998,126.86435
372,"구일","닥터로빈고척점","맛집","서울 구로구 경인로46길 51-0",37.49562,126.86575
373,"구일","광명햇살광장","관광지","서울 구로구",37.49077645,126.8699382
374,"구파발","아웃백스테이크하우스구파발점","맛집","서울 은평구 통일로 1080-0",37.639233,126.917534
375,"구파발","송추가마골은평2호점","맛집","서울 은평구 북한산로 228-1",37.650814,126.93757
376,"구파발","1인1잔","맛집","서울 은평구 연서로 534-0",37.640972,126.93794
377,"구파발","스페이스헬레나","맛집","서울 은평구 진관길 4-0",37.642113,126.93895
378,"구파발","애슐리퀸즈롯데몰은평점","맛집","서울 은평구 통일로 1050-0",37.637535,126.9179
379,"구파발","참나무본가은평점","맛집","서울 은평구 통일로 1020-0",37.633366,126.917854
380,"구파발","탕면","맛집","서울 은평구 진관3로 33-0",37.63975,126.919945
381,"구파발","한문화체험관","관광지","서울 은평구 진관길 34-0",37.6409725,126.9422353
382,"구파발","흥창사","관광지","서울 은평구",37.64023165,126.9152104
383,"구파발","기자촌1구역근린공원","관광지","서울 은평구",37.63267302,126.9375709
384,"구파발","일루와유달보루","관광지","서울 은평구 연서로50길 7-9",37.64125843,126.9387974
385,"구파발","큐리키즈카페/은평뉴타운점","관광지","서울 은평구 진관2로 19-0",37.63484341,126.9195712
386,"구파발","탑골생태공원","관광지","서울 은평구 통일로 1079-26",37.63812078,126.9138772
387,"구파발","은평구립축구장","관광지","서울 은평구 진관1로 46-0",37.63073281,126.924793
388,"구파발","사비나미술관","관광지","서울 은평구 진관1로 93-0",37.63009402,126.9293203
389,"구파발","볼베어파크/은평점","관광지","서울 은평구 통일로 1050-0",37.63751164,126.9179417
390,"구파발","진관사계곡","관광지","서울 은평구 진관길 0-0",37.63473249,126.9477075
391,"구파발","롯데시네마/은평","관광지","서울 은평구 통일로 1050-0",37.63767641,126.9179324
392,"구파발","은평역사한옥박물관","관광지","서울 은평구 연서로50길 8-0",37.64056509,126.938375
393,"구파발","삼천사","관광지","서울 은평구 연서로54길 127-0",37.64231497,126.9524848
394,"구파발","롯데마트/은평점","관광지","서울 은평구 통일로 1050-0",37.63764864,126.9179324
395,"구파발","진관사","관광지","서울 은평구 진관길 73-0",37.63817653,126.9466242
396,"구파발","롯데몰/은평점","관광지","서울 은평구 통일로 1050-0",37.63767641,126.9179324
397,"구파발","북한산둘레길/10구간","관광지","서울 은평구",37.6550357,126.9492627
398,"구파발","서울유아숲체험장","관광지","서울 은평구",37.6377597,126.9130717
399,"구파발","만석장","맛집","서울 은평구 대서문길 43-10",37.655853,126.94956
400,"구파발","홍익돈까스은평점","맛집","서울 은평구 북한산로 232-0",37.65129,126.93733
401,"구파발","롱브레드은평한옥마을점","맛집","서울 은평구 연서로 530-0",37.64082,126.93779
402,"구파발","삼천리골돼지집","맛집","서울 은평구 연서로54길 32-0",37.643307,126.94259
403,"구파발","사슴집","맛집","서울 은평구 연서로54길 20-1",37.643375,126.940926
404,"구파발","청솔집","맛집","서울 은평구 연서로54길 67-0",37.64247,126.94599
405,"구파발","신라갈비","맛집","서울 은평구 북한산로 281-12",37.65565,126.940155
406,"구파발","카페볼가심","맛집","서울 은평구 진관길 10-0",37.641903,126.93957
407,"구파발","1인1상","맛집","서울 은평구 연서로 534-0",37.640972,126.93794
408,"구파발","금성당","관광지","서울 은평구 진관2로 57-23",37.63517675,126.9254873
409,"구파발","YM에스프레소룸","맛집","서울 은평구 진관3로 67-0",37.642765,126.92093
410,"구파발","쏘렌토북한산은평점","맛집","서울 은평구 북한산로 226-0",37.65076,126.937096
411,"군자","신성종합시장","관광지","서울 광진구 용마산로 50-0",37.55793669,127.0883622
412,"군자","메가박스/군자","관광지","서울 광진구 능동로 289-0",37.55577022,127.0783909
413,"군자","힘찬갯벌낙지","맛집","서울 광진구 능동로37길 6-0",37.55819,127.079575
414,"군자","체리커피","맛집","서울 광진구 능동로 284-0",37.555153,127.07872
415,"군자","청와옥군자역직영점","맛집","서울 광진구 천호대로 562-0",37.556488,127.08035
416,"군자","우인아트홀","관광지","서울 광진구 동일로 360-0",37.56279717,127.0760299
417,"군자","이화만두","맛집","서울 광진구 능동로 278-1",37.55471,127.07846
418,"군자","이이요","맛집","서울 광진구 능동로32길 6-0",37.555195,127.07892
419,"군자","영미오리탕","맛집","서울 광진구 동일로60길 53-0",37.557674,127.076294
420,"군자","모모랑라이더카페","맛집","서울 광진구 동일로 341-0",37.56154,127.07459
421,"군자","제주탐하리","맛집","서울 광진구 천호대로101길 11-0",37.55973,127.07465
422,"굽은다리","장안면옥명일동점","맛집","서울 강동구 상암로 297-0",37.546467,127.15554
423,"굽은다리","으뜸횟집","맛집","서울 강동구 양재대로122가길 39-0",37.54387,127.14288
424,"굽은다리","홈플러스/강동점","관광지","서울 강동구 양재대로 1571-0",37.54577177,127.1422186
425,"굽은다리","월드글로리아센터","관광지","서울 강동구 양재대로134길 52-0",37.5474105,127.1464404
426,"굽은다리","CGV/천호","관광지","서울 강동구 양재대로 1571-0",37.54571622,127.1422464
427,"굽은다리","스윗솔트","맛집","서울 강동구 상암로 286-0",37.545483,127.15414
428,"금천구청","키주파크/금천독산점","관광지","서울 금천구 벚꽃로6길 21-0",37.46086338,126.893353
429,"금천구청","채선당금천구청점","맛집","서울 금천구 시흥대로 277-0",37.45834,126.89852
430,"금천구청","은행나무시장","관광지","서울 금천구 금하로25길 9-0",37.45130903,126.9093794
431,"금천구청","강강술래시흥점","맛집","서울 금천구 시흥대로 193-0",37.450993,126.901276
432,"금천구청","떡볶이랑걸레만두랑","맛집","서울 금천구 시흥대로58길 13-0",37.45384,126.90222
433,"금천구청","마벨리에시흥점","맛집","서울 금천구 시흥대로 201-0",37.451904,126.900795
434,"금천구청","본가집가마솥설렁탕금천구청본점","맛집","서울 금천구 시흥대로 269-0",37.457657,126.89894
435,"금천구청","금천하모니벚꽃축제","관광지","서울 금천구 시흥대로73길 70-0",37.45666943,126.8954917
436,"금천구청","한국SGI/금천희망문화회관","관광지","서울 금천구 독산로 152-0",37.46083568,126.9049631
437,"금천구청","어울샘","관광지","서울 금천구 탑골로 22-0",37.45178121,126.911657
438,"금천구청","삼성체육공원","관광지","서울 금천구 독산로24마길 30-0",37.45469752,126.9091016
439,"금천구청","대명여울빛거리시장","관광지","서울 금천구 금하로 648-0",37.45366982,126.9021578
440,"금천구청","안양천다목적광장","관광지","서울 금천구",37.45425304,126.8939363
441,"금천구청","효봉공원","관광지","서울 금천구",37.46069684,126.9105181
442,"금천구청","수상한창고","관광지","서울 금천구 금하로24길 7-0",37.450677,126.9086702
443,"금천구청","송록공원","관광지","서울 금천구",37.46130785,126.9061296
444,"금천구청","홈플러스/시흥점","관광지","서울 금천구 시흥대로 201-0",37.45192001,126.9007969
445,"금천구청","금빛공원","관광지","서울 금천구 금하로 668-0",37.45275327,126.9043521
446,"금천구청","비단길현대시장","관광지","서울 금천구 독산로41길 7-0",37.4567528,126.9024633
447,"금천구청","카멜리아","관광지","서울 금천구 금하로 705-0",37.45158677,126.9083517
448,"금천구청","금나래아트홀","관광지","서울 금천구 시흥대로73길 70-0",37.45658611,126.8959639
449,"금천구청","은행골시흥분점","맛집","서울 금천구 시흥대로 198-0",37.451607,126.90215
450,"금천구청","원조홍어집","맛집","서울 금천구 금하로14길 2-3",37.453327,126.90356
451,"금천구청","동흥관","맛집","서울 금천구 시흥대로63길 20-0",37.455223,126.8986
452,"금천구청","로운샤브샤브금천점","맛집","서울 금천구 시흥대로 291-0",37.459957,126.8967
453,"금천구청","명륜진사갈비시흥사거리점","맛집","서울 금천구 시흥대로 266-0",37.457523,126.89992
454,"금천구청","삼숙이 갈비","맛집","서울 금천구 벚꽃로 308-0",37.481987,126.88309
455,"금호","금남시장","관광지","서울 성동구 독서당로 303-7",37.54860403,127.0225627
456,"길동","짬뽕지존길동점","맛집","서울 강동구 양재대로 1450-0",37.535286,127.13947
457,"길동","길동복조리시장","관광지","서울 강동구 천호대로187길 61-0",37.5379949,127.1433574
458,"길동","길동자연생태공원","관광지","서울 강동구 천호대로 1291-0",37.53998973,127.15465
459,"길동","허브천문공원","관광지","서울 강동구",37.53738393,127.1544398
460,"길동","잇츠매직 길동채움","관광지","서울 강동구 천호대로 1221-0",37.5360507,127.146385
461,"길동","강동야구장","관광지","서울 강동구",37.56715833,127.1650496
462,"길동","슈팅스쿨","관광지","서울 강동구 양재대로116길 30-0",37.53820527,127.1420936
463,"길동","크리스피크림도넛길동역점","맛집","서울 강동구 양재대로 1473-0",37.537514,127.13959
464,"길동","테라로사길동점","맛집","서울 강동구 천호대로 1221-0",37.53605,127.14637
465,"길동","한촌설렁탕강동점","맛집","서울 강동구 진황도로 110-0",37.535015,127.13827
466,"길동","함흥본가면옥강동점","맛집","서울 강동구 양재대로 1428-0",37.533348,127.13885
467,"길동","함흥본가면옥","맛집","서울 광진구 광나루로 456-0",37.545174,127.07984
468,"길동","길조본점","맛집","서울 강동구 천호대로 1173-0",37.53423,127.14161
469,"길동","뚝다리명품기사식당","맛집","서울 강동구 천중로 175-0",37.541355,127.13965
470,"길동","라라브레드길동점","맛집","서울 강동구 양재대로116길 13-0",37.538677,127.14122
471,"길동","마드레","맛집","서울 강동구 동남로 710-0",37.537113,127.15255
472,"길동","봉래면옥","맛집","서울 강동구 명일로 200-16",37.536522,127.14668
473,"길동","봉메밀","맛집","서울 강동구 천호대로203길 10-0",37.53847,127.15193
474,"길동","상무초밥길동점","맛집","서울 강동구 천호대로 1139-0",37.534595,127.138115
475,"길동","인정원월남쌈","맛집","서울 강동구 천호대로 1158-0",37.533337,127.14011
476,"길음","갈비명가이상본관","맛집","서울 성북구 정릉로 364-0",37.601475,127.02365
477,"길음","메리킹서울북부점","맛집","서울 성북구 종암로 167-0",37.60506,127.03099
478,"길음","미아리우동집본점","맛집","서울 성북구 종암로 176-0",37.605633,127.03174
479,"길음","이마트/하월곡점","관광지","서울 성북구 종암로 167-0",37.60471329,127.0311036
480,"길음","길음시장","관광지","서울 성북구 동소문로 227-0",37.60270888,127.0217567
481,"길음","서울성북미디어문화마루","관광지","서울 성북구 길음로7길 20-0",37.60379209,127.0223122
482,"길음","꿈빛극장","관광지","서울 성북구 길음로7길 20-0",37.60373654,127.0221455
483,"길음","경륜경정/성북지점","관광지","서울 성북구 동소문로 300-0",37.60648626,127.0285338
484,"길음","갈비명가이상길음신관","맛집","서울 성북구 정릉로 395-0",37.603886,127.02573
485,"길음","노리파크/길음점","관광지","서울 성북구 길음로13길 24-0",37.60873594,127.019118
486,"김포공항","김포국제공항국제선","관광지","서울 강서구 하늘길 38-0",37.56598955,126.8009159
487,"김포공항","인서울27골프클럽","관광지","서울 강서구",37.54671516,126.7958502
488,"김포공항","롯데시네마/김포공항","관광지","서울 강서구 하늘길 지하 77-0",37.56362873,126.8038601
489,"김포공항","롯데백화점/김포공항점","관광지","서울 강서구 하늘길 38-0",37.56329543,126.803138
490,"김포공항","롯데마트/김포공항점","관광지","서울 강서구 하늘길 38-0",37.56385093,126.8036379
491,"김포공항","김포국제공항국내선","관광지","서울 강서구 하늘길 111-0",37.55892679,126.8029379
492,"김포공항","롯데몰/김포공항점","관광지","서울 강서구 하늘길 38-0",37.56348985,126.803138
493,"김포공항","김포국제공항","관광지","서울 강서구 하늘길 112-0",37.55890705,126.8029436
494,"까치산","서서울호수공원","관광지","서울 양천구 남부순환로64길 20-0",37.52771638,126.8298581
495,"까치산","백구사","관광지","서울 강서구 강서로17나길 78-12",37.53604883,126.8428568
496,"까치산","성심사","관광지","서울 강서구 곰달래로35길 64-0",37.53399357,126.8539392
497,"까치산","까치산시장","관광지","서울 강서구 강서로12길 14-0",37.53154937,126.8476342
498,"까치산","양천옥설렁탕","맛집","서울 양천구 등촌로 86-0",37.537704,126.86391
499,"까치산","신영시장","관광지","서울 양천구 월정로 161-5",37.53291026,126.8358297
500,"까치산","신월야구공원","관광지","서울 양천구 남부순환로64길 26-0",37.52599437,126.8319413
501,"까치산","서서울호수공원물놀이장","관광지","서울 양천구 남부순환로64길 20-0",37.52838298,126.8315246
502,"까치산","반곡어린이공원","관광지","서울 양천구",37.52921624,126.8355242
503,"까치산","신월태헌프라자","관광지","서울 양천구 곰달래로5길 17-0",37.53118822,126.8334411
504,"까치산","금강호민물장어신월본점","맛집","서울 양천구 남부순환로 431-0",37.529495,126.83302
505,"까치산","경인어린이공원","관광지","서울 양천구",37.53212316,126.8288931
506,"까치산","곰달래어린이공원","관광지","서울 양천구",37.52871631,126.8378296
507,"까치산","신월어린이공원","관광지","서울 양천구",37.52699429,126.8382462
508,"낙성대","청안사","관광지","서울 동작구 사당로16길 143-0",37.47772301,126.9699848
509,"낙성대","원당종합시장","관광지","서울 관악구 남부순환로248길 35-0",37.47430671,126.9659019
510,"낙성대","기절초풍왕순대","맛집","서울 관악구 봉천로62길 2-0",37.47811,126.95842
511,"낙성대","낙성기사식당","맛집","서울 관악구 봉천로 550-0",37.478096,126.958755
512,"낙성대","락구정","맛집","서울 관악구 관악로 1-0",37.468037,126.9593
513,"낙성대","모힝낙성대점","맛집","서울 관악구 봉천로62길 7-0",37.47764,126.95896
514,"낙성대","시골집","맛집","서울 관악구 낙성대로 22-7",37.476864,126.958466
515,"낙성대","오월의김밥","맛집","서울 관악구 봉천로 605-0",37.47609,126.96461
516,"낙성대","덕수공원","관광지","서울 관악구",37.47389005,126.9583192
517,"낙성대","관악강감찬축제","관광지","서울 관악구 낙성대로 77-0",37.47141812,126.9590136
518,"낙성대","라이크라이크","관광지","서울 관악구 남부순환로 1987-0",37.47558437,126.9697348
519,"낙성대","관악구민운동장/인조잔디구장","관광지","서울 관악구 낙성대로 40-0",37.47483438,126.9570693
520,"낙성대","관악산자연공원","관광지","서울 관악구",37.46633529,126.9455427
521,"낙성대","인헌시장","관광지","서울 관악구 인헌6길 16-0",37.47461223,126.9656519
522,"낙성대","서울특별시교육청과학전시관/본관","관광지","서울 관악구 낙성대로 101-0",37.46875176,126.9595136
523,"낙성대","낙성대공원","관광지","서울 관악구 낙성대로 77-0",37.4711126,126.9599024
524,"낙성대","풍천민물장어삼억집","맛집","서울 관악구 남부순환로 1875-0",37.479527,126.9582
525,"낙성대","차이나당","맛집","서울 관악구 낙성대로 16-0",37.477146,126.95881
526,"낙성대","쟝블랑제리","맛집","서울 관악구 낙성대역길 8-0",37.4772,126.96198
527,"낙성대","이라운지서울대점","맛집","서울 관악구 관악로 1-0",37.468037,126.9593
528,"남구로","남구로시장","관광지","서울 구로구 구로동로26길 25-0",37.48999887,126.8877421
529,"남구로","구로꿈나무극장","관광지","서울 구로구 구로동로26길 54-0",37.48969334,126.8865478
530,"남구로","대호식자재마트/구로점","관광지","서울 구로구 구로동로 115-0",37.48877677,126.8843258
531,"남구로","개성면옥","맛집","서울 구로구 가마산로 204-0",37.4929,126.88381
532,"남구로","앵커스볼링라운지","맛집","서울 구로구 디지털로31길 12-0",37.485107,126.89536
533,"남구로","월래순교자관","맛집","서울 구로구 디지털로19길 12-0",37.480312,126.89007
534,"남구로","구로시장","관광지","서울 구로구 구로동로22길 17-4",37.48924894,126.8856868
535,"남부터미널","하오차이","맛집","서울 서초구 효령로 260-0",37.484043,127.012634
536,"남부터미널","장꼬방김치찌개전문","맛집","서울 서초구 효령로 364-0",37.486893,127.02367
537,"남부터미널","소들녘서초점","맛집","서울 서초구 효령로 232-0",37.48335,127.009674
538,"남부터미널","봉산옥서초동본점","맛집","서울 서초구 반포대로8길 5-6",37.483383,127.01245
539,"남부터미널","버드나무집우면점","맛집","서울 서초구 남부순환로 2461-0",37.482903,127.01954
540,"남부터미널","백년옥","맛집","서울 서초구 남부순환로 2407-0",37.481197,127.01378
541,"남부터미널","TODAH","맛집","서울 서초구 성촌6길 39-0",37.46753,127.02263
542,"남부터미널","서초아트센터","관광지","서울 서초구 효령로 349-5",37.4870372,127.0219661
543,"남부터미널","예술의전당/IBK챔버홀","관광지","서울 서초구 남부순환로 2406-0",37.47938974,127.0120921
544,"남부터미널","수안사","관광지","서울 서초구 효령로68길 30-0",37.4862779,127.0230633
545,"남부터미널","대성사","관광지","서울 서초구 남부순환로328길 49-0",37.47602903,127.0134531
546,"남부터미널","SCC홀/서초","관광지","서울 서초구 남부순환로325길 9-0",37.48177837,127.0145085
547,"남부터미널","국립국악원","관광지","서울 서초구 남부순환로 2406-0",37.47769548,127.0090091
548,"남부터미널","한가람디자인미술관","관광지","서울 서초구 남부순환로 2406-0",37.47991746,127.0125643
549,"남부터미널","예술의전당/CJ토월극장","관광지","서울 서초구 남부순환로 2406-0",37.47916756,127.0139808
550,"남부터미널","예술의전당/음악당","관광지","서울 서초구 남부순환로 2406-0",37.47905645,127.011731
551,"남부터미널","예술의전당/콘서트홀","관광지","서울 서초구 남부순환로 2406-0",37.47911199,127.0113699
552,"남부터미널","예술의전당/오페라하우스","관광지","서울 서초구 남부순환로 2406-0",37.47916756,127.0140086
553,"남부터미널","한가람미술관","관광지","서울 서초구 남부순환로 2406-0",37.48041742,127.0142586
554,"남부터미널","예술의전당","관광지","서울 서초구 남부순환로 2406-0",37.4786676,127.0118421
555,"남부터미널","부일갈비","맛집","서울 영등포구 영중로6길 23-8",37.518147,126.908714
556,"남부터미널","해담채남부터미널점","맛집","서울 서초구 서초중앙로5길 10-8",37.485867,127.0151
557,"남성","백제갈비","맛집","서울 동작구 사당로 231-0",37.4837,126.973656
558,"남성","대림프라자","관광지","서울 동작구 사당로17길 8-0",37.48416674,126.9743177
559,"남성","사당시장","관광지","서울 동작구 사당로 244-0",37.48283356,126.9749565
560,"남성","남성역골목시장","관광지","서울 동작구 사당로16가길 19-0",37.48308352,126.9724012
561,"남성","양지어린이공원","관광지","서울 동작구",37.47988945,126.9740122
562,"남성","삼일공원","관광지","서울 동작구 사당로23길 57-7",37.48577766,126.9745676
563,"남성","노기남관","관광지","서울 동작구 솔밭로 71-0",37.48297238,126.9666517
564,"남성","새싹어린이공원","관광지","서울 동작구",37.47997277,126.9731789
565,"남성","마하보리사","관광지","서울 관악구 관악로30길 46-0",37.485111,126.9618466
566,"남성","오페뜨총신대점","맛집","서울 동작구 사당로 178-0",37.48609,126.9683
567,"남영","오츠커피","맛집","서울 용산구 원효로89길 13-12",37.540413,126.967766
568,"남영","민주인권기념관","관광지","서울 용산구 한강대로71길 37-0",37.54110458,126.9716507
569,"남태령","남태령고개","관광지","서울 관악구",37.45980852,126.9869557
570,"내방","우참판서래본점","맛집","서울 서초구 서래로 23-0",37.49709,126.998085
571,"내방","챠이797서래마을점","맛집","서울 서초구 동광로 78-0",37.492847,126.991104
572,"내방","카페노티드서래","맛집","서울 서초구 방배로32길 30-9",37.491375,126.99344
573,"내방","커피빈방배카페골목점","맛집","서울 서초구 방배중앙로 187-0",37.49571,126.985535
574,"내방","퀸즈파크서래점","맛집","서울 서초구 동광로 95-1",37.4938,126.992714
575,"내방","서초면옥서래마을점","맛집","서울 서초구 동광로 97-0",37.493942,126.99312
576,"내방","밴건디스테이크하우스","맛집","서울 서초구 사평대로22길 5-0",37.499344,126.99774
577,"내방","두리춤터","관광지","서울 서초구 동광로19길 15-0",37.49313801,126.9891496
1171,"방학","수정궁","맛집","서울 도봉구 방학로 173-0",37.6621,127.03292
1172,"방학","삿뽀로창동점","맛집","서울 도봉구 도봉로 610-0",37.658916,127.04122
1173,"방학","방학사거리짬뽕집본점","맛집","서울 도봉구 방학로 99-16",37.662086,127.04161
1174,"방학","바게트1089","맛집","서울 도봉구 도봉로150길 8-0",37.665756,127.04364
1175,"방학","리프패럿방학동점","맛집","서울 도봉구 도당로 80-0",37.664833,127.03635
1176,"방학","뚝배기손칼국수","맛집","서울 도봉구 도봉로 683-0",37.66549,127.04193
1177,"방학","동해수산","맛집","서울 도봉구 도봉로 663-8",37.663845,127.04181
1178,"방화","국제청소년센터","관광지","서울 강서구 금낭화로 234-0",37.57929362,126.8095817
1179,"방화","서울물재생체험관","관광지","서울 강서구 양천로 201-0",37.57766377,126.8208795
1180,"방화","약사사","관광지","서울 강서구 금낭화로17길 261-0",37.58326449,126.8055158
1181,"방화","방화근린공원","관광지","서울 강서구 금낭화로 176-0",37.5817378,126.8131924
1182,"방화","강서한강공원","관광지","서울 강서구 양천로27길 279-23",37.58812597,126.816081
1183,"버티고개","브레라","맛집","서울 중구 다산로 41-0",37.54829,127.00701
1184,"버티고개","국립극장","관광지","서울 중구 장충단로 59-0",37.55260343,126.9996203
1185,"버티고개","페스타바이민구","맛집","서울 중구 장충단로 60-0",37.55007,127.000496
1186,"보라매","서일순대국전문","맛집","서울 동작구 여의대방로24길 16-0",37.497864,126.921135
1187,"보라매","대방싸리집","맛집","서울 동작구 여의대방로26길 24-0",37.499195,126.92172
1188,"보라매","서일순대국","맛집","서울 동작구 여의대방로24길 10-4",37.497913,126.92091
1189,"보라매","참새어린이공원","관광지","서울 동작구",37.49808147,126.9219334
1190,"보라매","싸리집","맛집","서울 종로구 진흥로 463-0",37.606853,126.96007
1191,"보문","보문사","관광지","서울 성북구 보문사길 20-0",37.58446095,127.0159518
1192,"보문","미타사","관광지","서울 성북구 보문사길 6-16",37.5852773,127.0161678
1193,"보문","보문시장","관광지","서울 성북구",37.58471095,127.0207014
1194,"보문","공푸","맛집","서울 성북구 삼선교로24길 29-0",37.588814,127.01611
1195,"보문","명륜진사갈비서울보문점","맛집","서울 성북구 보문로 94-0",37.583714,127.02061
1196,"보문","보문골한옥집","맛집","서울 성북구 고려대로2길 77-0",37.582237,127.02174
1197,"보문","안동반점","맛집","서울 성북구 고려대로1길 35-1",37.58705,127.018936
1198,"보문","한상차림밥상1호점","맛집","서울 성북구 고려대로8길 35-0",37.58435,127.021835
1199,"봉천","국회단지어린이공원","관광지","서울 관악구",37.49024918,126.9433482
1200,"봉천","뮤지컬팝스오케스트라","관광지","서울 관악구 은천로 14-0",37.48616628,126.9367933
1201,"봉천","강릉형제장칼국수","맛집","서울 관악구 대학5길 10-7",37.46901,126.93839
1202,"봉천","고창복의낙지세상봉천점","맛집","서울 관악구 남부순환로 1725-0",37.482685,126.941895
1203,"봉천","구수옥설렁탕","맛집","서울 관악구 남부순환로 1674-0",37.48436,126.9365
1204,"봉천","명락사","관광지","서울 관악구 청룡1길 11-0",37.48138911,126.9469591
1205,"봉천","현대시장","관광지","서울 관악구 양녕로 49-0",37.48661073,126.9465702
1206,"봉천","봉일시장","관광지","서울 관악구 은천로 28-0",37.48597186,126.938432
1207,"봉천","혼자두면장판뜯어서차린개카페","맛집","서울 관악구 남부순환로 1665-0",37.485123,126.93568
1208,"봉천","한근한방삼계탕","맛집","서울 관악구 봉천로 396-0",37.482807,126.9437
1209,"봉천","팔공","맛집","서울 관악구 남부순환로 1680-0",37.48408,126.937096
1210,"봉천","정원쌈밥보리밥","맛집","서울 관악구 신림로18가길 23-0",37.47196,126.93501
1211,"봉천","정가한정식","맛집","서울 관악구 남부순환로 1710-0",37.48275,126.93985
1212,"봉천","우리설렁탕","맛집","서울 관악구 신림로 190-0",37.474426,126.93649
1213,"봉천","부림식당[한식]","맛집","서울 관악구 청룡1길 7-0",37.481323,126.94661
1214,"봉천","명륜진사갈비서울봉천점","맛집","서울 관악구 양녕로 29-0",37.48467,126.946396
1215,"봉천","논밭골봉천점","맛집","서울 관악구 청룡길 30-0",37.480484,126.94593
1216,"봉천","김영자나주곰탕신림본점","맛집","서울 관악구 신림로28길 38-0",37.472267,126.93529
1217,"봉화산","중랑천물놀이장","관광지","서울 중랑구",37.58171165,127.0775019
1218,"봉화산","옹기테마공원","관광지","서울 중랑구 신내로21길 116-0",37.61266156,127.0885268
1219,"봉화산","한동길뼈다귀감자탕신내본점","맛집","서울 중랑구 신내로 225-0",37.616966,127.09136
1220,"봉화산","홈플러스/신내점","관광지","서울 중랑구 신내로 201-0",37.61581892,127.0937223
1221,"불광","팜스퀘어","관광지","서울 은평구 불광로 20-0",37.60979082,126.9289039
1222,"불광","북한산둘레길/8구간","관광지","서울 은평구",37.6233726,126.9331812
1223,"불광","미래청/서울혁신파크","관광지","서울 은평구 통일로 684-0",37.60854099,126.9337646
1224,"불광","SeMA창고","관광지","서울 은평구 통일로 684-0",37.60933665,126.934317
1225,"불광","불광시장","관광지","서울 은평구 불광로 12-0",37.60954084,126.9279318
1226,"불광","서울기록원","관광지","서울 은평구 통일로62길 7-0",37.60762444,126.9346534
1227,"불광","벙구갈비","맛집","서울 은평구 응암로 269-0",37.59601,126.91877
1228,"불광","서울혁신파크","관광지","서울 은평구 통일로 684-0",37.60848544,126.9337368
1229,"불광","CGV/불광","관광지","서울 은평구 불광로 20-0",37.60970749,126.9289872
1230,"불광","NC백화점/불광점","관광지","서울 은평구 불광로 20-0",37.60984917,126.9287799
1231,"불광","중화원","맛집","서울 은평구 통일로66길 10-16",37.609955,126.93172
1232,"불광","벙구갈비","맛집","서울 은평구 은평로 32-0",37.597977,126.911385
1233,"불광","대조시장","관광지","서울 은평구 진흥로 153-0",37.60904273,126.9264571
1234,"사가정","흥부골숯불돼지왕갈비","맛집","서울 중랑구 면목로 341-0",37.582176,127.08816
1235,"사가정","장안제일시장","관광지","서울 중랑구 동일로96길 20-0",37.58460023,127.0810015
1236,"사가정","하남돼지집면목점","맛집","서울 중랑구 면목로 355-0",37.58372,127.088066
1237,"사가정","할머니냉면","맛집","서울 중랑구 면목로49길 24-0",37.58282,127.08723
1238,"사가정","누가바닛츠","관광지","서울 중랑구 사가정로43길 41-0",37.58303076,127.0848062
1239,"사가정","늘푸른공원","관광지","서울 중랑구",37.58290598,127.0800016
1240,"사가정","까치공원","관광지","서울 중랑구 사가정로49길 56-0",37.58346151,127.0873065
1241,"사가정","전곡시장","관광지","서울 동대문구 한천로 190-0",37.57776761,127.0685027
1242,"사가정","한국불교대학관음사","관광지","서울 동대문구 한천로 231-0",37.58149028,127.0681373
1243,"사가정","이학갈비","맛집","서울 중랑구 면목로 310-0",37.579636,127.087975
1244,"사가정","찜집본점","맛집","서울 중랑구 면목로 287-0",37.578457,127.085945
1245,"사가정","홈플러스/면목점","관광지","서울 중랑구 사가정로 332-0",37.58054515,127.0819737
1246,"사가정","면목시장","관광지","서울 중랑구 면목로37길 5-0",37.57882315,127.0857789
1247,"사가정","사가정공원","관광지","서울 중랑구",37.5798231,127.0955836
1248,"사가정","면동떡볶기","맛집","서울 중랑구 면목로57길 33-0",37.58471,127.08653
1249,"사당","홈플러스/서울남현점","관광지","서울 관악구 과천대로 909-0",37.47147381,126.9824004
1250,"사당","관음사","관광지","서울 관악구 승방1길 109-80",37.46744646,126.9764843
1251,"사당","서울시립남서울미술관","관광지","서울 관악구 남부순환로 2076-0",37.4760652,126.9794937
1252,"사당","관악산/관음사방면","관광지","서울 관악구 승방1길 0-0",37.46736553,126.9769279
1253,"사당","정안사","관광지","서울 동작구 남부순환로265길 26-0",37.47763971,126.9746233
1254,"사당","까치상상어린이공원","관광지","서울 동작구 동작대로9길 35-0",37.4805283,126.979845
1255,"사당","방배체육공원","관광지","서울 서초구",37.47258485,126.992455
1256,"사당","담양죽순추어탕","맛집","서울 관악구 남부순환로 2082-37",37.47617,126.98017
1257,"사당","전주전집","맛집","서울 동작구 동작대로7길 19-0",37.479668,126.98065
1258,"사당","조가네갑오징어사당점","맛집","서울 동작구 남부순환로271길 24-0",37.477913,126.98022
1259,"사당","초와밥","맛집","서울 동작구 동작대로5길 8-0",37.47913,126.981
1260,"사당","한울갈비","맛집","서울 동작구 동작대로1길 9-0",37.477203,126.98079
1261,"사당","태양커피","맛집","서울 서초구 서초대로25길 55-0",37.490192,126.99282
1262,"사당","고베그릴","맛집","서울 관악구 남부순환로 2082-25",37.476055,126.98101
1263,"사당","담양에초대사당역점","맛집","서울 관악구 남현1길 38-10",37.475376,126.97925
1264,"사당","오발탄사당점","맛집","서울 관악구 남부순환로 2074-0",37.476135,126.97907
1265,"사당","카페보니또사당점","맛집","서울 관악구 남부순환로 2032-0",37.476036,126.974724
1266,"사당","가마솥손두부사당본점","맛집","서울 동작구 남부순환로271길 20-0",37.477734,126.980194
1267,"사당","라시에스타","맛집","서울 동작구 동작대로 21-0",37.47848,126.98136
1268,"사당","소담촌사당직영점","맛집","서울 동작구 동작대로 43-0",37.48042,126.98145
1269,"사당","약초마을","맛집","서울 동작구 노량진로 26-0",37.512955,126.928925
1270,"삼각지","삼각지공원","관광지","서울 용산구",37.53449426,126.9753727
1271,"삼각지","쌤쌤쌤","맛집","서울 용산구 한강대로50길 25-0",37.531578,126.97216
1272,"삼각지","현대본가","맛집","서울 용산구 이태원로4길 24-0",37.533504,126.97536
1273,"삼각지","문배동육칼","맛집","서울 용산구 백범로90길 50-0",37.53662,126.97032
1274,"삼각지","단박왕돈까스","맛집","서울 용산구 백범로90길 74-0",37.53808,126.969864
1275,"삼각지","몽탄","맛집","서울 용산구 백범로99길 50-0",37.535995,126.972244
1276,"삼각지","용산전쟁기념관/어린이박물관","관광지","서울 용산구 이태원로 29-0",37.53741061,126.9785112
1277,"삼각지","전쟁기념관","관광지","서울 용산구 이태원로 29-0",37.53699398,126.9770947
1278,"삼각지","원대구탕","맛집","서울 용산구 한강대로62가길 8-0",37.534695,126.97422
1279,"삼각지","평양집","맛집","서울 용산구 한강대로 186-0",37.534855,126.97397
1280,"삼성","KT&G상상마당/대치아트홀","관광지","서울 강남구 영동대로 416-0",37.50663692,127.0652259
1281,"삼성","현대백화점면세점/무역센터점","관광지","서울 강남구 테헤란로 517-0",37.50874776,127.0597264
1282,"삼성","파르나스몰","관광지","서울 강남구 테헤란로 521-0",37.50913661,127.0610318
1283,"삼성","마이아트뮤지엄","관광지","서울 강남구 테헤란로 518-0",37.50760901,127.0606152
1284,"삼성","백암아트홀","관광지","서울 강남구 테헤란로113길 7-0",37.5103865,127.0659758
1285,"삼성","하이보","맛집","서울 관악구 관악로 134-0",37.47725,126.9527
1286,"삼성","흑돈가삼성직영점","맛집","서울 강남구 봉은사로86길 14-0",37.512516,127.05632
1287,"삼성","카페노티드삼성","맛집","서울 강남구 테헤란로103길 9-0",37.51005,127.063896
1288,"삼성","바운스트램폴린파크/삼성센터","관광지","서울 강남구 영동대로 325-0",37.50330398,127.0656148
1289,"삼성","코엑스아티움","관광지","서울 강남구 영동대로 513-0",37.5100254,127.0614207
1290,"삼성","대도식당삼성직영점","맛집","서울 강남구 삼성로 545-0",37.51018,127.05448
1291,"삼성","몽중헌대치점","맛집","서울 강남구 영동대로 325-0",37.503292,127.0655
1292,"삼성","현대백화점/무역센터점","관광지","서울 강남구 테헤란로 517-0",37.50871998,127.0597264
1293,"삼성","신의주찹쌀순대청담점","맛집","서울 강남구 영동대로 725-0",37.52248,127.05515
1294,"삼성","보노보노삼성점","맛집","서울 강남구 테헤란로 508-0",37.506817,127.057976
1295,"상계","돈까스먹는용만이","맛집","서울 노원구 한글비석로20길 52-0",37.661255,127.07461
1296,"상계","고기파티","맛집","서울 노원구 중계로12길 6-0",37.647633,127.08114
1297,"상계","삿갓봉근린공원","관광지","서울 노원구 한글비석로 346-0",37.65792505,127.0760846
1298,"상계","보현사","관광지","서울 노원구 덕릉로 746-8",37.66400768,127.07689
1299,"상계","철쭉동산","관광지","서울 노원구",37.65407041,127.0792015
1300,"상계","학도암","관광지","서울 노원구 중계로14다길 89-0",37.6520194,127.0897912
1301,"상계","대명프라자","관광지","서울 노원구 한글비석로 254-0",37.65042592,127.077029
1302,"상계","상계중앙시장","관광지","서울 노원구 상계로27길 19-0",37.65928597,127.0703906
1303,"상계","불암산","관광지","서울 노원구",37.6639087,127.0955734
1304,"상계","불암산나비정원","관광지","서울 노원구 한글비석로12길 51-27",37.65548092,127.0806397
1305,"상계","크래버대게나라노원점","맛집","서울 노원구 한글비석로 326-0",37.656525,127.07832
1306,"상계","카페브람스","맛집","서울 노원구 중계로8길 48-0",37.64629,127.0847
1307,"상계","미스터아구","맛집","서울 노원구 덕릉로 744-0",37.663876,127.07656
1308,"상도","지덕사부묘소","관광지","서울 동작구 양녕로 167-0",37.49635957,126.9419316
1309,"상도","기원정사","관광지","서울 동작구 양녕로22나길 17-0",37.49494309,126.9443203
1310,"상도","지덕사","관광지","서울 동작구",37.4964429,126.942376
1311,"상도","고봉삼계탕중앙대점","맛집","서울 동작구 서달로 166-0",37.507763,126.96288
1312,"상도","조선화로집상도역점","맛집","서울 동작구 상도로 263-6",37.50396,126.94787
1313,"상도","망향비빔국수동작점","맛집","서울 동작구 상도로 319-0",37.499657,126.95108
1314,"상도","사리원","맛집","서울 동작구 상도로50길 2-15",37.499153,126.95063
1315,"상도","우부래도","맛집","서울 동작구 상도로37길 3-0",37.50317,126.948654
1316,"상도","은희네온집닭떡볶이","맛집","서울 동작구 상도로41길 35-0",37.502438,126.95094
1317,"상도","다래식당","맛집","서울 동작구 만양로2길 2-0",37.506264,126.94774
1318,"상봉","코스트코홀세일/상봉점","관광지","서울 중랑구 망우로 336-0",37.59695997,127.0902783
1319,"상봉","이마트/상봉점","관광지","서울 중랑구 상봉로 118-0",37.5965156,127.0936114
1320,"상봉","소담촌상봉점","맛집","서울 중랑구 망우로 328-0",37.59679,127.08896
1321,"상봉","쿠우쿠우상봉점","맛집","서울 중랑구 망우로 316-0",37.596523,127.08756
1322,"상봉","아웃백스테이크하우스상봉점","맛집","서울 중랑구 망우로 293-0",37.59655,127.085205
1323,"상봉","쭈꾸미킹2.0상봉점","맛집","서울 중랑구 송림길 13-0",37.599945,127.09539
1324,"상봉","카페252","맛집","서울 중랑구 망우로 252-0",37.59481,127.0807
1325,"상봉","애슐리퀸즈홈플러스상봉점","맛집","서울 중랑구 망우로55길 11-10",37.59929,127.09276
1326,"상봉","더아너스상봉점","맛집","서울 중랑구 망우로 353-0",37.59833,127.09162
1327,"상봉","어글리스토브상봉점","맛집","서울 중랑구 상봉로 131-0",37.59741,127.09218
1328,"상봉","울타리철판곱창","맛집","서울 중랑구 중랑역로 20-0",37.595947,127.07637
1329,"상봉","통큰소무한리필상봉직영점","맛집","서울 중랑구 망우로 316-0",37.596523,127.08756
1330,"상봉","바다목장바닷가재","맛집","서울 중랑구 봉우재로 49-0",37.591045,127.078476
1331,"상봉","함평국밥","맛집","서울 중랑구 봉우재로33길 73-0",37.59547,127.08922
1332,"상봉","대관령쌈밥","맛집","서울 중랑구 용마산로115길 15-0",37.598843,127.09948
1333,"상봉","이주소곱창","맛집","서울 중랑구 봉우재로33길 34-0",37.593952,127.08799
1334,"상봉","곽만근갈비탕상봉점","맛집","서울 중랑구 봉우재로 117-0",37.592762,127.08593
1335,"상봉","꿀삼겹","맛집","서울 중랑구 봉우재로 139-0",37.59329,127.08837
1336,"상수","와우산체육공원","관광지","서울 마포구",37.55160311,126.9290156
1337,"상수","홍대조폭떡볶이","맛집","서울 마포구 어울마당로 60-0",37.550407,126.92141
1338,"상수","옛맛서울불고기","맛집","서울 마포구 독막로 56-0",37.54751,126.91966
1339,"상수","롤링홀","관광지","서울 마포구 어울마당로 35-0",37.54846453,126.9201275
1340,"상수","윤형빈소극장/홍대점","관광지","서울 마포구 와우산로21길 29-0",37.55221411,126.9223773
1341,"상수","홍익문화공원","관광지","서울 마포구",37.55226966,126.9233216
1342,"상수","앤트러사이트합정점","맛집","서울 마포구 토정로5길 10-0",37.54582,126.918434
1343,"상수","맛이차이나","맛집","서울 마포구 독막로 68-0",37.5476,126.92086
1344,"상수","무대륙","맛집","서울 마포구 토정로5길 12-0",37.546047,126.918365
1345,"상수","괴르츠","맛집","서울 마포구 토정로 136-13",37.54487,126.92582
1346,"상수","산리오러버스클럽","맛집","서울 마포구 와우산로19길 18-0",37.551346,126.92206
1347,"상수","서강8경","맛집","서울 마포구 토정로 128-0",37.544937,126.92534
1348,"상수","KT&G상상마당/홍대","관광지","서울 마포구 어울마당로 65-0",37.55097746,126.9210671
1349,"상왕십리","대도식당본점","맛집","서울 성동구 무학로12길 3-0",37.567413,127.030655
1350,"상왕십리","유래회관","맛집","서울 성동구 마장로 196-0",37.566437,127.03153
1351,"상왕십리","특우정","맛집","서울 성동구 무학로12길 13-0",37.567223,127.03186
1352,"상왕십리","밀각심인당","관광지","서울 성동구 무학로4길 21-0",37.56490777,127.0335338
1353,"상왕십리","도선어린이공원","관광지","서울 성동구 무학로8길 8-0",37.5655188,127.0313951
1354,"상월곡","월곡인조잔디축구장","관광지","서울 성북구",37.60854165,127.0405327
1355,"상월곡","성북어린이미술관꿈자람","관광지","서울 성북구 화랑로18자길 13-0",37.60498657,127.0507263
1356,"상일동","강동반상","맛집","서울 강동구 상일로6길 39-0",37.549805,127.17535
1357,"상일동","백두쇼핑센터","관광지","서울 강동구 고덕로83길 28-0",37.5582705,127.1689383
1358,"상일동","상일동화훼단지","관광지","서울 강동구",37.54488314,127.1667719
1359,"새절","백련사","관광지","서울 서대문구 백련사길 170-72",37.5866546,126.9275431
1360,"새절","신응암시장","관광지","서울 은평구",37.59415368,126.9188494
1361,"새절","대림시장","관광지","서울 은평구 응암로4길 22-0",37.58698783,126.9176274
1362,"새절","가타쯔무리","맛집","서울 서대문구 명지대길 72-0",37.58323,126.92343
1363,"새절","응암동감자탕골목","맛집","서울 은평구",37.602818,126.92894
1364,"새절","플롭","맛집","서울 은평구 불광천길 338-0",37.589104,126.9141
1365,"새절","백년약수골","맛집","서울 서대문구 백련사길 99-0",37.583454,126.93013
1366,"새절","대림시장감자국거리","맛집","서울 은평구 응암로 172-0",37.58722,126.916695
1367,"새절","금바위감자탕증산점","맛집","서울 은평구 증산로 353-0",37.58793,126.91257
1368,"새절","근린커피","맛집","서울 은평구 응암로21길 23-0",37.5942,126.9154
1369,"새절","오레노라멘은평점","맛집","서울 은평구 불광천길 366-0",37.590305,126.91439
1370,"새절","효면옥","맛집","서울 은평구 증산로 429-0",37.594646,126.91422
1371,"새절","봉희설렁탕본점","맛집","서울 은평구 증산로 413-0",37.59314,126.91385
1372,"새절","태조대림감자국","맛집","서울 은평구 응암로 172-0",37.58722,126.916695
1373,"서대문","돈의문박물관마을","관광지","서울 종로구",37.56893468,126.9690118
1374,"서대문","루소랩정동점","맛집","서울 중구 정동길 17-0",37.56716,126.97064
1375,"서대문","한암동정동점","맛집","서울 중구 정동길 21-15",37.567852,126.970856
1376,"서대문","정원레스토랑어반가든","맛집","서울 중구 정동길 12-15",37.567432,126.9692
1377,"서대문","서울역사박물관","관광지","서울 종로구 새문안로 55-0",37.57040674,126.9704839
1378,"서대문","메이탄종로점","맛집","서울 종로구 경교장1길 17-0",37.568546,126.964615
1379,"서대문","한옥집김치찜본점","맛집","서울 서대문구 통일로9길 12-0",37.567272,126.96433
1380,"서대문","사조미가","맛집","서울 서대문구 통일로 107-39",37.5642,126.96612
1381,"서대문","영천시장","관광지","서울 서대문구",37.57029559,126.9617069
1382,"서대문","강남면옥정동점","맛집","서울 종로구 새문안로 38-0",37.568367,126.96976
1383,"서울","만리동시장","관광지","서울 용산구 효창원로 270-0",37.55143667,126.9635402
1384,"서울","롯데아울렛/서울역점","관광지","서울 용산구 한강대로 405-0",37.55449192,126.9705118
1385,"서울","숭례문","관광지","서울 중구 세종대로 40-0",37.55999131,126.9753169
1386,"서울","백성희장민호극장","관광지","서울 용산구 청파로 373-0",37.55282543,126.9681231
1387,"서울","손기정체육공원","관광지","서울 중구 손기정로 101-0",37.55588061,126.9650678
1388,"서울","국립극단소극장판","관광지","서울 용산구 청파로 373-0",37.55315872,126.9682898
1389,"서울","동자아트홀","관광지","서울 용산구 한강대로 372-0",37.55160338,126.9729283
1390,"서울","해담채시청점","맛집","서울 중구 칠패로 37-0",37.560093,126.97303
1391,"서울","유즈라멘","맛집","서울 중구 만리재로 217-0",37.556885,126.968216
1392,"서울","후암시장","관광지","서울 용산구 후암로35길 24-0",37.55024244,126.9764557
1393,"서울","안중근의사기념관","관광지","서울 중구 소월로 91-0",37.55348408,126.9803811
1394,"서울","롯데마트/서울역점","관광지","서울 중구 청파로 426-0",37.55588064,126.9704007
1395,"서울","새꿈어린이공원","관광지","서울 용산구",37.55243662,126.9742892
1396,"서울","서울역프리미엄라운지","관광지","서울 용산구 청파로 378-0",37.55399198,126.9706784
1397,"서울대입구","려","맛집","서울 관악구 봉천로 456-0",37.482105,126.950485
1398,"서울대입구","만양순대국","맛집","서울 관악구 은천로 132-0",37.486385,126.94994
1399,"서울대입구","미추원주추어탕서울본점","맛집","서울 관악구 관악로 108-0",37.474827,126.95317
1400,"서울대입구","박막례청진동해장국","맛집","서울 관악구 관악로 105-0",37.47463,126.9526
1401,"서울대입구","샤로수길","맛집","서울 관악구",37.478367,126.95156
1402,"서울대입구","신선설농탕서울대역점","맛집","서울 관악구 관악로 163-0",37.479874,126.95204
1403,"서울대입구","완산정","맛집","서울 관악구 봉천로 484-0",37.481674,126.953606
1404,"서울대입구","애슐리퀸즈서울대입구점","맛집","서울 관악구 남부순환로 1820-0",37.48095,126.95209
1405,"서울대입구","외래향","맛집","서울 관악구 남부순환로 1801-0",37.481823,126.95038
1406,"서울대입구","우디가스트로","맛집","서울 관악구 관악로 116-0",37.475605,126.95309
1407,"서울대입구","유천냉면봉천점","맛집","서울 관악구 쑥고개로 104-0",37.478817,126.948166
1408,"서울대입구","청기와타운서울대점","맛집","서울 관악구 남부순환로 1838-0",37.48043,126.953964
1409,"서울대입구","킷사서울","맛집","서울 관악구 남부순환로226길 31-0",37.479218,126.95377
1410,"서울대입구","하남돼지집서울대입구역점","맛집","서울 관악구 관악로17길 3-0",37.480644,126.951515
1411,"서울대입구","롯데시네마/서울대입구","관광지","서울 관악구 남부순환로 1820-0",37.4810003,126.9521808
1412,"서울대입구","관악프라자","관광지","서울 관악구 관악로 212-0",37.48361113,126.955125
1413,"서울대입구","라붐아울렛","관광지","서울 관악구 남부순환로 1820-0",37.4810003,126.9521808
1414,"서울대입구","봉천중앙시장","관광지","서울 관악구",37.48411106,126.9541806
1415,"서울대입구","쑥고개","관광지","서울 관악구",37.47961152,126.943265
1416,"서울대입구","송학어린이공원","관광지","서울 관악구",37.48033369,126.9492922
1417,"서초","오발탄서초점","맛집","서울 서초구 반포대로 154-0",37.49361,127.0072
1418,"서초","롯데마트/서초점","관광지","서울 서초구 서초대로38길 12-0",37.48994404,127.0063981
1419,"서초","대나무골","맛집","서울 서초구 법원로3길 15-0",37.493145,127.008835
1420,"서초","아티제서초역점","맛집","서울 서초구 반포대로27길 16-0",37.490173,127.00724
1421,"서초","흰물결아트센터/화이트홀","관광지","서울 서초구 반포대로 150-0",37.49347142,127.0072868
1422,"서초","흰물결아트센터","관광지","서울 서초구 반포대로 150-0",37.49344365,127.0073146
1423,"서초","몽마르트공원","관광지","서울 서초구",37.49513787,127.0035372
1424,"서초","울돌목가는길","맛집","서울 서초구 서초대로40길 41-0",37.48984,127.00801
1425,"서초","모차르트홀","관광지","서울 서초구 명달로 104-0",37.48641666,127.0045372
1426,"석계","배떡석계점","맛집","서울 성북구 한천로76다길 21-0",37.612083,127.06536
1427,"석계","카페그레도","맛집","서울 성북구 화랑로 304-0",37.61338,127.06221
1428,"석계","광운대학교/아이스링크","관광지","서울 노원구 광운로 21-0",37.6202655,127.0572214
1429,"석계","무명칼국수","맛집","서울 노원구 석계로7길 4-0",37.616722,127.0639
1430,"석촌","불광사","관광지","서울 송파구 백제고분로39길 35-0",37.50722456,127.102994
1431,"석촌","석촌고분공원","관광지","서울 송파구 가락로7길 21-0",37.50183215,127.1022226
1432,"석촌","송파근린공원","관광지","서울 송파구 송파대로42길 29-0",37.50633168,127.1099997
1433,"석촌","흥부골숯불돼지왕갈비","맛집","서울 송파구 백제고분로33길 35-0",37.505733,127.09856
1434,"석촌","황도바지락칼국수","맛집","서울 송파구 백제고분로 358-0",37.504295,127.106094
1435,"석촌","하연옥잠실점","맛집","서울 송파구 송파대로49길 61-0",37.50575,127.09792
1436,"석촌","풍년뼈다귀해장국","맛집","서울 송파구 가락로 94-0",37.50075,127.10671
1437,"석촌","크래버대게나라잠실본점","맛집","서울 송파구 오금로 165-0",37.51012,127.11312
1438,"석촌","청와옥석촌호수점","맛집","서울 송파구 삼학사로 96-0",37.505688,127.09746
1439,"석촌","주은감자탕","맛집","서울 송파구 삼학사로 71-0",37.503677,127.096794
1440,"석촌","제주은희네해장국잠실직영점","맛집","서울 송파구 송파대로49길 10-0",37.507828,127.103485
1441,"석촌","잠수교집3호점","맛집","서울 송파구 송파대로49길 51-0",37.505886,127.09921
1442,"석촌","오모리찌개잠실본점","맛집","서울 송파구 송파대로 471-0",37.508038,127.10405
1443,"석촌","아웃백스테이크하우스잠실점","맛집","서울 송파구 송파대로 466-0",37.50789,127.105225
1444,"석촌","본가설렁탕","맛집","서울 송파구 석촌호수로 204-0",37.50631,127.09994
1445,"석촌","벨라스가든","맛집","서울 송파구 백제고분로41길 42-19",37.510082,127.10629
1446,"석촌","군산오징어본점","맛집","서울 송파구 삼학사로 101-0",37.506283,127.097
1447,"석촌","황도바지락칼국수","맛집","서울 강동구 천호대로 1256-0",37.53685,127.15018
1448,"선릉","테라로사포스코센터점","맛집","서울 강남구 테헤란로 440-0",37.505814,127.05613
1449,"선릉","롯데리아개포점","맛집","서울 강남구 선릉로 26-0",37.48229,127.061485
1450,"선릉","이마트/역삼점","관광지","서울 강남구 역삼로 310-0",37.49935988,127.0483942
1451,"선릉","선릉","관광지","서울 강남구 선릉로100길 1-0",37.5084977,127.0458943
1452,"선릉","농민백암순대본점","맛집","서울 강남구 선릉로86길 40-4",37.503735,127.05298
1453,"성수","에스팩토리","관광지","서울 성동구 연무장15길 11-0",37.54263273,127.0594761
1454,"성수","피치스도원","관광지","서울 성동구 연무장3길 9-0",37.54440941,127.0513448
1455,"성수","그라운드시소/성수","관광지","서울 성동구 아차산로17길 49-0",37.54677117,127.0653089
1456,"성수","LCDC SEOUL","관광지","서울 성동구 연무장17길 10-0",37.54161054,127.0615408
1457,"성수","이마트/성수점","관광지","서울 성동구 뚝섬로 379-0",37.53991078,127.0534767
1458,"성수","카페어니언성수점","맛집","서울 성동구 아차산로9길 8-0",37.54476,127.0582
1459,"성수","카페노티드피치스","맛집","서울 성동구 연무장3길 9-0",37.544666,127.05133
1460,"성수","카페노티드성수","맛집","서울 성동구 연무장길 29-17",37.543613,127.05268
1461,"성수","잠수교집성수점","맛집","서울 성동구 아차산로 137-0",37.54381,127.059364
1462,"성수","옹근달","맛집","서울 성동구 성수이로7길 41-1",37.542732,127.05299
1463,"성수","오우드","맛집","서울 성동구 연무장길 101-1",37.54124,127.06054
1464,"성수","오늘회성수센터","맛집","서울 성동구 성수이로 149-0",37.548386,127.05778
1465,"성수","에르제","맛집","서울 성동구 아차산로 135-0",37.54394,127.05897
1466,"성수","쎈느","맛집","서울 성동구 연무장5길 20-0",37.54489,127.053444
1467,"성수","송계옥성수점","맛집","서울 성동구 아차산로11길 11-0",37.544777,127.05935
1468,"성수","소안도풍경성수점","맛집","서울 성동구 아차산로 126-0",37.5435,127.05805
1469,"성수","소바식당","맛집","서울 성동구 연무장7가길 6-0",37.54302,127.05499
1470,"성수","소문난성수감자탕","맛집","서울 성동구 연무장길 45-0",37.54288,127.054405
1471,"성수","성수족발","맛집","서울 성동구 아차산로7길 7-0",37.545986,127.05427
947,"마장","본앤브레드신관","맛집","서울 성동구 마장로42길 1-0",37.56679,127.0445
948,"마장","군산아구산꽃게","맛집","서울 성동구 마장로 327-0",37.567913,127.04516
949,"마천","마천중앙시장","관광지","서울 송파구 마천로45길 23-0",37.49805511,127.1502739
950,"마천","천마풋살파크","관광지","서울 송파구 성내천로29길 31-0",37.50242973,127.153399
951,"마포","부영각","맛집","서울 마포구 토정로 268-0",37.54252,126.93951
952,"마포","색동저고리마포점","맛집","서울 마포구 도화길 27-0",37.54087,126.94896
953,"마포","복성각마포본점","맛집","서울 마포구 마포대로 63-8",37.54226,126.947815
954,"마포","마포원조떡볶이","맛집","서울 마포구 도화2길 3-0",37.540337,126.9488
955,"마포","마포옥","맛집","서울 마포구 토정로 312-0",37.539875,126.94335
956,"마포","마루심마포점","맛집","서울 마포구 토정로 316-0",37.53952,126.943474
957,"마포","대도식당마포대로점","맛집","서울 마포구 마포대로 19-0",37.539032,126.94432
958,"마포","능라도마포점","맛집","서울 마포구 마포대로 25-0",37.53938,126.94483
959,"마포","고도식마포점","맛집","서울 마포구 마포대로1길 16-0",37.53973,126.943146
960,"마포","원조조박집본관","맛집","서울 마포구 토정로 313-1",37.53997,126.94386
961,"마포","일일향마포5호점","맛집","서울 마포구 새창로2길 15-2",37.54114,126.949196
962,"마포","채그로","맛집","서울 마포구 마포대로4다길 31-0",37.535652,126.94426
963,"마포","청기와타운마포용강점","맛집","서울 마포구 토정로 296-0",37.540695,126.94204
964,"마포","프릿츠도화점","맛집","서울 마포구 새창로2길 17-0",37.541023,126.94907
965,"마포","IOU","맛집","서울 용산구 원효로1길 16-0",37.535164,126.945625
966,"마포","색동저고리","맛집","서울 양천구 목동동로 411-0",37.536728,126.88222
967,"마포","봉피양마포점","맛집","서울 마포구 토정로 308-0",37.54009,126.94291
968,"마포구청","월드컵공원","관광지","서울 마포구 월드컵로 243-60",37.56524018,126.889519
969,"마포구청","평화의공원","관광지","서울 마포구",37.56229611,126.8951019
970,"마포구청","난지한강공원","관광지","서울 마포구 한강난지로 162-0",37.5662122,126.8762702
971,"마포구청","일등식당","맛집","서울 마포구 방울내로 82-0",37.560566,126.90435
972,"마포구청","평화의공원/모험놀이터","관광지","서울 마포구 월드컵로 243-48",37.56185172,126.8961851
973,"마포구청","난지자전거공원","관광지","서울 마포구",37.56412915,126.8819642
974,"마포구청","난지야구장","관광지","서울 마포구",37.5677398,126.8747703
975,"마포구청","시립마포청소년센터","관광지","서울 마포구 월드컵로 212-0",37.56604571,126.9019068
976,"마포구청","쁘띠몽드/마포중앙도서관점","관광지","서울 마포구 성산로 128-0",37.56401821,126.9078507
977,"마포구청","난지안내센터","관광지","서울 마포구",37.56282376,126.8853527
978,"마포구청","난지강변물놀이장","관광지","서울 마포구 한강난지로 162-0",37.56415691,126.87927
979,"마포구청","서울함공원","관광지","서울 마포구 마포나루길 407-0",37.55343604,126.8977128
980,"마포구청","망원유수지체육공원","관광지","서울 마포구 방울내로11길 198-0",37.55776887,126.8974073
981,"망원","망원동월드컵시장","관광지","서울 마포구 망원로7길 31-0",37.55821331,126.9055176
982,"망원","잔다리어린이공원","관광지","서울 마포구",37.55460266,126.912767
983,"망원","리치몬드과자점성산본점","맛집","서울 마포구 월드컵북로 86-0",37.561413,126.91562
984,"망원","만복기사식당","맛집","서울 마포구 희우정로 121-0",37.555283,126.89991
985,"망원","망원동즉석우동","맛집","서울 마포구 동교로 83-0",37.55425,126.91115
986,"망원","물결한강","맛집","서울 마포구 마포나루길 296-0",37.560566,126.88585
987,"망원","소금집델리망원점","맛집","서울 마포구 월드컵로19길 14-0",37.556824,126.90823
988,"망원","양화정숯불갈비","맛집","서울 마포구 월드컵로1길 17-0",37.549435,126.911995
989,"망원","어글리베이커리","맛집","서울 마포구 월드컵로13길 73-0",37.555035,126.90606
990,"망원","와이키키마켓","맛집","서울 마포구 마포나루길 332-0",37.558895,126.888664
991,"망원","망리단길","관광지","서울 마포구",37.55490813,126.9051844
992,"망원","망원한강공원/축구장","관광지","서울 마포구 마포나루길 407-0",37.55135296,126.9004071
993,"망원","망원시장","관광지","서울 마포구 포은로8길 14-0",37.55653011,126.906059
994,"망원","망원한강공원","관광지","서울 마포구 마포나루길 467-0",37.55574131,126.8945464
995,"망원","청어람망원점","맛집","서울 마포구 망원로 97-0",37.558105,126.907524
996,"망원","진평925","맛집","서울 마포구 망원로 87-0",37.557945,126.90638
997,"망원","진진본관","맛집","서울 마포구 잔다리로 123-0",37.55781,126.91328
998,"매봉","마켓오도곡점","맛집","서울 강남구 남부순환로 2745-0",37.487217,127.04605
999,"매봉","백마김씨네도곡본점","맛집","서울 강남구 남부순환로 2743-0",37.487156,127.04568
1000,"매봉","평양면옥도곡점","맛집","서울 강남구 논현로28길 28-0",37.48338,127.044754
1001,"매봉","롯데시네마/도곡","관광지","서울 강남구 남부순환로 2753-0",37.48743508,127.0469552
1002,"매봉","경복궁도곡점","맛집","서울 강남구 언주로 201-0",37.488426,127.048775
1003,"매봉","신선설농탕도곡점","맛집","서울 서초구 논현로 161-0",37.483856,127.041725
1004,"매봉","인덕원비빔국수서초점","맛집","서울 서초구 남부순환로 2656-0",37.48524,127.04105
1005,"매봉","김영모과자점도곡타워점","맛집","서울 강남구 언주로30길 10-0",37.48734,127.05155
1006,"매봉","포브라더스도곡점","맛집","서울 강남구 논현로28길 40-0",37.484016,127.04532
1007,"먹골","홍어본가","맛집","서울 중랑구 동일로 867-0",37.60778,127.07801
1008,"먹골","하늘정원더파티중랑점","맛집","서울 중랑구 숙선옹주로 6-9",37.61484,127.07789
1009,"먹골","이마트/묵동점","관광지","서울 중랑구 동일로 932-0",37.61373573,127.0775293
1010,"먹골","뛰노리방방/먹골역점","관광지","서울 중랑구 중랑역로 167-0",37.60834632,127.0762735
1011,"먹골","롯데시네마/중랑","관광지","서울 중랑구 동일로 951-0",37.61512445,127.0760017
1012,"먹골","청평매운탕","맛집","서울 중랑구 공릉로 46-0",37.614727,127.078445
1013,"면목","홍어천국","맛집","서울 중랑구 면목로 421-0",37.589645,127.08705
1014,"면목","동원시장","관광지","서울 중랑구 면목로74길 45-0",37.58984941,127.0898853
1015,"면목","한촌설렁탕면목용마점","맛집","서울 중랑구 상봉로 39-0",37.589436,127.09344
1016,"면목","맑은샘","맛집","서울 중랑구 용마산로99길 13-0",37.591946,127.09725
1017,"면목","농부보쌈","맛집","서울 중랑구 용마산로 389-0",37.5865,127.09493
1018,"면목","망우찜쌈밥본점","맛집","서울 중랑구 용마공원로2길 8-0",37.59459,127.10031
1019,"면목","용마해장국","맛집","서울 중랑구 용마공원로5길 8-0",37.59445,127.10154
1020,"면목","크리스탈","맛집","서울 중랑구 봉우재로70길 93-0",37.591454,127.0972
1021,"면목","망우마중마을활력소","관광지","서울 중랑구",37.59238138,127.0981781
1022,"면목","중랑천제3체육공원","관광지","서울 중랑구",37.58523901,127.0745021
1023,"면목","신세대프라자","관광지","서울 중랑구 겸재로49길 18-0",37.58984968,127.0904728
1024,"면목","송계공원","관광지","서울 중랑구",37.58465576,127.0780296
1025,"면목","코통령/서울점","관광지","서울 중랑구 면목로72길 22-0",37.58746106,127.0889452
1026,"면목","동원골목시장","관광지","서울 중랑구 상봉로 49-0",37.59004412,127.092056
1027,"면목","돌산체육공원","관광지","서울 중랑구",37.59129405,127.104666
1028,"면목","햇살공원","관광지","서울 중랑구",37.58993296,127.0832235
1029,"면목","남촌공원","관광지","서울 중랑구",37.58565573,127.0913339
1030,"면목","유영상가","관광지","서울 중랑구 봉우재로70길 96-0",37.59134955,127.0967222
1031,"면목","신성묵과자점","맛집","서울 중랑구 겸재로 113-0",37.586914,127.08035
1032,"명동","몰또이탈리안에스프레소바","맛집","서울 중구 명동길 73-0",37.56441,126.98624
1033,"명동","원조남산왕돈까스","맛집","서울 중구 소파로 107-0",37.55737,126.98612
1034,"명동","N서울타워","관광지","서울 용산구 남산공원길 105-0",37.55121463,126.9881491
1035,"명동","남산둘레길","관광지","서울 용산구",37.55570143,126.9872197
1036,"명동","눈스퀘어","관광지","서울 중구 명동길 14-0",37.5634354,126.9828439
1037,"명동","CGV/명동역씨네라이브러리","관광지","서울 중구 퇴계로 123-0",37.56129678,126.9853159
1038,"명동","남산서울타워","관광지","서울 용산구 남산공원길 105-0",37.55127018,126.9882324
1039,"명동","촛불1978","맛집","서울 중구 소파로 95-0",37.556812,126.98535
1040,"명동","101번지남산돈까스본점","맛집","서울 중구 소파로 101-0",37.55695,126.98575
1041,"명동","원조남산돈까스","맛집","서울 중구 소파로 23-0",37.5561,126.97954
1042,"명동","목멱산방","맛집","서울 중구 퇴계로20길 71-0",37.558117,126.986885
1043,"명동","남산골산채집","맛집","서울 중구 소파로 93-0",37.556778,126.98518
1044,"명동","명동교자본점","맛집","서울 중구 명동10길 29-0",37.567814,126.98419
1045,"명일","볕우물어린이공원","관광지","서울 강동구",37.55352084,127.1359413
1046,"명일","프레리키즈카페/명일점","관광지","서울 강동구 양재대로 1657-11",37.55338201,127.1434128
1047,"명일","명일전통시장","관광지","서울 강동구 양재대로138길 20-0",37.54974355,127.1447739
1048,"명일","육대쌈암사점","맛집","서울 강동구 고덕로 104-0",37.55449,127.1368
1049,"명일","암사역사공원","관광지","서울 강동구 아리수로25길 152-0",37.5588246,127.1314137
1050,"명일","주양두리돈까스","맛집","서울 강동구 고덕로 89-0",37.554935,127.135284
1051,"목동","남부시장","관광지","서울 강서구 등촌로5길 62-4",37.5329104,126.8597442
1052,"목동","목동로데오거리","관광지","서울 양천구",37.52810542,126.8627162
1053,"목동","목사랑시장","관광지","서울 양천구 목동중앙남로7길 8-0",37.53824316,126.8663547
1054,"목동","헬로방방/목동점","관광지","서울 양천구 신월로 387-0",37.52268939,126.8639662
1055,"목동","구구갤러리","관광지","서울 양천구 목동중앙서로9길 30-0",37.53368813,126.8666603
1056,"목동","KT체임버홀","관광지","서울 양천구 목동서로 201-0",37.52943865,126.8712155
1057,"목동","모세미어린이공원","관광지","서울 양천구",37.53524352,126.8686601
1058,"목동","리디아갤러리","관광지","서울 양천구 목동로25길 30-0",37.52846748,126.8610177
1059,"목동","오구어린이공원","관광지","서울 양천구",37.52732773,126.8619663
1060,"목동","가랑누룽지삼계탕","맛집","서울 양천구 목동동로14길 5-0",37.524403,126.87221
1061,"목동","달콤커피목동역점","맛집","서울 양천구 목동로 213-0",37.527473,126.86383
1062,"목동","만복순대국","맛집","서울 양천구 목동로 219-0",37.527946,126.86382
1063,"목동","밥초","맛집","서울 양천구 오목로48길 10-0",37.524998,126.862816
1064,"목동","서가앤쿡서울목동점","맛집","서울 양천구 오목로 286-0",37.52513,126.86928
1065,"목동","한스목동점","맛집","서울 양천구 오목로 287-0",37.525642,126.869415
1066,"목동","착한낙지목동점","맛집","서울 양천구 국회대로 289-0",37.53053,126.86704
1067,"목동","옛날마차","맛집","서울 양천구 신정중앙로 84-0",37.5265,126.8609
1068,"몽촌토성","올림픽공원/세계평화의문","관광지","서울 송파구",37.51830256,127.1153324
1069,"몽촌토성","청와옥올림픽공원점","맛집","서울 송파구 위례성대로 48-0",37.515316,127.11753
1070,"몽촌토성","산들해송파점","맛집","서울 송파구 위례성대로 6-0",37.51684,127.11315
1071,"몽촌토성","몽중헌방이점","맛집","서울 송파구 위례성대로 10-0",37.516705,127.11352
1072,"몽촌토성","경복궁방이점","맛집","서울 송파구 올림픽로 348-0",37.515923,127.10903
1073,"무악재","인왕산","관광지","서울 종로구",37.58493276,126.9577904
1074,"무악재","더숲초소책방","맛집","서울 종로구 인왕산로 172-0",37.585953,126.96428
1075,"무악재","뚜레쥬르무악재점","맛집","서울 서대문구 통일로 363-0",37.58275,126.94978
1076,"문래","씨랄라워터파크","관광지","서울 영등포구 문래로 164-0",37.51791238,126.9000741
1077,"문래","헬로밀가루/영등포점","관광지","서울 영등포구 경인로 775-0",37.51502534,126.8985959
1078,"문래","값진식육","맛집","서울 영등포구 선유로 58-4",37.519028,126.88969
1079,"문래","골목집","맛집","서울 영등포구 도림로139가길 11-0",37.513355,126.89315
1080,"문래","그믐족발","맛집","서울 영등포구 경인로79길 21-0",37.513523,126.893074
1081,"문래","능이버섯백숙","맛집","서울 영등포구 선유로 32-0",37.516758,126.888855
1082,"문래","라크라센타","맛집","서울 영등포구 문래로 92-5",37.518887,126.89219
1083,"문래","러스트베이커리","맛집","서울 영등포구 경인로79길 15-0",37.51319,126.893715
1084,"문래","문래돼지불백본점","맛집","서울 영등포구 당산로 2-1",37.51499,126.89426
1085,"문래","홈플러스/영등포점","관광지","서울 영등포구 당산로 42-0",37.51824565,126.8958522
1086,"문래","화사랑화로구이문래점","맛집","서울 영등포구 선유로9가길 16-0",37.518616,126.8883
1087,"문래","태양정육식당","맛집","서울 영등포구 문래로 92-3",37.51903,126.89225
1088,"문래","잠수교집문래점","맛집","서울 영등포구 도림로 428-1",37.51422,126.89548
1089,"문래","이한스시","맛집","서울 영등포구 선유로22길 3-0",37.521603,126.89036
1090,"문래","영일분식","맛집","서울 영등포구 도림로141가길 34-1",37.516315,126.88968
1091,"문래","쉐프조문래본점","맛집","서울 영등포구 문래로 98-0",37.519253,126.89272
1092,"문래","송추가마골인어반영등포점","맛집","서울 영등포구 문래로28길 25-0",37.516388,126.89998
1093,"문정","골목떡볶이","맛집","서울 송파구 문정로1길 33-0",37.489056,127.12347
1094,"문정","더퍼스트클래스파티하우스송파문정점","맛집","서울 송파구 법원로 127-0",37.486294,127.11876
1095,"문정","몽중헌문정점","맛집","서울 송파구 새말로5길 31-0",37.48518,127.12345
1096,"문정","송도갈비문정역점","맛집","서울 송파구 법원로 128-0",37.486847,127.12049
1097,"문정","우설화송파문정역점","맛집","서울 송파구 법원로4길 5-0",37.482914,127.12187
1098,"문정","툇마루밥상","맛집","서울 송파구 송파대로22길 11-0",37.487923,127.12314
1099,"문정","강남면옥송파점","맛집","서울 송파구 법원로 55-0",37.479862,127.12176
1100,"문정","문정동로데오거리","관광지","서울 송파구",37.4901392,127.1237764
1101,"미아","카페어니언미아점","맛집","서울 강북구 솔매로50길 55-0",37.62403,127.028435
1102,"미아","번2동우이천벚꽃길","관광지","서울 강북구 한천로 897-0",37.6323909,127.03947
1103,"미아","벌말어린이공원","관광지","서울 강북구",37.62973364,127.039977
1104,"미아","수유재래시장","관광지","서울 강북구 도봉로71길 2-0",37.63148334,127.0233951
1105,"미아","으뜸어린이공원","관광지","서울 강북구",37.6236787,127.026145
1106,"미아","수유전통시장","관광지","서울 강북구 수유로12길 100-0",37.63062232,127.0224786
1107,"미아","갈비예찬미아점","맛집","서울 강북구 도봉로 156-0",37.622852,127.027855
1108,"미아","마루국시미아직영점","맛집","서울 강북구 도봉로 242-0",37.630585,127.02489
1109,"미아사거리","바람난오리궁뎅이","맛집","서울 성북구 보국문로29길 15-0",37.615963,127.003006
1110,"미아사거리","VIPS프리미어미아점","맛집","서울 성북구 월계로 32-0",37.610397,127.03379
1111,"미아사거리","풍천장어마을","맛집","서울 강북구 삼양로181길 45-0",37.66593,127.010284
1112,"미아사거리","숭인시장","관광지","서울 강북구 도봉로 45-0",37.61317994,127.0292559
1113,"미아사거리","애슐리퀸즈미아사거리역점","맛집","서울 강북구 도봉로 52-0",37.6137,127.030525
1114,"미아사거리","트레지오","관광지","서울 강북구 도봉로 34-0",37.61204119,127.030728
1115,"미아사거리","상상톡톡미술관","관광지","서울 강북구 월계로 173-0",37.62254004,127.0413381
1116,"미아사거리","꿈의숲아트센터","관광지","서울 강북구 월계로 173-0",37.62156791,127.0384772
1117,"미아사거리","CGV/미아","관광지","서울 강북구 도봉로 34-0",37.61209674,127.0307558
1118,"미아사거리","롯데백화점/미아점","관광지","서울 강북구 도봉로 62-0",37.61467977,127.0305058
1119,"미아사거리","북서울꿈의숲","관광지","서울 강북구 월계로 173-0",37.62106799,127.0410603
1120,"미아사거리","밤나무골시장","관광지","서울 성북구",37.60915266,127.0354221
1121,"미아사거리","동방고개","관광지","서울 성북구",37.61354106,127.0379218
1122,"미아사거리","이마트/미아점","관광지","서울 성북구 도봉로 17-0",37.61084688,127.029867
1123,"미아사거리","현대백화점/미아점","관광지","서울 성북구 동소문로 315-0",37.60834716,127.0287004
1124,"미아사거리","거울연못/북서울꿈의숲","관광지","서울 강북구 월계로 173-0",37.62237337,127.0381439
1125,"미아사거리","방천시장","관광지","서울 강북구 월계로7길 61-0",37.61281889,127.0338111
1126,"미아사거리","옛날농장미아현대점","맛집","서울 성북구 동소문로 325-0",37.609127,127.02923
1127,"미아사거리","지호한방삼계탕미아점","맛집","서울 성북구 월계로 14-0",37.6095,127.031944
1128,"미아사거리","능이마을","맛집","서울 강북구 솔샘로 330-0",37.616985,127.028595
1129,"미아사거리","메이린","맛집","서울 강북구 월계로 173-0",37.620255,127.04433
1130,"미아사거리","명인갈비미아직영점","맛집","서울 강북구 솔샘로 327-0",37.61744,127.02846
1131,"미아사거리","소담촌미아사거리점","맛집","서울 강북구 월계로 3-0",37.60959,127.030685
1132,"미아사거리","송담추어탕미아점","맛집","서울 강북구 도봉로 30-0",37.61163,127.03073
1133,"미아사거리","아웃백스테이크하우스미아점","맛집","서울 강북구 도봉로 62-0",37.614594,127.03052
1134,"미아사거리","조마루감자탕미아점","맛집","서울 강북구 솔샘로 332-0",37.617004,127.029045
1135,"반포","VIPS반포역점","맛집","서울 서초구 나루터로4길 61-0",37.50959,127.013466
1136,"반포","크리스탈제이드잠원점","맛집","서울 서초구 신반포로33길 27-0",37.51037,127.01005
1137,"반포","마루심본점","맛집","서울 서초구 고무래로10길 10-0",37.5019,127.01046
1138,"반포","몽중헌반포점","맛집","서울 서초구 서초중앙로 249-0",37.503674,127.010635
1139,"반포","뉴코아아울렛/강남점패션관","관광지","서울 서초구 잠원로 51-0",37.50927515,127.0074256
1140,"반포","뉴코아아울렛/강남점","관광지","서울 서초구 잠원로 69-0",37.50844192,127.0079533
1141,"발산","봉봉키즈카페/강서점","관광지","서울 강서구 마곡중앙6로 65-0",37.56040707,126.834774
1142,"발산","KBS아레나","관광지","서울 강서구 공항대로 376-0",37.55679646,126.8481062
1143,"발산","NC백화점/강서점","관광지","서울 강서구 강서로56길 17-0",37.55996271,126.8405513
1144,"발산","메가박스/마곡","관광지","서울 강서구 공항대로 247-0",37.55932386,126.8351073
1145,"방배","국립국악원/예악당","관광지","서울 서초구 남부순환로 2364-0",37.47758437,127.008648
1146,"방이","봉피양방이점","맛집","서울 송파구 양재대로71길 1-4",37.51001,127.126205
1147,"방이","벽제갈비방이본점","맛집","서울 송파구 양재대로71길 1-4",37.51001,127.126205
1148,"방이","방이샤브샤브칼국수방이본점","맛집","서울 송파구 오금로31길 42-0",37.509285,127.12335
1149,"방이","서울방이동고분군","관광지","서울 송파구 오금로 219-0",37.50783156,127.1188044
1150,"방이","프로퍼커피바","맛집","서울 송파구 위례성대로22길 6-0",37.50971,127.13112
1151,"방이","오발탄송파본점","맛집","서울 송파구 위례성대로 206-0",37.50903,127.13337
1152,"방이","춘향골남원추어탕오금본점","맛집","서울 송파구 위례성대로22길 18-0",37.508686,127.130356
1153,"방이","칸지고고올림픽점","맛집","서울 송파구 위례성대로 114-0",37.51287,127.12428
1154,"방학","방학동도깨비시장","관광지","서울 도봉구 도당로13다길 33-0",37.6653297,127.0355034
1155,"방학","CGV/방학","관광지","서울 도봉구 도봉로 684-0",37.66536843,127.0437541
1156,"방학","헬로애니멀","관광지","서울 도봉구 마들로 650-0",37.66800703,127.0470593
1157,"방학","신도봉시장","관광지","서울 도봉구 도당로27길 60-0",37.67025674,127.0412265
1158,"방학","발바닥공원","관광지","서울 도봉구 시루봉로6길 33-0",37.65959125,127.0318663
1159,"방학","씨알방학간","관광지","서울 도봉구 도봉로 666-0",37.66395193,127.0435319
1160,"방학","베이스볼클리닉","관광지","서울 도봉구 마들로 699-0",37.67275142,127.0464214
1161,"방학","개나리어린이공원","관광지","서울 도봉구",37.66734038,127.0371713
1162,"방학","흰고무신","관광지","서울 도봉구 시루봉로15마길 13-0",37.66809026,127.0316163
1163,"방학","홈플러스/방학점","관광지","서울 도봉구 도봉로 678-0",37.66486446,127.0436776
1164,"방학","경복궁창동점","맛집","서울 도봉구 도봉로 610-0",37.658916,127.04122
1165,"방학","공릉동닭한마리방학점","맛집","서울 도봉구 도봉로 683-0",37.66549,127.04193
1166,"방학","금강산감자탕방학점","맛집","서울 도봉구 도봉로 669-0",37.664318,127.04231
1167,"방학","대문한정식","맛집","서울 도봉구 시루봉로 139-6",37.6637,127.02755
1168,"방학","히비끼","맛집","서울 도봉구 마들로 664-5",37.66947,127.04683
1169,"방학","와겐커피방학점","맛집","서울 도봉구 도봉로150마길 15-0",37.66671,127.04496
1170,"방학","양촌리방학점","맛집","서울 도봉구 방학로 102-0",37.6631,127.041115
1694,"신림","아웃백스테이크하우스서울대점","맛집","서울 관악구 남부순환로 1840-0",37.480362,126.9543
1695,"신림","아리차이신림점","맛집","서울 관악구 신림동길 4-0",37.487637,126.92827
1696,"신림","신림정","맛집","서울 관악구 봉천로 248-0",37.48865,126.92885
1697,"신림","신림동순대타운","맛집","서울 관악구",37.478367,126.95156
1698,"신림","신림동또순이원조순대본점","맛집","서울 관악구 신림로59길 14-0",37.48329,126.92878
1699,"신림","쉐이크쉑신림점","맛집","서울 관악구 신림로 330-0",37.483852,126.93024
1700,"신림","서울갈비신림점","맛집","서울 관악구 남부순환로 1645-0",37.484985,126.933586
1701,"신림","미가할매집","맛집","서울 관악구 신림로 374-0",37.48771,126.92901
1702,"신림","디자이너리카페","맛집","서울 관악구 관천로 71-1",37.48506,126.92412
1703,"신림","대원갈비","맛집","서울 관악구 신림로67길 5-0",37.486076,126.92895
1704,"신림","강강술래신림점","맛집","서울 관악구 남부순환로 1660-0",37.484573,126.935036
1705,"신림","경륜경정/관악지점","관광지","서울 관악구 신림로59길 23-0",37.48283328,126.928433
1706,"신림","가야쇼핑센터","관광지","서울 관악구 봉천로12길 39-0",37.48694392,126.9301272
1707,"신림","삼모아트센터","관광지","서울 관악구 신원로 35-0",37.48233334,126.9290996
1708,"신림","롤러팡팡","관광지","서울 관악구 신림로 340-0",37.48477751,126.9300995
1709,"신림","신림동별빛거리","관광지","서울 관악구 신림로 0-0",37.48749941,126.9286551
1710,"신림","신원시장","관광지","서울 관악구 남부순환로 1578-0",37.48227778,126.9275442
1711,"신림","르네상스쇼핑몰","관광지","서울 관악구 신림로 340-0",37.48474973,126.9300717
1712,"신림","롯데시네마/신림","관광지","서울 관악구 신림로 330-0",37.48378898,126.9302187
1713,"신림","카페인중독신림본점","맛집","서울 관악구 봉천로6길 40-0",37.487885,126.92561
1714,"신사","라이라이","맛집","서울 서대문구 연희로15길 27-0",37.56859,126.930435
1715,"신사","송쉐프","맛집","서울 동대문구 장한로2길 20-0",37.561848,127.066315
1716,"신사","천미미","맛집","서울 관악구 시흥대로 552-0",37.48212,126.90141
1717,"신사","브루클린더버거조인트가로수길점","맛집","서울 강남구 도산대로15길 12-0",37.519073,127.02407
1718,"신사","랜디스도넛가로수길점","맛집","서울 강남구 도산대로15길 16-0",37.51932,127.02402
1719,"신사","송쉐프","맛집","서울 송파구 백제고분로 357-0",37.50494,127.105644
1720,"신사","신사동가로수길","관광지","서울 강남구",37.5215516,127.0227852
1721,"신사","영동설렁탕","맛집","서울 서초구 강남대로101안길 24-0",37.51615,127.017365
1722,"신사","대도식당강남대로점","맛집","서울 서초구 강남대로 567-0",37.512394,127.020065
1723,"신사","한강시민공원잠원지구수영장","관광지","서울 서초구 잠원로 221-124",37.51949621,127.0098975
1724,"신사","잠원한강공원","관광지","서울 서초구 잠원로 221-124",37.52282918,127.0134249
1725,"신사","롯데시네마/브로드웨이","관광지","서울 강남구 도산대로 118-0",37.51662291,127.0217741
1726,"신사","프로간장게장신사본점","맛집","서울 서초구 강남대로97길 17-0",37.5146,127.01884
1727,"신설동","서울풍물시장전통문화체험관","관광지","서울 동대문구 천호대로4길 21-0",37.57272897,127.0254018
1728,"신설동","동네극장","관광지","서울 동대문구 안암로6길 19-0",37.57918385,127.0258954
1729,"신설동","렛츠런CCC/동대문지점","관광지","서울 동대문구 난계로 254-0",37.57432329,127.023729
1730,"신설동","서울풍물시장","관광지","서울 동대문구 천호대로4길 21-0",37.57274015,127.0253955
1731,"신설동","커피명가안암점","맛집","서울 성북구 안암로5길 40-0",37.580887,127.0235
1732,"신설동","더가루/왕십리점","관광지","서울 성동구 청계천로 450-0",37.57025107,127.0268721
1733,"신설동","육전식당본점","맛집","서울 동대문구 난계로30길 16-0",37.574284,127.0243
1734,"신설동","육전식당3호점","맛집","서울 동대문구 천호대로 38-0",37.57369,127.027504
1735,"신설동","옥천옥설렁탕","맛집","서울 동대문구 하정로 16-0",37.572483,127.02698
1736,"신설동","어머니대성집","맛집","서울 동대문구 왕산로11길 4-0",37.577473,127.028564
1737,"신설동","더모임","맛집","서울 동대문구 왕산로 6-0",37.575726,127.02446
1738,"신설동","킹수제만두","맛집","서울 동대문구 한빛로 3-0",37.57652,127.02412
1739,"신용산","잠수교집본점","맛집","서울 용산구 장문로 81-0",37.5262,126.998634
1740,"신용산","일일향7호점","맛집","서울 용산구 한강대로40길 26-0",37.53005,126.97063
1741,"신용산","효뜨","맛집","서울 용산구 한강대로40가길 6-0",37.53035,126.971306
1742,"신용산","현선이네용산본점","맛집","서울 용산구 한강대로39길 2-13",37.53115,126.969215
1743,"신용산","봉피양용산점","맛집","서울 용산구 한강대로40길 31-0",37.53034,126.970924
1744,"신용산","아모레퍼시픽미술관","관광지","서울 용산구 한강대로 100-0",37.52885598,126.9681789
1745,"신용산","용산역사박물관","관광지","서울 용산구 한강대로14길 35-29",37.52565812,126.9658571
1746,"신용산","왜고개","관광지","서울 용산구 한강대로40길 46-0",37.52988366,126.9719563
1747,"신용산","용리단길","관광지","서울 용산구 한강대로 0-0",37.5313717,126.9715123
1748,"신용산","하이브인사이트","관광지","서울 용산구 한강대로 42-0",37.52445708,126.9640839
1749,"신용산","용산역광장","관광지","서울 용산구 한강대로21나길 0-0",37.52910593,126.965568
1750,"신용산","원광사","관광지","서울 용산구 한강대로40길 46-0",37.52888378,126.9729563
1751,"신정","대가","맛집","서울 양천구 신정중앙로 66-0",37.526608,126.85907
1752,"신정","망향비빔국수양천점","맛집","서울 양천구 신월로 344-0",37.521626,126.859245
1753,"신정","봉스시","맛집","서울 양천구 은행정로7길 25-0",37.521996,126.85679
1754,"신정","황금오리농장","맛집","서울 양천구 국회대로 176-0",37.52826,126.85447
1755,"신정","새뚝어린이공원","관광지","서울 양천구",37.52410585,126.8577723
1756,"신정네거리","넘은들공원책쉼터","관광지","서울 양천구",37.51299592,126.8404406
1757,"신정네거리","아쏘축구트레이닝센터","관광지","서울 양천구 신월로10길 16-0",37.5158567,126.8407183
1758,"신정네거리","장수공원","관광지","서울 양천구",37.52268929,126.8476343
1759,"신정네거리","오솔길근린공원","관광지","서울 양천구",37.52113385,126.836552
1760,"신정네거리","양천도시농업공원","관광지","서울 양천구",37.51271809,126.8261641
1761,"신정네거리","한울근린공원","관광지","서울 양천구",37.51991174,126.8325524
1762,"신정네거리","신정제일시장","관광지","서울 양천구 중앙로34길 30-0",37.52080066,126.853856
1763,"신정네거리","아이스플렉스","관광지","서울 양천구 지양로7길 9-0",37.52155044,126.8330523
1764,"신정네거리","신트리공원","관광지","서울 양천구 목동동로 3-0",37.51457917,126.8564947
1765,"신정네거리","경창시장","관광지","서울 양천구 오목로9길 31-0",37.52493899,126.842107
1766,"신정네거리","신곡종합시장","관광지","서울 양천구 남부순환로79길 37-0",37.51832865,126.8430792
1767,"신정네거리","초애삼계탕","맛집","서울 양천구 남부순환로 605-0",37.515053,126.840744
1768,"신정네거리","원조우리분식멸치국수","맛집","서울 양천구 오목로 14-0",37.52122,126.83928
1769,"신정네거리","시골식당","맛집","서울 양천구 중앙로36길 22-9",37.51918,126.856346
1770,"신정네거리","살구나무집칼국수","맛집","서울 양천구 중앙로32길 35-0",37.5195,126.85756
1771,"신정네거리","봉피양신월점","맛집","서울 양천구 신월로 112-0",37.515884,126.83655
1772,"신정네거리","마장동김씨신정네거리역점","맛집","서울 양천구 중앙로34길 17-0",37.519665,126.853714
1773,"신정네거리","동호철판낙지","맛집","서울 양천구 신월로15길 12-0",37.519554,126.84199
1774,"신정네거리","아잉키즈카페","관광지","서울 양천구 오목로 22-0",37.52138384,126.840385
1775,"신정네거리","넘은들공원","관광지","서울 양천구",37.51299592,126.8404406
1776,"신정네거리","연의생태학습관","관광지","서울 양천구 신정이펜1로 12-0",37.51174603,126.8343301
1777,"신정네거리","뉴목동프라자","관광지","서울 양천구 신정로 312-0",37.51332931,126.855467
1778,"신정네거리","연의목공방","관광지","서울 양천구 신월로 86-0",37.51506713,126.8337433
1779,"신정네거리","넓은들어린이공원","관광지","서울 양천구 남부순환로88길 19-0",37.51113502,126.8391908
1780,"신촌","창천문화공원","관광지","서울 서대문구",37.55682476,126.9355149
1781,"신촌","성룡사","관광지","서울 서대문구 신촌로7길 30-0",37.55832457,126.9324041
1782,"신촌","금호아트홀/연세","관광지","서울 서대문구 연세로 50-0",37.56305722,126.9369324
1783,"신촌","봉원사","관광지","서울 서대문구 봉원사길 120-0",37.57194577,126.9478212
1784,"신촌","현대백화점 유플렉스/신촌점","관광지","서울 서대문구 연세로 13-0",37.55676922,126.9366259
1785,"신촌","메가박스/신촌","관광지","서울 서대문구 신촌역로 30-0",37.55976891,126.9419032
1786,"신촌","CGV/신촌아트레온","관광지","서울 서대문구 신촌로 129-0",37.55657482,126.9402923
1787,"신촌","현대백화점/신촌점","관광지","서울 서대문구 신촌로 83-0",37.55604708,126.9358205
1788,"신촌","하나로마트/신촌점","관광지","서울 마포구 신촌로 66-0",37.55613039,126.9331263
1789,"신촌","이마트/신촌점","관광지","서울 마포구 신촌로 94-0",37.55498601,126.936005
1790,"신촌","형제갈비","맛집","서울 서대문구 명물1길 2-0",37.55784,126.93735
1791,"신촌","티원연세대점","맛집","서울 서대문구 연세로 50-0",37.563805,126.94293
1792,"신촌","타코벨신촌점","맛집","서울 서대문구 연세로 26-1",37.557995,126.93712
1793,"신촌","키친봄날","맛집","서울 서대문구 신촌로11길 62-0",37.55895,126.93443
1794,"신촌","정육면체","맛집","서울 서대문구 연세로5다길 22-8",37.55684,126.93459
1795,"신촌","아웃백스테이크하우스신촌점","맛집","서울 서대문구 연세로12길 33-0",37.55912,126.938866
1796,"신촌","벽제갈비신촌점","맛집","서울 서대문구 명물길 22-0",37.557755,126.93805
1797,"신촌","난향","맛집","서울 서대문구 신촌로 67-0",37.556503,126.934044
1798,"신촌","아이스스퀘어","관광지","서울 서대문구 연세로7길 58-0",37.55828685,126.9337474
1799,"신촌","드림합주실/연대점","관광지","서울 서대문구 연세로9길 16-0",37.55860234,126.9358482
1800,"신촌","신촌문화발전소","관광지","서울 서대문구 연세로2나길 57-0",37.55796355,126.9398201
1801,"신촌","연세대세브란스병원/은명대강당","관광지","서울 서대문구 연세로 50-1",37.56243526,126.9410422
1802,"신촌","연세대세브란스병원/우리라운지","관광지","서울 서대문구 연세로 50-1",37.56235194,126.9410422
1803,"신촌","꾼낚시카페","관광지","서울 서대문구 명물길 66-0",37.55885233,126.9398756
1804,"신촌","연세대학교/언더우드관","관광지","서울 서대문구 연세로 50-0",37.5664048,126.9387529
1805,"신풍","신풍시장","관광지","서울 영등포구 신길로 164-0",37.5068304,126.9111843
1806,"신풍","낙지세상","맛집","서울 영등포구 신풍로 23-0",37.50037,126.90836
1807,"신풍","더피아노","맛집","서울 종로구 평창6길 71-0",37.617268,126.9748
1808,"신풍","썬프라자","관광지","서울 영등포구 신길로 39-0",37.4959983,126.9079069
1809,"쌍문","다람쥐어린이공원","관광지","서울 도봉구",37.64523182,127.0349495
1810,"쌍문","감포면옥","맛집","서울 도봉구 노해로 243-0",37.651447,127.035194
1811,"쌍문","둘리유아숲체험장","관광지","서울 도봉구",37.6524254,127.0298943
1812,"쌍문","쌍문근린공원","관광지","서울 도봉구",37.65334195,127.0288667
1813,"쌍문","하늘꽃정원","관광지","서울 도봉구",37.6426824,127.0424896
1814,"쌍문","창동시장","관광지","서울 도봉구 도봉로110나길 31-0",37.64762043,127.0349773
1815,"쌍문","쌍문시장","관광지","서울 도봉구 도봉로113길 23-0",37.6485092,127.0324219
1816,"쌍문","함석헌기념관","관광지","서울 도봉구 도봉로123길 33-6",37.65292537,127.0348661
1817,"쌍문","국립현대미술관/창동레지던시","관광지","서울 도봉구 덕릉로 257-0",37.64073237,127.0394214
1818,"쌍문","키즈팡팡/쌍문점","관광지","서울 도봉구 우이천로32길 38-0",37.64923129,127.0252559
1819,"쌍문","삼익쇼핑센터","관광지","서울 도봉구 덕릉로57길 30-0",37.64003799,127.0372827
1820,"쌍문","창골축구장","관광지","서울 도봉구 해등로3길 48-11",37.64848148,127.0410045
1821,"쌍문","초안산근린공원","관광지","서울 도봉구",37.64806486,127.0405045
1822,"쌍문","메가박스/창동","관광지","서울 도봉구 도봉로 558-0",37.65461964,127.0387824
1823,"쌍문","둘리뮤지엄","관광지","서울 도봉구 시루봉로1길 6-0",37.65239761,127.0276723
1824,"쌍문","신창시장","관광지","서울 도봉구 덕릉로57길 10-0",37.6394825,127.0375604
1825,"쌍문","황금코다리쌍문점","맛집","서울 도봉구 시루봉로 68-0",37.65683,127.028244
1826,"쌍문","호호분식","맛집","서울 도봉구 도봉로121길 32-0",37.652443,127.0348
1827,"쌍문","태림산채정식","맛집","서울 도봉구 노해로60길 32-0",37.649982,127.03425
1828,"쌍문","천지연서울창동점","맛집","서울 도봉구 도봉로 526-0",37.652008,127.03715
1829,"쌍문","채선당쌍문점","맛집","서울 도봉구 도봉로 533-0",37.65302,127.03695
1830,"쌍문","쭈꾸미킹","맛집","서울 도봉구 도봉로 421-0",37.64377,127.03125
1831,"쌍문","조마루감자탕쌍문점","맛집","서울 도봉구 도봉로 569-0",37.655895,127.03859
1832,"쌍문","일심해장국","맛집","서울 도봉구 방학로 204-0",37.66221,127.02946
1833,"쌍문","원주추어탕","맛집","서울 도봉구 방학로 247-0",37.661205,127.0247
1834,"쌍문","우설화창동점","맛집","서울 도봉구 도봉로 526-0",37.652008,127.03715
1835,"쌍문","오성정육식당","맛집","서울 도봉구 도봉로 500-0",37.649952,127.03588
1836,"쌍문","오리마을숯불회전구이도봉점","맛집","서울 도봉구 노해로 163-0",37.649334,127.02707
1837,"쌍문","쌍문동판다쓰","맛집","서울 도봉구 우이천로24길 49-0",37.64558,127.03169
1838,"쌍문","쌍문각갈비탕","맛집","서울 도봉구 노해로 180-0",37.650208,127.0285
1839,"쌍문","스시혼","맛집","서울 도봉구 도봉로110길 8-0",37.64623,127.03396
1840,"쌍문","설담재창동본점","맛집","서울 도봉구 도봉로 562-0",37.654842,127.03912
1841,"쌍문","설담재","맛집","서울 도봉구 도봉로 562-0",37.654842,127.03912
1842,"쌍문","산도토리임자탕","맛집","서울 도봉구 덕릉로60길 13-0",37.639633,127.04013
1843,"쌍문","문성해물짬뽕","맛집","서울 도봉구 우이천로 294-0",37.644028,127.02995
1844,"쌍문","모래스푼","맛집","서울 도봉구 시루봉로 2-0",37.65117,127.02878
1845,"쌍문","망향비빔국수창동점","맛집","서울 도봉구 도봉로 534-0",37.65276,127.03749
1846,"쌍문","뚱보냉면","맛집","서울 도봉구 도봉로110길 51-0",37.646355,127.03648
1847,"쌍문","동적깡통구이쌍문점","맛집","서울 도봉구 도봉로109길 30-0",37.647057,127.031685
1848,"쌍문","도레미즉석떡볶이","맛집","서울 도봉구 삼양로144길 18-0",37.651363,127.01388
1849,"쌍문","글림쌍문점","맛집","서울 도봉구 도봉로118길 6-8",37.648777,127.035324
1850,"쌍문","고려가든","맛집","서울 도봉구 방학로 266-40",37.662872,127.0227
1851,"쌍문","고기싸롱쌍문역점","맛집","서울 도봉구 도봉로 454-0",37.646236,127.03371
1852,"쌍문","정혜사","관광지","서울 도봉구 노해로 269-22",37.65203661,127.0390046
1853,"아차산","영화사","관광지","서울 광진구 영화사로 107-0",37.55431542,127.0982981
1854,"아차산","망향비빔국수광진구점","맛집","서울 광진구 천호대로 694-0",37.549313,127.09124
1855,"아차산","멕시칼리","맛집","서울 광진구 능동로36길 181-0",37.552723,127.088394
1856,"아차산","신성골목시장","관광지","서울 광진구",37.55754785,127.0889733
1857,"아차산","해오름공원","관광지","서울 광진구",37.55682573,127.0920563
1858,"아차산","아차산등산로입구","관광지","서울 광진구 긴고랑로 214-0",37.57166022,127.1037945
1859,"아차산","기원정사","관광지","서울 광진구 영화사로11길 41-8",37.55649246,127.0953894
1860,"아차산","구의시장","관광지","서울 광진구 광나루로37길 10-15",37.54442504,127.0905625
1861,"아차산","긴고랑공원","관광지","서울 광진구",37.55896437,127.0910286
1862,"아차산","아차산배수지체육공원","관광지","서울 광진구 천호대로 731-0",37.54879891,127.0967782
1863,"아차산","대게나라광장점","맛집","서울 광진구 천호대로 611-0",37.555126,127.08573
1864,"아차산","후문카페","맛집","서울 광진구 능동로36길 183-0",37.552643,127.088554
1865,"아차산","짬뽕지존아차산역점","맛집","서울 광진구 천호대로 682-0",37.550106,127.09028
1866,"아차산","장군갈비","맛집","서울 광진구 용마산로 11-0",37.55476,127.08816
1867,"아차산","원조할아버지손두부","맛집","서울 광진구 자양로 324-0",37.554077,127.09419
1868,"아차산","안다즈커피","맛집","서울 광진구 천호대로132길 10-0",37.55036,127.089516
1869,"아차산","신토불이떡볶이본점","맛집","서울 광진구 자양로43길 42-0",37.552547,127.09045
1870,"아차산","서북면옥","맛집","서울 광진구 자양로 199-1",37.545418,127.08533
1871,"아차산","삼일민물장어","맛집","서울 광진구 천호대로 685-0",37.55023,127.09123
1872,"아현","아현시장","관광지","서울 마포구 굴레방로 27-10",37.55668601,126.9550132
1873,"아현","아현가구거리","관광지","서울 서대문구",37.55815808,126.958374
1874,"아현","북아현아트홀","관광지","서울 서대문구 북아현로 51-0",37.56186161,126.9554814
1875,"안국","PKM갤러리","관광지","서울 종로구 삼청로7길 40-0",37.58412744,126.980094
1876,"안국","아트선재센터","관광지","서울 종로구 율곡로3길 87-0",37.57951687,126.9818716
1877,"안국","서울공예박물관","관광지","서울 종로구 율곡로3길 4-0",37.57669357,126.9834467
1878,"안국","안녕인사동","관광지","서울 종로구 인사동길 49-0",37.57457301,126.9834826
1879,"안국","국제갤러리","관광지","서울 종로구 삼청로 54-0",37.58077985,126.9804817
1880,"안국","창덕궁","관광지","서울 종로구 율곡로 99-0",37.5816292,126.9918487
1881,"안국","조계사","관광지","서울 종로구 우정국로 55-0",37.57390641,126.9818161
1882,"안국","북촌한옥마을","관광지","서울 종로구",37.58151666,126.9851769
1883,"안국","국립현대미술관/서울관","관광지","서울 종로구 삼청로 30-0",37.57869833,126.9801062
1884,"안국","슬로우파크","맛집","서울 종로구 삼청로 141-0",37.587917,126.9815
1885,"안국","소금집델리안국점","맛집","서울 종로구 북촌로4길 19-0",37.57946,126.98623
1886,"안국","모도우광화문점","맛집","서울 종로구 율곡로 6-0",37.575455,126.979774
1887,"안국","어니언안국점","맛집","서울 종로구 계동길 5-0",37.577385,126.986374
1888,"안국","블루보틀삼청카페","맛집","서울 종로구 북촌로5길 76-0",37.580154,126.980865
1889,"안국","몽중헌안국점","맛집","서울 종로구 북촌로 31-22",37.57961,126.98384
1890,"안국","카페노티드안국","맛집","서울 종로구 북촌로 6-3",37.57746,126.98604
1891,"안국","황생가칼국수","맛집","서울 종로구 북촌로5길 78-0",37.58008,126.98067
1892,"안국","삼청동수제비본점","맛집","서울 종로구 삼청로 101-1",37.58461,126.981926
1893,"안국","눈나무집","맛집","서울 종로구 삼청로 136-1",37.58748,126.98189
1894,"안국","편안한집","맛집","서울 종로구 북촌로 133-0",37.587322,126.98332
1895,"안국","크리스탈제이드광화문상하이팰리스점","맛집","서울 종로구 율곡로2길 7-0",37.575012,126.98125
1896,"안국","베이징코야","맛집","서울 종로구 율곡로2길 25-0",37.574364,126.980515
1897,"안국","다운타우너안국","맛집","서울 종로구 북촌로 6-4",37.57747,126.986374
1898,"안국","용수산비원점","맛집","서울 종로구 창덕궁1길 2-0",37.579445,126.9892
1899,"안국","서울서둘째로잘하는집","맛집","서울 종로구 삼청로 122-1",37.58625,126.981834
1900,"안국","스미스가좋아하는한옥","맛집","서울 종로구 삼청로 22-7",37.57803,126.98007
1901,"안국","런던베이글뮤지엄안국점","맛집","서울 종로구 북촌로4길 20-0",37.57917,126.986206
1902,"안암","동우설렁탕","맛집","서울 성북구 개운사길 45-0",37.58839,127.02905
1903,"안암","개운사","관광지","서울 성북구 개운사길 73-0",37.58998817,127.0283118
1904,"안암","고른햇살","맛집","서울 성북구 개운사길 27-0",37.587524,127.0291
1905,"안암","이공김밥안암본점","맛집","서울 성북구 안암로 61-6",37.582397,127.028465
1906,"안암","두부촌","맛집","서울 성북구 안암로 43-0",37.581203,127.02683
1907,"암사","암사선사유적박물관","관광지","서울 강동구 올림픽로 875-0",37.56154766,127.1311361
1908,"암사","서울암사동유적","관광지","서울 강동구 올림픽로 875-0",37.56068664,127.1303584
1909,"암사","새장터어린이공원","관광지","서울 강동구 암사1가길 16-0",37.5521043,127.1307751
1910,"암사","암사청과종합시장","관광지","서울 강동구 상암로 42-0",37.54949347,127.1278032
1911,"암사","암사어린이극장","관광지","서울 강동구 올림픽로 930-0",37.56346412,127.1333581
1912,"암사","암사생태공원","관광지","서울 강동구",37.55540942,127.1227758
1913,"암사","구강사","관광지","서울 강동구 천중로 64-0",37.54491068,127.1288309
1914,"암사","광나루한강공원/모두의놀이터","관광지","서울 강동구",37.54750992,127.1209006
1915,"암사","천호자전거거리","관광지","서울 강동구",37.54574389,127.1244146
1916,"암사","청진생등심","맛집","서울 강동구 올림픽로 803-0",37.552876,127.128136
1917,"암사","서초면옥천호본점","맛집","서울 강동구 올림픽로 728-0",37.546097,127.12646
1918,"암사","개수리막국수암사점","맛집","서울 강동구 올림픽로 759-0",37.54905,127.126785
1919,"암사","광나루한강공원","관광지","서울 강동구 선사로 83-106",37.55002115,127.1216371
1920,"암사","암사종합시장","관광지","서울 강동구 상암로11길 25-0",37.5508223,127.1289713
1921,"압구정","무탄","맛집","서울 강남구 논현로176길 22-0",37.527298,127.03031
1922,"압구정","명인등심압구정직영점","맛집","서울 강남구 도산대로 211-0",37.520596,127.02968
1923,"압구정","마켓오압구정점","맛집","서울 강남구 도산대로 310-0",37.521538,127.03548
1924,"압구정","리틀넥청담","맛집","서울 강남구 도산대로51길 17-0",37.52421,127.037766
1925,"압구정","런던베이글뮤지엄도산점","맛집","서울 강남구 언주로168길 33-0",37.52608,127.03644
1926,"압구정","덕후선생","맛집","서울 강남구 선릉로 822-0",37.525257,127.04018
1927,"압구정","달마시안","맛집","서울 강남구 압구정로42길 42-0",37.526268,127.03453
1928,"압구정","다운타우너청담","맛집","서울 강남구 도산대로53길 14-0",37.524063,127.038574
1929,"압구정","누데이크하우스도산","맛집","서울 강남구 압구정로46길 50-0",37.52537,127.03568
1930,"압구정","꽁티드툴레아도산점","맛집","서울 강남구 도산대로49길 39-0",37.525562,127.03689
1931,"압구정","금수복국압구정점","맛집","서울 강남구 언주로 821-0",37.52355,127.0328
1932,"압구정","강서면옥압구정점","맛집","서울 강남구 언주로164길 19-0",37.525578,127.03512
1933,"압구정","강남면옥본점","맛집","서울 강남구 논현로152길 34-0",37.521427,127.030945
1934,"압구정","뱃고동압구정본점","맛집","서울 강남구 언주로172길 54-0",37.526844,127.03803
1935,"압구정","삼원가든본점","맛집","서울 강남구 언주로 835-0",37.52493,127.03253
1936,"압구정","아베크청담","맛집","서울 강남구 선릉로 823-0",37.525635,127.039345
1937,"압구정","연타발압구정본점","맛집","서울 강남구 도산대로 231-0",37.521446,127.03215
1938,"압구정","오스테리아꼬또압구정점","맛집","서울 강남구 언주로165길 7-12",37.52509,127.03223
1939,"압구정","오엔","맛집","서울 강남구 압구정로11길 37-30",37.527653,127.01768
1940,"압구정","일일향압구정1호점","맛집","서울 강남구 논현로168길 30-0",37.523457,127.03059
1941,"압구정","중앙해장","맛집","서울 강남구 영동대로86길 17-0",37.50828,127.06548
1942,"압구정","카멜커피","맛집","서울 강남구 도산대로45길 16-8",37.523453,127.03599
1943,"압구정","카페노티드청담","맛집","서울 강남구 도산대로53길 15-0",37.524193,127.03824
1944,"압구정","퀸즈파크청담점","맛집","서울 강남구 압구정로60길 22-0",37.52598,127.04161
1945,"압구정","포레스트청담","맛집","서울 강남구 선릉로 803-0",37.523933,127.03896
1946,"압구정","한일관압구정점","맛집","서울 강남구 압구정로38길 14-0",37.527782,127.03249
1947,"압구정","일일향성수점","맛집","서울 성동구 성수일로6길 47-0",37.5443,127.055244
1948,"압구정","현대백화점/압구정본점","관광지","서울 강남구 압구정로 165-0",37.52738429,127.0275069
1949,"압구정","CGV/압구정본관","관광지","서울 강남구 논현로 848-0",37.52457907,127.0288679
1950,"압구정","광림아트센터/BBCH홀","관광지","서울 강남구 논현로163길 33-0",37.52394023,127.0256182
1951,"압구정","서울옥션/강남센터","관광지","서울 강남구 언주로 864-0",37.52741693,127.0339155
1952,"압구정","금강쇼핑센터","관광지","서울 강남구 압구정로 201-0",37.53035618,127.0298122
1953,"압구정","CGV/압구정신관","관광지","서울 강남구 압구정로30길 45-0",37.52435688,127.0294234
1954,"애오개","헬로방방/마포아현점","관광지","서울 마포구 마포대로 195-0",37.55288089,126.9540966
1955,"애오개","황금콩밭","맛집","서울 마포구 마포대로16길 9-0",37.550964,126.95673
1956,"애오개","진미식당","맛집","서울 마포구 마포대로 186-6",37.55061,126.9558
1957,"약수","리사르커피로스터스","맛집","서울 중구 다산로8길 16-7",37.55247,127.01043
1958,"약수","금돼지식당","맛집","서울 중구 다산로 149-0",37.55709,127.011665
1959,"약수","만포막국수","맛집","서울 중구 동호로14길 2-0",37.555798,127.010315
1960,"약수","호박식당약수본점","맛집","서울 중구 다산로 154-0",37.55731,127.01232
1961,"약수","약수순대국","맛집","서울 중구 다산로8길 7-0",37.553017,127.01004
1962,"약수","소담촌약수점","맛집","서울 중구 동호로10길 30-0",37.55519,127.01636
1963,"양재","영산양재홀","관광지","서울 서초구 바우뫼로37길 45-0",37.48052866,127.038423
1964,"양재","카페캐틀앤비양재점","맛집","서울 서초구 양재천로 131-0",37.4788,127.04198
1965,"양재","크라이치즈버거양재점","맛집","서울 서초구 강남대로41길 8-0",37.487274,127.03192
1966,"양재","프릿츠양재점","맛집","서울 서초구 강남대로37길 24-11",37.48537,127.032196
1967,"양재","갈비사랑","맛집","서울 서초구 강남대로 204-0",37.48248,127.03673
1968,"양재","라그릴리아양재점","맛집","서울 서초구 남부순환로 2620-0",37.484516,127.03733
1969,"양재","버드나무집서초본점","맛집","서울 서초구 효령로 434-0",37.489105,127.031204
1970,"양재","봉피양양재점","맛집","서울 서초구 강남대로 283-0",37.48847,127.031715
1971,"양재","산들해양재동점","맛집","서울 서초구 강남대로 213-0",37.482765,127.03495
1972,"양재","설마중","맛집","서울 서초구 남부순환로 2648-0",37.485023,127.04037
1973,"양재","영동족발본점","맛집","서울 서초구 남부순환로358길 8-0",37.484585,127.038
1974,"양재","오선채","맛집","서울 서초구 남부순환로 2634-8",37.484566,127.038635
1975,"양재","임병주산동손칼국수","맛집","서울 서초구 강남대로37길 65-0",37.484566,127.02998
1976,"양재","한전아트센터공연장","관광지","서울 서초구 효령로72길 60-0",37.48580577,127.0285905
1977,"양천구청","히노야마목동점","맛집","서울 양천구 목동서로 349-0",37.517406,126.8653
1978,"양천구청","토마토김밥 고척사거리점","맛집","서울 구로구 고척로 237-0",37.506622,126.85929
1979,"양천구청","마실목동점","맛집","서울 양천구 목동동로 55-0",37.515522,126.8614
1980,"양천구청","왕뼈감자탕고척점","맛집","서울 구로구 중앙로 101-0",37.506283,126.85993
1981,"양천구청","어린이교통공원","관광지","서울 양천구 목동남로 106-23",37.5098298,126.8703268
1982,"양천구청","향림사","관광지","서울 양천구 중앙로14나길 39-0",37.50563582,126.8663828
1983,"양천구청","갈산공원","관광지","서울 양천구",37.50724676,126.868827
1984,"양천구청","계남근린공원","관광지","서울 양천구",37.51027411,126.8554948
1985,"양천구청","갈산문화예술센터","관광지","서울 양천구 목동남로 106-0",37.51075375,126.8702265
1986,"양천구청","양천근린공원","관광지","서울 양천구 목동동로 지하 111-0",37.51807884,126.8683269
1987,"양천구청","양천해누리체육공원","관광지","서울 양천구 안양천로 711-0",37.51174626,126.8729377
1988,"양천구청","덕의근린공원","관광지","서울 구로구 중앙로15길 72-0",37.50694116,126.8561615
1989,"양천구청","계남근린공원/축구장","관광지","서울 구로구",37.50869095,126.8554949
1990,"양천구청","현준아이스링크","관광지","서울 구로구 목동남로 6-0",37.50676567,126.860888
1991,"양천구청","신선설농탕목동점","맛집","서울 양천구 목동서로 349-0",37.517406,126.8653
1992,"양평","플로렌스파티하우스오목교점","맛집","서울 영등포구 영등포로 33-0",37.523293,126.88522
1993,"양평","안양천벚꽃길","관광지","서울 영등포구",37.51698989,126.8819894
1994,"양평","양평해장국","맛집","서울 관악구 봉천로 229-0",37.48985,126.92737
1995,"어린이대공원","어린이대공원","관광지","서울 광진구 능동로 216-0",37.54977092,127.0806963
1996,"어린이대공원","원기옥","맛집","서울 성동구 아차산로17길 48-0",37.546394,127.06589
1997,"어린이대공원","어린이회관","관광지","서울 광진구 광나루로 441-0",37.54699345,127.0781688
1998,"어린이대공원","어린이회관눈썰매장","관광지","서울 광진구 광나루로 441-0",37.5460494,127.0814337
1999,"어린이대공원","광진광장공원","관광지","서울 광진구",37.54774334,127.0735859
2000,"어린이대공원","아리수나라","관광지","서울 광진구 능동로 238-0",37.55132628,127.0777521
2001,"어린이대공원","와팝홀","관광지","서울 광진구 능동로 238-0",37.55079858,127.0797797
2002,"어린이대공원","서울광나루안전체험관","관광지","서울 광진구 능동로 238-0",37.55121518,127.0770855
2003,"어린이대공원","어린이회관수영장","관광지","서울 광진구 능동로 216-0",37.54583727,127.0802301
2004,"어린이대공원","키즈오토파크","관광지","서울 광진구 능동로 216-0",37.55160403,127.0785021
2005,"어린이대공원","VIPS어린이대공원점","맛집","서울 광진구 광나루로 410-0",37.546562,127.07505
2006,"어린이대공원","보난자커피군자점","맛집","서울 광진구 능동로 239-0",37.551517,127.07615
2007,"어린이대공원","은혜즉석떡볶이","맛집","서울 광진구 광나루로 381-1",37.5481,127.07233
2008,"어린이대공원","하이난","맛집","서울 광진구 능동로 243-1",37.552067,127.07643
2009,"어린이대공원","천미향","맛집","서울 광진구 능동로 237-0",37.551327,127.0761
2010,"여의나루","애슐리퀸즈여의도한강공원점","맛집","서울 영등포구 여의동로 290-0",37.525814,126.93841
2011,"여의나루","브로트아트","맛집","서울 영등포구 국제금융로7길 3-0",37.522564,126.931206
2012,"여의나루","백리향","맛집","서울 영등포구 63로 50-0",37.519665,126.93991
2013,"여의나루","63뷔페파빌리온","맛집","서울 영등포구 63로 50-0",37.519665,126.93991
2014,"여의나루","여의도한강공원 멀티프라자","관광지","서울 영등포구 여의동로 지하 343-0",37.52807808,126.9335432
2015,"여의나루","여의도한강공원/녹음수광장","관광지","서울 영등포구",37.52493957,126.9370707
2016,"여의나루","서울밤도깨비야시장/(여의도한강공원)","관광지","서울 영등포구 여의동로 330-0",37.53182761,126.9277103
2017,"여의나루","물빛광장","관광지","서울 영등포구 여의공원로 0-0",37.5308555,126.9283769
2018,"여의나루","이랜드크루즈/여의도선착장","관광지","서울 영등포구 여의동로 290-0",37.52577282,126.9383761
2019,"여의나루","여의도한강공원","관광지","서울 영등포구 여의동로 330-0",37.53104992,126.9282936
2020,"여의나루","더현대/서울","관광지","서울 영등포구 여의대로 108-0",37.52602273,126.9282937
2021,"여의나루","파리크라상여의도점","맛집","서울 영등포구 여의나루로4길 18-0",37.52137,126.9274
2022,"여의나루","파리크라상더현대서울점","맛집","서울 영등포구 여의대로 108-0",37.525192,126.929115
2023,"여의나루","워킹온더클라우드","맛집","서울 영등포구 63로 50-0",37.519665,126.93991
2024,"여의도","흑돈가여의도직영점","맛집","서울 영등포구 여의대방로69길 23-0",37.52094,126.93009
2025,"여의도","가양칼국수버섯매운탕","맛집","서울 영등포구 국제금융로 78-0",37.520874,126.9313
2026,"여의도","해담채서여의도점","맛집","서울 영등포구 은행로 30-0",37.5282,126.92265
2027,"여의도","한암동여의도점","맛집","서울 영등포구 국제금융로2길 32-0",37.523865,126.92414
2028,"여의도","하동관국회의사당역직영점","맛집","서울 영등포구 은행로 3-0",37.52751,126.91966
2029,"여의도","CGV/여의도","관광지","서울 영등포구 국제금융로 10-0",37.52507838,126.925905
2030,"여의도","여의도백화점","관광지","서울 영등포구 국제금융로6길 33-0",37.52074555,126.9269605
2031,"여의도","IFC몰","관광지","서울 영등포구 국제금융로 10-0",37.5254769,126.9254484
2032,"여의도","타코벨여의도메리츠점","맛집","서울 영등포구 국제금융로2길 11-0",37.52417,126.92643
2033,"여의도","창고43여의도본점","맛집","서울 영등포구 국제금융로6길 33-0",37.52079,126.92691
2034,"여의도","창고43샛강점","맛집","서울 영등포구 여의대방로 376-0",37.51819,126.93136
2035,"여의도","진진2호점","맛집","서울 영등포구 국회대로72길 11-0",37.529976,126.92082
2036,"여의도","진주집","맛집","서울 영등포구 국제금융로6길 33-0",37.52079,126.92691
2037,"여의도","정인면옥","맛집","서울 영등포구 국회대로76길 10-0",37.530655,126.921555
2038,"여의도","일일향여의도점","맛집","서울 영등포구 의사당대로 83-0",37.523365,126.923454
2039,"여의도","은성회관","맛집","서울 영등포구 여의대방로65길 12-0",37.51963,126.93003
2040,"여의도","운산","맛집","서울 영등포구 여의공원로 101-0",37.52927,126.9249
2041,"여의도","올라여의도파크센터점","맛집","서울 영등포구 여의대로 8-0",37.521217,126.91859
2042,"여의도","올라여의도KBS점","맛집","서울 영등포구 의사당대로 38-0",37.52603,126.91869
2043,"여의도","오복수산여의도점","맛집","서울 영등포구 국제금융로2길 17-0",37.524063,126.92603
2044,"여의도","오발탄여의도점","맛집","서울 영등포구 여의대방로65길 20-0",37.520218,126.92951
2045,"여의도","아티제여의도점","맛집","서울 영등포구 국제금융로2길 17-0",37.524063,126.92603
2046,"여의도","아웃백스테이크하우스여의도점","맛집","서울 영등포구 국제금융로8길 6-0",37.52181,126.929695
2047,"여의도","소호정여의도점","맛집","서울 영등포구 국회대로 800-0",37.53093,126.92108
2048,"여의도","세상의모든아침","맛집","서울 영등포구 여의대로 24-0",37.52218,126.919914
2049,"여의도","사대부집곳간","맛집","서울 영등포구 여의대로 24-0",37.52218,126.919914
2050,"여의도","브루클린더버거조인트여의도점","맛집","서울 영등포구 국제금융로2길 24-0",37.524303,126.92484
2051,"여의도","모도우여의도점","맛집","서울 영등포구 국제금융로2길 32-0",37.523865,126.92414
2052,"여의도","모던눌랑여의도점 ","맛집","서울 영등포구 국제금융로8길 31-0",37.519745,126.92807
2053,"여의도","뚝심한우여의도점","맛집","서울 영등포구 국제금융로6길 26-0",37.521954,126.92697
2054,"여의도","드롭탑서여의도점","맛집","서울 영등포구 국회대로70길 7-0",37.529995,126.91991
2055,"여의도","동해도본점","맛집","서울 영등포구 은행로 25-0",37.528694,126.92139
2056,"여의도","돈블랑여의도점","맛집","서울 영등포구 여의대방로67길 11-0",37.519764,126.930244
1472,"성수","성수동카페거리","맛집","서울 성동구",37.563427,127.036934
1473,"성수","성수동대림창고갤러리","맛집","서울 성동구 성수이로 78-0",37.541637,127.05665
1474,"성수","성수다락","맛집","서울 성동구 뚝섬로9길 20-0",37.53993,127.05623
1475,"성수","문츠바베큐","맛집","서울 성동구 연무장5길 6-0",37.543633,127.05244
1476,"성수","마리오네","맛집","서울 성동구 성수이로12길 15-0",37.53974,127.05691
1477,"성수","르프리크","맛집","서울 성동구 연무장5길 9-16",37.544437,127.05266
1478,"성수","롸카두들내쉬빌핫치킨성수점","맛집","서울 성동구 성수일로4길 25-0",37.542503,127.051865
1479,"성수","로우키","맛집","서울 성동구 연무장3길 6-0",37.544197,127.05158
1480,"성수","뚝도농원","맛집","서울 성동구 아차산로 82-0",37.545135,127.05325
1481,"성수","도렐육지3호점","맛집","서울 성동구 연무장7길 11-0",37.54379,127.05442
1482,"성수","다운타우너피치스","맛집","서울 성동구 연무장3길 9-0",37.544666,127.05133
1483,"성수","꿉당성수점","맛집","서울 성동구 성수이로20길 10-0",37.54323,127.05764
1484,"성수","RSG성수","맛집","서울 성동구 연무장15길 11-0",37.54282,127.05891
1485,"성수","할아버지공장","맛집","서울 성동구 성수이로7가길 9-0",37.541176,127.05496
1486,"성수","프롤라","맛집","서울 성동구 연무장17길 5-0",37.541252,127.06094
1487,"성수","타이거풀","맛집","서울 성동구 성수이로7가길 7-0",37.54091,127.05471
1488,"성수","쿠나","맛집","서울 성동구 연무장5길 9-16",37.544437,127.05266
1489,"성수","카페온화성수점","맛집","서울 성동구 아차산로 78-0",37.54525,127.05262
1490,"성수","플라츠","관광지","서울 성동구 연무장길 33-0",37.54315895,127.0532798
1491,"성수","데어바타테","관광지","서울 성동구 성수이로 88-0",37.54270389,127.0567898
1492,"성수","성수미술관","관광지","서울 성동구 성수일로8길 39-0",37.54577122,127.0548098
1493,"성수","아파트먼트풀","관광지","서울 성동구 뚝섬로17길 35-0",37.54074872,127.0606799
1494,"성수","아남공원","관광지","서울 성동구",37.54691004,127.0647256
1495,"성수","갤러리구조","관광지","서울 성동구 뚝섬로 419-0",37.53835095,127.057345
1496,"성수","성수근린공원","관광지","서울 성동구",37.54477133,127.0524211
1497,"성수","모노하/성수","관광지","서울 성동구 성수이로20길 16-0",37.54299379,127.0583651
1498,"성수","헬로우뮤지움","관광지","서울 성동구 성수일로12길 20-0",37.54815983,127.0532266
1499,"성수","성수동수제화거리","관광지","서울 성동구",37.54443869,127.0571401
1500,"성수","무신사테라스/성수점","관광지","서울 성동구 아차산로 104-0",37.54449216,127.055382
1501,"성수","뚝도청춘시장","관광지","서울 성동구 성수이로 32-15",37.53841096,127.0537544
1502,"성수","성수연방","관광지","서울 성동구 성수이로14길 14-0",37.54152173,127.0569763
1503,"성신여대입구","HUGA","맛집","서울 은평구 진관2로 19-0",37.634853,126.919586
1504,"성신여대입구","CGV/성신여대입구","관광지","서울 성북구 동소문로 106-0",37.59259891,127.0170628
1505,"성신여대입구","태조감자국성신여대점","맛집","서울 성북구 보문로34길 43-0",37.590813,127.01769
1506,"성신여대입구","카페b","맛집","서울 성북구 보문로30길 71-0",37.590626,127.01957
1507,"성신여대입구","온달왕돈가스","맛집","서울 성북구 동소문로20가길 38-0",37.59302,127.01835
1508,"성신여대입구","오버스토리","맛집","서울 성북구 선잠로2다길 13-13",37.598724,126.99962
1509,"성신여대입구","수아당","맛집","서울 성북구 동소문로20가길 33-0",37.59307,127.01802
1510,"성신여대입구","서울노마드","맛집","서울 성북구 동소문로11길 5-0",37.591583,127.01191
1511,"성신여대입구","봉화묵집","맛집","서울 성북구 아리랑로19길 46-2",37.602715,127.01075
1512,"성신여대입구","삼선포교원","관광지","서울 성북구 동소문로26마길 40-0",37.59557081,127.0216457
1513,"성신여대입구","성북근린공원","관광지","서울 성북구",37.59576515,127.0070914
1514,"성신여대입구","여래사","관광지","서울 성북구 정릉로 57-57",37.60968008,126.9881485
1515,"성신여대입구","방생선원/돈암동분원","관광지","서울 성북구 북악산로 927-29",37.596043,127.0241732
1516,"성신여대입구","공감엠아트센터","관광지","서울 성북구 보문로40길 11-0",37.59184898,127.014063
1517,"성신여대입구","미아리고개예술극장","관광지","서울 성북구 동소문로 177-0",37.59782055,127.0214234
1518,"성신여대입구","개운산공원","관광지","서울 성북구",37.59851494,127.0254231
1519,"성신여대입구","롤퀸롤러장","관광지","서울 성북구 동소문로20나길 47-0",37.59304331,127.0191459
1520,"성신여대입구","돈암시장","관광지","서울 성북구 동소문로18길 18-0",37.59173789,127.0159518
1521,"성신여대입구","팔백집","맛집","서울 성북구 보문로30길 46-0",37.589493,127.01982
1522,"송정","국립항공박물관","관광지","서울 강서구 하늘길 177-0",37.55669631,126.8085645
1523,"송파","가락동농수산물도매시장","관광지","서울 송파구 양재대로 932-0",37.49361095,127.1127495
1524,"송파","가락수산시장","관광지","서울 송파구 양재대로 932-0",37.49280546,127.108861
1525,"송파","가락몰","관광지","서울 송파구 양재대로 932-0",37.4934721,127.1164992
1526,"송파","엄마손쇼핑센터","관광지","서울 송파구 가락로 103-0",37.50141557,127.107611
1527,"송파","송파책박물관","관광지","서울 송파구 송파대로37길 77-0",37.49894361,127.1044725
1528,"수락산","강강술래상계점","맛집","서울 노원구 동일로 1628-0",37.673843,127.05603
1529,"수락산","터줏대감","맛집","서울 노원구 동일로246길 21-0",37.678337,127.056755
1530,"수락산","평양칼국수","맛집","서울 노원구 동일로 1652-0",37.622047,127.07962
1531,"수락산","중원","맛집","서울 노원구 동일로242가길 36-0",37.677532,127.05616
1532,"수락산","용순가재골수제비","맛집","서울 노원구 동일로242길 100-0",37.67443,127.060646
1533,"수락산","벽운계곡","관광지","서울 노원구 동일로250길 44-155",37.68547915,127.065099
1534,"수락산","롯데시네마/수락산","관광지","서울 노원구 동일로 1660-0",37.67659174,127.0556682
1535,"수락산","청와정","맛집","서울 노원구 동일로 1611-0",37.67227,127.055435
1536,"수락산","비손칼국수수락산점","맛집","서울 노원구 동일로 1660-0",37.67659,127.055664
1537,"수락산","수락산먹자골목","맛집","서울 노원구 동일로230가길 0-0",37.621883,127.07242
1538,"수락산","수락이오냉면","맛집","서울 노원구 동일로237다길 7-0",37.673916,127.05258
1539,"수서","식물관PH","관광지","서울 강남구 광평로34길 24-0",37.48262211,127.0943293
1540,"수서","이마트/수서점","관광지","서울 강남구 광평로 280-0",37.48733383,127.1030838
1541,"수서","만강수서점","맛집","서울 강남구 밤고개로21길 81-0",37.47416,127.115364
1542,"수서","청국장과보리밥수서점","맛집","서울 강남구 광평로46길 5-5",37.486122,127.09933
1543,"수서","필경재","맛집","서울 강남구 광평로 205-0",37.484905,127.09511
1544,"수유","고메스퀘어수유점","맛집","서울 강북구 도봉로 308-0",37.635666,127.023834
1545,"수유","다래함박스텍","맛집","서울 강북구 수유로 20-2",37.632767,127.019035
1546,"수유","문가네정육식당수유본점","맛집","서울 강북구 한천로 1077-0",37.642315,127.02321
1547,"수유","벼랑순대국","맛집","서울 강북구 한천로 924-0",37.634304,127.037254
1548,"수유","CGV/수유","관광지","서울 강북구 도봉로 399-0",37.64239878,127.0298944
1549,"수유","롯데시네마/수유","관광지","서울 강북구 도봉로 308-0",37.63570507,127.0238395
1550,"수유","강북북부시장","관광지","서울 강북구 한천로123길 26-0",37.6362606,127.0303945
1551,"수유","번남어린이공원","관광지","서울 강북구",37.6357884,127.0249505
1552,"수유","강북롤러스케이트장","관광지","서울 강북구 도봉로 342-0",37.63803815,127.0263948
1553,"수유","리틀비틀/수유점","관광지","서울 강북구 노해로 70-0",37.64184324,127.0226729
1554,"수유","상산어린이공원","관광지","서울 강북구",37.63831588,127.0238395
1555,"수유","창동골목시장","관광지","서울 도봉구 덕릉로58길 14-0",37.63845485,127.0390325
1556,"수유","장미어린이공원","관광지","서울 도봉구",37.63817709,127.0363939
1557,"수유","물방울어린이공원","관광지","서울 도봉구",37.63756608,127.0412824
1558,"수유","산성골","맛집","서울 강북구 덕릉로 126-0",37.634758,127.02768
1559,"수유","섬진강민물장어","맛집","서울 강북구 한천로 1151-0",37.64661,127.0171
1560,"수유","소담촌수유점","맛집","서울 강북구 도봉로 388-0",37.641357,127.02963
1561,"수유","수유리먹자골목","맛집","서울 강북구",37.63975,127.025536
1562,"수유","수유리우동집본점","맛집","서울 강북구 덕릉로 98-0",37.6346,127.02459
1563,"수유","수유리조트","맛집","서울 강북구 노해로8가길 45-0",37.640095,127.023315
1564,"수유","수유손칼국수","맛집","서울 강북구 도봉로101길 45-0",37.643967,127.02836
1565,"수유","쉐이크쉑수유점","맛집","서울 강북구 도봉로 315-0",37.636932,127.023285
1566,"수유","스시노칸도수유점","맛집","서울 강북구 한천로139나길 1-0",37.63904,127.025276
1567,"수유","은행골도봉점","맛집","서울 도봉구 마들로 684-0",37.671043,127.046684
1568,"수유","진호횟집","맛집","서울 강북구 도봉로98길 33-0",37.6413,127.0315
1569,"수유","제프리카벤디쉬런던수유프리미어엠점","맛집","서울 강북구 덕릉로 76-0",37.634346,127.02216
1570,"수유","장수마늘보쌈","맛집","서울 강북구 덕릉로 192-0",37.635757,127.035095
1571,"수유","옛가","맛집","서울 강북구 노해로 91-14",37.64396,127.02197
1572,"수유","엘림들깨수제비본점","맛집","서울 강북구 삼각산로 67-0",37.639996,127.01177
1573,"수유","엔제리너스수유역점","맛집","서울 강북구 도봉로 333-0",37.63787,127.025055
1574,"숙대입구","대원정사","관광지","서울 용산구 두텁바위로60길 49-0",37.54890931,126.9835384
1575,"숙대입구","남영돈","맛집","서울 용산구 한강대로80길 17-0",37.542747,126.97378
1576,"숙대입구","초원","맛집","서울 용산구 한강대로80길 7-0",37.54276,126.97336
1577,"숙대입구","쌍대포본점","맛집","서울 용산구 청파로 291-0",37.54558,126.97001
1578,"숙대입구","한입소반숙대본점","맛집","서울 용산구 청파로45길 3-0",37.5441,126.970314
1579,"숙대입구","눕카페","맛집","서울 용산구 신흥로26길 20-0",37.545105,126.98389
1580,"숭실대입구","상도전통시장","관광지","서울 동작구 상도로37길 62-0",37.49899822,126.952014
1581,"숭실대입구","상도시장","관광지","서울 동작구 상도로37길 62-0",37.49877602,126.9520696
1582,"숭실대입구","달마사","관광지","서울 동작구 서달로 50-26",37.49870906,126.962698
1583,"숭실대입구","봉천고개","관광지","서울 관악구",37.49127692,126.9562359
1584,"시청","조선일보미술관","관광지","서울 중구 세종대로21길 33-0",37.5679444,126.9752302
1585,"시청","국립정동극장","관광지","서울 중구 정동길 43-0",37.56599985,126.9728474
1586,"시청","국립현대미술관/덕수궁관","관광지","서울 중구 세종대로 99-0",37.56593506,126.9737058
1587,"시청","SFC몰","관광지","서울 중구 세종대로 136-0",37.5684348,126.9782887
1588,"시청","덕수궁","관광지","서울 중구 세종대로 99-0",37.56587952,126.9752057
1589,"시청","서울시립미술관","관광지","서울 중구 덕수궁길 61-0",37.56414615,126.9738567
1590,"시청","진주회관","맛집","서울 중구 세종대로11길 26-0",37.562313,126.97459
1591,"시청","창고43무교점","맛집","서울 중구 무교로 21-0",37.567856,126.978745
1592,"시청","만족오향족발시청점","맛집","서울 중구 서소문로 134-7",37.56326,126.97601
1593,"시청","웨스틴 조선서울 아리아","맛집","서울 중구 소공로 106-0",37.564484,126.98019
1594,"시청","무교동북어국집","맛집","서울 중구 을지로1길 38-0",37.56775,126.97985
1595,"시청","컨퍼런스하우스달개비","맛집","서울 중구 세종대로19길 16-0",37.566723,126.97653
1596,"시청","애성회관","맛집","서울 중구 남대문로5길 23-0",37.56244,126.97892
1597,"신금호","아우프글렛","맛집","서울 성동구 독서당로51길 7-0",37.548874,127.02622
1598,"신금호","대현산배수지공원","관광지","서울 성동구 금호로 172-1",37.55729747,127.0220071
1599,"신금호","금호종합시장","관광지","서울 성동구",37.54807631,127.0225627
1600,"신길","대신시장","관광지","서울 영등포구 도신로60길 7-0",37.51116017,126.9175619
1601,"신길","영등포공원","관광지","서울 영등포구 신길로 275-0",37.51521831,126.9108231
1602,"신길","대한옥설렁탕","맛집","서울 영등포구 영등포로51길 6-0",37.519356,126.91088
1603,"신길","신길동별난아찌짬뽕","맛집","서울 영등포구 영등포로62길 10-1",37.515347,126.91652
1604,"신내","신내근린공원물놀이터","관광지","서울 중랑구",37.61420796,127.0885005
1605,"신내","신내차량기지/야구장","관광지","서울 중랑구 용마산로136길 33-0",37.61036106,127.1121002
1606,"신내","청남공원","관광지","서울 중랑구",37.62015186,127.110804
1607,"신내","착한낙지신내점","맛집","서울 중랑구 용마산로125길 108-19",37.603962,127.10181
1608,"신내","파크더블유","맛집","서울 중랑구 양원역로16길 103-111",37.607796,127.11385
1609,"신내","카페브릭","맛집","서울 중랑구 신내역로1길 127-11",37.617844,127.10862
1610,"신내","달콤제빵소","맛집","서울 중랑구 봉화산로 227-0",37.608143,127.09797
1611,"신내","신선한우촌","맛집","서울 중랑구 용마산로 707-0",37.614277,127.101166
1612,"신내","채선당신내점","맛집","서울 중랑구 용마산로 623-0",37.606728,127.10048
1613,"신내","태능가든","맛집","서울 중랑구 신내로14길 13-0",37.605835,127.09608
1614,"신내","한도니신내점","맛집","서울 중랑구 봉화산로54길 32-0",37.60638,127.09775
1615,"신내","미스터아구신내점","맛집","서울 중랑구 봉화산로 250-0",37.608154,127.10056
1616,"신내","추오정남원추어탕","맛집","서울 중랑구 용마산로125길 108-7",37.604305,127.10148
1617,"신내","장어세상","맛집","서울 중랑구 용마산로129길 4-0",37.607777,127.10062
1618,"신내","스시혼","맛집","서울 중랑구 신내로 50-0",37.60352,127.09595
1619,"신내","오늘그릴","맛집","서울 중랑구 봉화산로54길 5-0",37.60755,127.09815
1620,"신내","태릉국제스케이트장","관광지","서울 노원구 화랑로 727-0",37.63867745,127.1029712
1621,"신내","신내차량기지/축구장","관광지","서울 중랑구 용마산로136길 33-0",37.61048631,127.1109152
1622,"신답","간데메공원","관광지","서울 동대문구 서울시립대로2길 59-0",37.57326801,127.0488101
1623,"신답","채선당답십리점","맛집","서울 동대문구 사가정로 6-0",37.57016,127.049515
1624,"신당","황학동주방기구거리","관광지","서울 중구",37.56852976,127.021034
1625,"신당","누죤","관광지","서울 중구 을지로45길 62-0",37.56693518,127.0130634
1626,"신당","서울중앙시장","관광지","서울 중구 퇴계로85길 22-0",37.56746294,127.0196461
1627,"신당","아이러브신당동","맛집","서울 중구 퇴계로76길 50-0",37.56319,127.01476
1628,"신당","우정","맛집","서울 중구 퇴계로76길 55-0",37.56279,127.014915
1629,"신당","하니칼국수","맛집","서울 중구 퇴계로 411-15",37.566174,127.01717
1630,"신당","원할머니보쌈족발본점","맛집","서울 중구 난계로 201-0",37.56963,127.02321
1631,"신당","땡초곱창","맛집","서울 중구 퇴계로87길 54-0",37.567997,127.02106
1632,"신당","동대문매운김밥","맛집","서울 중구 다산로 255-0",37.565834,127.01591
1633,"신당","충무아트센터","관광지","서울 중구 퇴계로 387-0",37.56601863,127.014841
1634,"신당","APM럭스카페","맛집","서울 중구 퇴계로73길 51-0",37.56737,127.01359
1635,"신당","마복림할머니막내아들네","맛집","서울 중구 다산로 221-0",37.562923,127.01509
1636,"신당","마복림떡볶이","맛집","서울 중구 다산로35길 5-0",37.56321,127.0151
1637,"신당","청평화시장","관광지","서울 중구 청계천로 334-0",37.56949046,127.0149521
1638,"신대방","신림중앙시장","관광지","서울 관악구 조원로16길 27-0",37.48309495,126.9113926
1639,"신대방","등나무집","맛집","서울 동작구 대림로 52-0",37.488167,126.90795
1640,"신대방","설빙보라매점","맛집","서울 동작구 보라매로3길 29-0",37.49121,126.92499
1641,"신대방","우성쇼핑센터","관광지","서울 동작구 여의대방로 22-0",37.49347083,126.9109344
1642,"신대방","장안사","관광지","서울 동작구 신대방2나길 21-2",37.4896935,126.9124899
1643,"신대방","관악신사시장","관광지","서울 관악구 난곡로74길 58-0",37.48630503,126.9168229
1644,"신대방","호림박물관","관광지","서울 관악구 남부순환로152길 53-0",37.48088899,126.9181839
1645,"신대방","온정돈까스본점","맛집","서울 관악구 조원로 60-0",37.483547,126.909096
1646,"신대방","청보리한우화로구이","맛집","서울 관악구 남부순환로 1453-0",37.481724,126.912186
1647,"신대방","낙지세상신대방본점","맛집","서울 동작구 대림로 57-0",37.4882,126.90711
1648,"신대방","삼거리먼지막순대국","맛집","서울 영등포구 시흥대로185길 11-0",37.49172,126.90724
1649,"신대방","신도세기보라매점","맛집","서울 동작구 보라매로5길 43-0",37.491432,126.923416
1650,"신대방삼거리","성대전통시장","관광지","서울 동작구 상도로 102-0",37.49995891,126.9322778
1651,"신대방삼거리","도화공원","관광지","서울 동작구 성대로17길 지하 52-0",37.4998869,126.9352933
1652,"신대방삼거리","미분당신대방삼거리점","맛집","서울 동작구 보라매로19길 25-0",37.497784,126.92632
1653,"신대방삼거리","히어로낚시카페/대방점","관광지","서울 동작구 상도로 45-0",37.49999794,126.9256275
1654,"신대방삼거리","보문사","관광지","서울 동작구 성대로16길 90-0",37.49497083,126.9394318
1655,"신대방삼거리","상도면옥","맛집","서울 동작구 성대로1길 3-0",37.500465,126.93259
1656,"신대방삼거리","시간을들이다본점","맛집","서울 동작구 국사봉5길 4-0",37.497623,126.93044
1657,"신대방삼거리","신온누리에생돈까스대방점","맛집","서울 동작구 여의대방로24길 107-0",37.499187,126.92594
1658,"신대방삼거리","어촌식당","맛집","서울 동작구 상도로 122-0",37.50131,126.93387
1659,"신대방삼거리","빙수골마을공원","관광지","서울 동작구",37.49669281,126.9322658
1660,"신대방삼거리","일진아구찜","맛집","서울 동작구 여의대방로24길 93-0",37.498955,126.925186
1661,"신도림","폰트문래점","맛집","서울 영등포구 경인로77가길 6-0",37.512253,126.89257
1662,"신도림","일심해장국","맛집","서울 영등포구 도신로 55-0",37.505814,126.89866
1663,"신도림","한라산도새기오류점","맛집","서울 구로구 서해안로 2318-0",37.492527,126.842514
1664,"신도림","팔각도신도림역점","맛집","서울 구로구 경인로 643-0",37.50885,126.88555
1665,"신도림","컴포신도림점","맛집","서울 구로구 경인로67길 57-0",37.511845,126.88772
1666,"신도림","제주은희네해장국신도림점","맛집","서울 구로구 공원로6나길 44-0",37.504433,126.89225
1667,"신도림","이춘복참치신도림디큐브시티점","맛집","서울 구로구 경인로 662-0",37.50812,126.888214
1668,"신도림","우월소곱창신도림본점","맛집","서울 구로구 경인로 631-0",37.50737,126.88539
1669,"신도림","신도림참족발신도림점","맛집","서울 구로구 경인로 661-0",37.50905,126.886986
1670,"신도림","신도림전주관","맛집","서울 구로구 새말로 97-0",37.507046,126.89023
1671,"신도림","새벽집 양곱창","맛집","서울 구로구 경인로61길 21-0",37.50772,126.88415
1672,"신도림","사월에쭈꾸미 현대백화점 디큐브시티","맛집","서울 구로구 경인로 662-0",37.50812,126.888214
1673,"신도림","봉고기신도림본점","맛집","서울 구로구 경인로 619-3",37.506886,126.88403
1674,"신도림","라무진신도림역점","맛집","서울 구로구 경인로67길 23-0",37.510708,126.88923
1675,"신도림","경복궁디큐브점","맛집","서울 구로구 경인로 662-0",37.50812,126.888214
1676,"신도림","강촌숯불닭갈비본점","맛집","서울 구로구 공원로6나길 35-2",37.504433,126.891716
1677,"신도림","문래근린공원","관광지","서울 영등포구",37.51707911,126.8940191
1678,"신도림","그린아트홀","관광지","서울 구로구 경인로 661-0",37.50941329,126.8877419
1679,"신도림","신도림오페라하우스","관광지","서울 구로구",37.50816345,126.890825
1680,"신도림","삼각어린이공원","관광지","서울 구로구",37.50138647,126.8920194
1681,"신도림","신도림테크노근린공원","관광지","서울 구로구",37.50796903,126.8911305
1682,"신도림","현대백화점 유플렉스/디큐브시티점","관광지","서울 구로구 경인로 662-0",37.50894113,126.8895751
1683,"신도림","디큐브아트센터","관광지","서울 구로구 경인로 662-0",37.50894113,126.8895473
1684,"신도림","씨네큐/신도림점","관광지","서울 구로구 새말로 97-0",37.50705247,126.8904362
1685,"신도림","롯데시네마/신도림","관광지","서울 구로구 경인로 662-0",37.50883003,126.889464
1686,"신도림","홈플러스/신도림점","관광지","서울 구로구 경인로 661-0",37.50978309,126.8884401
1687,"신도림","이마트/신도림점","관광지","서울 구로구 새말로 97-0",37.50674695,126.8903528
1688,"신도림","현대백화점/디큐브시티점","관광지","서울 구로구 경인로 662-0",37.50869116,126.8892418
1689,"신림","황제갈비","맛집","서울 관악구 남부순환로 1644-0",37.484367,126.933304
1690,"신림","타임스트림","관광지","서울 관악구 신림로 330-0",37.48388872,126.9302661
1691,"신림","정담은보쌈신림점","맛집","서울 관악구 남부순환로 1661-0",37.485218,126.935394
1692,"신림","월화고기보라매점","맛집","서울 관악구 보라매로3길 16-0",37.491627,126.9263
1693,"신림","옛날농장신림점","맛집","서울 관악구 봉천로 262-0",37.48807,126.93015
2274,"우장산","우장산인조잔디구장","관광지","서울 강서구 우장산로10길 112-0",37.55049161,126.8451621
2275,"우장산","초가집부뚜막청국장","맛집","서울 구로구 구로중앙로28길 24-0",37.499195,126.88741
2276,"우장산","우장산공원","관광지","서울 강서구",37.55435228,126.8450509
2277,"우장산","송화벽화시장","관광지","서울 강서구 강서로45나길 16-0",37.5493528,126.8356352
2278,"월계","초안산도자기체험장","관광지","서울 노원구 덕릉로60타길 49-0",37.63502063,127.0451378
2279,"월계","바운스트램폴린파크/월계이마트센터","관광지","서울 노원구 마들로3길 15-0",37.62651193,127.0620028
2280,"월계","이마트트레이더스/월계점","관광지","서울 노원구 마들로3길 17-0",37.62778956,127.0613917
2281,"월계","이마트/월계점","관광지","서울 노원구 마들로3길 15-0",37.62645638,127.0620306
2282,"월곡","장원산꽃게월곡동본점","맛집","서울 성북구 오패산로 13-0",37.603443,127.037155
2283,"월곡","장위동유성집본점","맛집","서울 성북구 화랑로 118-0",37.604053,127.04472
2284,"월곡","탑주심인당","관광지","서울 성북구 화랑로13길 17-0",37.6045699,127.0413938
2285,"월곡","홈플러스/월곡점","관광지","서울 성북구 화랑로 76-0",37.60179243,127.0403383
2286,"월곡","대한불교진각종","관광지","서울 성북구 화랑로13길 17-0",37.60470877,127.0412271
2287,"월드컵경기장","다농마트","관광지","서울 마포구 월드컵로 235-0",37.56529578,126.8986015
2288,"월드컵경기장","문화비축기지","관광지","서울 마포구 증산로 87-0",37.57098954,126.8940186
2289,"월드컵경기장","메가박스/상암월드컵경기장","관광지","서울 마포구 월드컵로 240-0",37.56926754,126.8976849
2290,"월드컵경기장","마포농수산물시장","관광지","서울 마포구 월드컵로 235-0",37.56524023,126.8985182
2291,"월드컵경기장","평화광장","관광지","서울 마포구",37.56515689,126.8961851
2292,"월드컵경기장","하늘공원","관광지","서울 마포구 하늘공원로 95-0",37.56740657,126.8854638
2293,"월드컵경기장","홈플러스/월드컵점","관광지","서울 마포구 월드컵로 240-0",37.56771217,126.8982682
2294,"월드컵경기장","보조경기장/서울월드컵경기장","관광지","서울 마포구",37.57148951,126.8982959
2295,"월드컵경기장","마포농수산물시장상인번영회","관광지","서울 마포구 월드컵로 235-0",37.56515691,126.8984904
2296,"월드컵경기장","서울월드컵경기장","관광지","서울 마포구 월드컵로 240-0",37.56826765,126.8972683
2297,"을지로3가","안동장","맛집","서울 중구 을지로 124-0",37.566113,126.99158
2298,"을지로3가","평래옥","맛집","서울 중구 마른내로 21-1",37.56491,126.99039
2299,"을지로3가","조선옥","맛집","서울 중구 을지로15길 8-0",37.56681,126.993484
2300,"을지로3가","청와옥을지로3가직영점","맛집","서울 중구 을지로 110-0",37.56602,126.99005
2301,"을지로3가","대련집","맛집","서울 종로구 종로16길 37-0",37.56843,126.98909
2302,"을지로3가","명보아트홀","관광지","서울 중구 마른내로 47-0",37.5647131,126.9932319
2303,"을지로3가","창고43명동점","맛집","서울 중구 을지로 100-0",37.565647,126.988144
2304,"을지로3가","아티제대신파이낸스센터점","맛집","서울 중구 삼일대로 343-0",37.5651,126.98696
2305,"을지로3가","이남장을지로본점","맛집","서울 중구 삼일대로12길 16-0",37.566647,126.988655
2306,"을지로4가","산수갑산","맛집","서울 중구 을지로20길 24-0",37.56541,126.99532
2307,"을지로4가","은주정","맛집","서울 중구 창경궁로8길 32-0",37.568684,126.999756
2308,"을지로4가","방산종합시장","관광지","서울 중구 동호로37길 20-0",37.56876823,127.0008145
2309,"을지로4가","중부시장","관광지","서울 중구 을지로32길 34-0",37.56565748,127.0008423
2310,"을지로4가","우래옥본점","맛집","서울 중구 창경궁로 62-29",37.56822,126.99872
2311,"을지로입구","롯데백화점/에비뉴엘본점","관광지","서울 중구 남대문로 73-0",37.56421308,126.9816218
2312,"을지로입구","라세느롯데호텔서울","맛집","서울 중구 을지로 30-0",37.565346,126.98101
2313,"을지로입구","롯데면세점/본점","관광지","서울 중구 남대문로 81-0",37.5647408,126.9816496
2314,"을지로입구","롯데백화점/본점","관광지","서울 중구 남대문로 81-0",37.5647408,126.9817607
2315,"을지로입구","몽중헌페럼타워점","맛집","서울 중구 을지로5길 19-0",37.56694,126.98414
2316,"을지로입구","하동관명동본점","맛집","서울 중구 명동9길 12-0",37.563477,126.98798
2317,"을지로입구","뱅커스 클럽 바이 반얀트리","맛집","서울 중구 명동11길 19-0",37.56502,126.98546
2318,"을지로입구","아웃백스테이크하우스명동점","맛집","서울 중구 명동3길 36-0",37.565346,126.983734
2319,"을지로입구","부민옥","맛집","서울 중구 다동길 24-12",37.56753,126.98018
2320,"을지로입구","딘타이펑명동중앙점","맛집","서울 중구 명동7길 13-0",37.564354,126.98397
2321,"을지로입구","하이디라오명동점","맛집","서울 중구 명동3길 36-0",37.565346,126.983734
2322,"을지로입구","크리스탈제이드소공점","맛집","서울 중구 남대문로7길 16-0",37.564167,126.98116
2323,"을지로입구","CGV/명동","관광지","서울 중구 명동길 14-0",37.56346318,126.9829272
2324,"을지로입구","롯데시네마/에비뉴엘","관광지","서울 중구 남대문로 73-0",37.56429641,126.9815663
2325,"을지로입구","남포면옥","맛집","서울 중구 을지로3길 24-0",37.567146,126.981674
2326,"을지로입구","롯데영플라자/명동점","관광지","서울 중구 남대문로 67-0",37.56354649,126.9815385
2327,"응암","참다래공원","관광지","서울 은평구",37.59540352,126.9173495
2328,"응암","삼부마켓","관광지","서울 은평구 증산로21길 11-0",37.59568124,126.9134332
2329,"응암","새락골어린이공원","관광지","서울 은평구 은평로3가길 34-0",37.5989604,126.9111956
2330,"응암","우다움82","맛집","서울 용산구 한강대로40길 26-0",37.53005,126.97063
2331,"응암","이마트/은평점","관광지","서울 은평구 은평로 111-0",37.60034741,126.920127
2332,"응암","보들이쭈꾸미","맛집","서울 은평구 은평로 46-0",37.598305,126.91309
2333,"응암","모이세해장국","맛집","서울 은평구 연서로 60-0",37.60442,126.9159
2334,"응암","응암시장","관광지","서울 은평구 응암로 252-0",37.59429255,126.9185994
2335,"이대","SICTAC이대하늬솔점","맛집","서울 서대문구 성산로 527-0",37.563774,126.94409
2336,"이대","가미분식","맛집","서울 서대문구 이화여대8길 2-0",37.558655,126.94592
2337,"이대","아트하우스모모","관광지","서울 서대문구 이화여대길 52-0",37.56140764,126.9470694
2338,"이대","필름포럼","관광지","서울 서대문구 성산로 527-0",37.56379623,126.9441252
2339,"이대","자연사박물관","관광지","서울 서대문구 이화여대길 52-0",37.56054663,126.948236
2340,"이대","김옥길기념관","관광지","서울 서대문구 연대동문길 47-6",37.56476834,126.9444585
2341,"이수","낙성곱창","맛집","서울 동작구 동작대로19길 60-0",37.48362,126.97836
2342,"이수","이마트/이수점","관광지","서울 동작구 사당로 300-0",37.48450007,126.9804005
2343,"이수","메가박스/이수","관광지","서울 동작구 동작대로 89-0",37.48457851,126.9816296
2344,"이수","아트나인","관광지","서울 동작구 동작대로 89-0",37.48463895,126.9816504
2345,"이수","메가박스/아트나인","관광지","서울 동작구 동작대로 89-0",37.48473521,126.9816633
2346,"이수","뮤직앤아트스튜디오","관광지","서울 동작구 사당로 300-0",37.48447229,126.9805116
2347,"이수","세녹","맛집","서울 동작구 사당로 304-0",37.484924,126.981346
2348,"이수","스시로로","맛집","서울 동작구 동작대로23길 29-0",37.48409,126.9801
2349,"이수","37.5동작이수점","맛집","서울 동작구 동작대로27가길 23-0",37.486538,126.98135
2350,"이수","단아한정식","맛집","서울 동작구 동작대로27가길 44-0",37.485657,126.98081
2351,"이수","방배김밥","맛집","서울 동작구 동작대로27길 59-16",37.488125,126.9784
2352,"이수","팔각도이수역점","맛집","서울 동작구 동작대로27다길 12-0",37.487022,126.98035
2353,"이수","청와옥사당직영점","맛집","서울 동작구 동작대로 71-0",37.482857,126.98155
2354,"이수","남부종합시장","관광지","서울 서초구 방배중앙로27길 17-0",37.49499888,126.9847055
2355,"이수","애플하우스이수점","맛집","서울 동작구 동작대로27다길 29-0",37.486286,126.98066
2356,"이수","쟝블랑제리이수직영점","맛집","서울 동작구 동작대로23길 8-0",37.484375,126.98132
2357,"이촌","국립중앙박물관","관광지","서울 용산구 서빙고로 137-0",37.5239955,126.9803168
2358,"이촌","용산가족공원","관광지","서울 용산구 서빙고로 137-0",37.52157914,126.9839831
2359,"이촌","이촌한강공원","관광지","서울 용산구 이촌로72길 62-0",37.5159964,126.975845
2360,"이촌","국립한글박물관","관광지","서울 용산구 서빙고로 139-0",37.52110695,126.9809001
2361,"이촌","국립중앙박물관/어린이박물관","관광지","서울 용산구 서빙고로 137-0",37.52393995,126.9789835
2362,"이촌","국립중앙박물관/극장용","관광지","서울 용산구 서빙고로 137-0",37.52418992,126.9787058
2363,"이촌","한강쇼핑센터","관광지","서울 용산구 이촌로 224-0",37.52024588,126.9718453
2364,"이촌","이촌한강공원안내센터","관광지","서울 용산구",37.51782949,126.9708177
2365,"이촌","한강세븐수상레저","관광지","서울 용산구",37.51970441,126.9625217
2366,"이촌","거북선나루터","관광지","서울 용산구",37.51694069,126.9690123
2367,"이촌","이촌종합시장","관광지","서울 용산구 이촌로77길 19-0",37.520357,126.9750117
2368,"이촌","이촌한강공원/인라인스케이트장","관광지","서울 용산구",37.51649633,126.9731786
2369,"이촌","동빙고","맛집","서울 용산구 이촌로 319-0",37.517963,126.98233
2370,"이촌","이촌동면옥이촌직영점","맛집","서울 용산구 이촌로54길 17-0",37.520588,126.96757
2371,"이촌","차이옌","맛집","서울 용산구 이촌로88길 8-0",37.518253,126.97776
2372,"이촌","파리크라상이촌점","맛집","서울 용산구 이촌로 245-0",37.519947,126.97443
2373,"이촌","갯마을한강로점","맛집","서울 용산구 서빙고로 56-0",37.523037,126.97034
2374,"이태원","가나아트/보광","관광지","서울 용산구 보광로 42-0",37.52815623,126.9994909
2375,"이태원","보광시장","관광지","서울 용산구 보광로 30-0",37.52713415,127.0002871
2376,"이태원","파운드리/서울","관광지","서울 용산구 이태원로 223-0",37.53546651,126.9985372
2377,"이태원","리만머핀","관광지","서울 용산구 이태원로 213-0",37.53495225,126.9976043
2378,"이태원","코끼리베이글한남점","맛집","서울 용산구 서빙고로91길 10-0",37.52438,127.001595
2379,"이태원","바토스이태원점","맛집","서울 용산구 이태원로15길 1-0",37.53462,126.99019
2380,"이태원","이태원앤틱가구거리","관광지","서울 용산구",37.53144001,126.9945093
2381,"이태원","챔프커피2작업실","맛집","서울 용산구 녹사평대로26가길 24-0",37.532497,126.99283
2382,"이태원","제주식당","맛집","서울 용산구 대사관로 48-0",37.533356,127.00355
2383,"이태원","오아시스한남점","맛집","서울 용산구 이태원로45길 30-0",37.536606,126.99797
2384,"이태원","카페노티드한남","맛집","서울 용산구 대사관로5길 12-0",37.534843,127.000854
2385,"이태원","돈까스잔치동빙고점","맛집","서울 용산구 서빙고로 297-0",37.52125,126.996414
2386,"이태원","다운타우너한남","맛집","서울 용산구 대사관로5길 12-0",37.534843,127.000854
2387,"일원","통나무집강남점","맛집","서울 서초구 헌인릉길 9-0",37.46187,127.08176
2388,"잠실","애슐리퀸즈잠실롯데캐슬점","맛집","서울 송파구 올림픽로 269-0",37.514427,127.10061
2389,"잠실","아그라잠실롯데에비뉴엘점","맛집","서울 송파구 올림픽로 300-0",37.513752,127.10445
2390,"잠실","롯데콘서트홀","관광지","서울 송파구 올림픽로 300-0",37.51385856,127.1043612
2391,"잠실","롯데면세점/월드타워점","관광지","서울 송파구 올림픽로 300-0",37.51277533,127.1018337
2392,"잠실","롯데월드아이스링크","관광지","서울 송파구 올림픽로 240-0",37.51066444,127.0979729
2393,"잠실","롯데월드어드벤쳐","관광지","서울 송파구 올림픽로 240-0",37.51127548,127.0979174
2394,"잠실","서울놀이마당","관광지","서울 송파구 삼학사로 136-0",37.50952568,127.0979452
2395,"잠실","석촌호수/동호","관광지","서울 송파구 송파나루길 166-0",37.5110811,127.1049167
2396,"잠실","송파나루공원/동호","관광지","서울 송파구 송파나루길 166-0",37.51138662,127.1051667
2397,"잠실","롯데월드몰","관광지","서울 송파구 올림픽로 300-0",37.51385856,127.1045001
2398,"잠실","롯데백화점/잠실점","관광지","서울 송파구 올림픽로 240-0",37.5122476,127.0994728
2399,"잠실","롯데월드/잠실점","관광지","서울 송파구 올림픽로 240-0",37.51108106,127.0981673
2400,"잠실","롯데월드아쿠아리움","관광지","서울 송파구 올림픽로 300-0",37.51360858,127.1035557
2401,"잠실","롯데백화점/에비뉴엘월드타워점","관광지","서울 송파구 올림픽로 300-0",37.51294198,127.1015837
2402,"잠실","롯데시네마/월드타워","관광지","서울 송파구 올림픽로 300-0",37.513803,127.1040557
2403,"잠실","롯데마트/제타플렉스점","관광지","서울 송파구 올림픽로 240-0",37.51163654,127.0963342
2404,"잠실","석촌호수/동호","관광지","서울 송파구 잠실로 124-0",37.5110811,127.1049167
2405,"잠실","서울스카이","관광지","서울 송파구 올림픽로 300-0",37.51258582,127.1025813
2406,"잠실","샤롯데씨어터","관광지","서울 송파구 올림픽로 240-0",37.51074778,127.0998616
2407,"잠실","홈플러스/잠실점","관광지","서울 송파구 올림픽로35가길 16-0",37.51627493,127.1029724
2408,"잠실","송파나루공원/동호","관광지","서울 송파구 잠실로 124-0",37.51138662,127.1051667
2409,"잠실","롯데마트/월드타워점","관광지","서울 송파구 올림픽로 300-0",37.51374745,127.1039446
2410,"잠실","키자니아/서울점","관광지","서울 송파구 올림픽로 240-0",37.51092655,127.096933
2411,"잠실","고든램지버거","맛집","서울 송파구 올림픽로 300-0",37.513752,127.10445
2412,"잠실","등촌샤브칼국수방이본점","맛집","서울 송파구 올림픽로30길 10-0",37.514843,127.10793
2413,"잠실","라세느롯데호텔월드","맛집","서울 송파구 올림픽로 240-0",37.51131,127.098145
2414,"잠실","모던눌랑라이브잠실점","맛집","서울 송파구 잠실로 209-0",37.51387,127.10636
2415,"잠실","바이킹스워프롯데월드몰점","맛집","서울 송파구 올림픽로 300-0",37.513752,127.10445
2416,"잠실","삿뽀로방이점","맛집","서울 송파구 오금로11길 7-0",37.514553,127.10796
2417,"잠실새내","돈까스의집","맛집","서울 송파구 삼전로 100-0",37.50696,127.09068
2418,"잠실새내","새마을시장","관광지","서울 송파구 석촌호수로12길 7-0",37.50894233,127.0846964
2419,"잠실새내","잠실유람선터미널","관광지","서울 송파구 올림픽로 99-0",37.51830234,127.0816688
2420,"잠실새내","잠실한강공원","관광지","서울 송파구 한가람로 65-0",37.51771908,127.0820021
2421,"잠실새내","늘푸른목장잠실본점","맛집","서울 송파구 백제고분로9길 34-0",37.509586,127.08265
2422,"잠실새내","담은갈비","맛집","서울 송파구 삼전로 93-0",37.50685,127.08959
2423,"잠원","메리모나크","관광지","서울 서초구",37.51922932,127.0079128
2424,"잠원","신사쇼핑센터","관광지","서울 서초구 나루터로 37-0",37.51544115,127.0141749
2425,"잠원","채빛퀴진","맛집","서울 서초구 올림픽대로 2085-14",37.512436,126.995964
2426,"잠원","이솔라","맛집","서울 서초구 올림픽대로 2085-14",37.512436,126.995964
2427,"장승배기","아기솜사탕키즈카페","관광지","서울 동작구 상도로 207-0",37.50544186,126.941876
2428,"장승배기","백로어린이공원","관광지","서울 동작구 장승배기로19라길 51-0",37.50674722,126.935571
2429,"장승배기","약수암","관광지","서울 동작구 양녕로 153-9",37.49483197,126.9414317
2430,"장승배기","상도어울마당","관광지","서울 동작구 성대로 180-0",37.49919257,126.9403206
2431,"장승배기","동작청소년문화의집","관광지","서울 동작구 상도로15바길 5-0",37.50410862,126.9333212
2432,"장승배기","세종대왕숯불갈비보라매점","맛집","서울 동작구 여의대방로 136-0",37.49921,126.920685
2433,"장승배기","천외천","맛집","서울 동작구 만양로 19-0",37.507072,126.94572
2434,"장승배기","늘보리","맛집","서울 동작구 상도로26길 19-0",37.504143,126.938675
2435,"장승배기","농실가","맛집","서울 동작구 상도로 142-0",37.502445,126.93545
2436,"장승배기","낙지한마리수제비상도본점","맛집","서울 동작구 상도로31길 19-0",37.506237,126.94454
2437,"장지","래미안갤러리","관광지","서울 송파구 충민로 17-0",37.47922377,127.1202212
2438,"장지","가든파이브툴","관광지","서울 송파구 충민로 10-0",37.47843282,127.119084
2439,"장지","CGV/송파","관광지","서울 송파구 충민로 66-0",37.47711294,127.1259152
2440,"장지","현대시티몰/가든파이브점","관광지","서울 송파구 충민로 66-0",37.47791968,127.1244388
2441,"장지","이마트/가든파이브점","관광지","서울 송파구 충민로 10-0",37.47827943,127.1193602
2442,"장지","가든파이브라이프","관광지","서울 송파구 충민로 66-0",37.47739067,127.1243598
2443,"장지","NC백화점/송파점","관광지","서울 송파구 충민로 66-0",37.47716848,127.1259152
2444,"장지","쿠우쿠우송파하비오점","맛집","서울 송파구 송파대로 111-0",37.479668,127.124916
2445,"장지","수원집","맛집","서울 송파구 송파대로 108-0",37.48048,127.125786
2446,"장지","파크하비오워터킹덤","관광지","서울 송파구 송파대로 111-0",37.48044587,127.1241931
2447,"장지","메가박스/송파파크하비오","관광지","서울 송파구 송파대로 111-0",37.48200125,127.1236098
2448,"장지","가든파이브웍스","관광지","서울 송파구 충민로 52-0",37.47786283,127.1228043
2449,"장지","채선당플러스위례신도시점","맛집","서울 송파구 위례광장로 199-0",37.4817,127.142784
2450,"장한평","장안정본점","맛집","서울 동대문구 답십리로 291-3",37.572723,127.07263
2451,"장한평","중랑물재생센터/축구장","관광지","서울 성동구 자동차시장3길 64-0",37.55663112,127.0619202
2452,"장한평","서울하수도과학관","관광지","서울 성동구 자동차시장3길 64-0",37.55796428,127.0579205
2453,"장한평","서울새활용플라자","관광지","서울 성동구 자동차시장길 49-0",37.55857532,127.0576983
2454,"장한평","더오페라","관광지","서울 동대문구 장한로2길 36-0",37.56175485,127.0670909
2455,"장한평","미나리공원","관광지","서울 동대문구 천호대로87길 43-0",37.56371368,127.068114
2456,"장한평","장평공원","관광지","서울 동대문구 장안벚꽃로 77-0",37.56754661,127.074169
2457,"장한평","경륜경정/장안지점","관광지","서울 동대문구 장한로2길 33-0",37.56221385,127.0671696
2458,"장한평","장안온천","관광지","서울 동대문구 장안벚꽃로 107-0",37.57099065,127.0743356
2459,"장한평","장안설렁탕","맛집","서울 동대문구 천호대로89길 3-0",37.56212,127.067955
2460,"장한평","일심해장국본점","맛집","서울 동대문구 장한로 179-0",37.576473,127.07175
2461,"장한평","일번지정육식당","맛집","서울 동대문구 장한로 18-0",37.562775,127.06588
2462,"장한평","일미간장게장본점","맛집","서울 동대문구 장한로24길 7-0",37.570896,127.0715
2463,"장한평","원골전통순대국","맛집","서울 동대문구 사가정로 232-0",37.57848,127.0708
2464,"장한평","영동교집장안직영점","맛집","서울 동대문구 천호대로83길 32-0",37.563488,127.06528
2465,"장한평","송학수산","맛집","서울 동대문구 장한로26길 67-0",37.571556,127.07508
2466,"장한평","속초명가장안점","맛집","서울 동대문구 한천로 42-0",37.56595,127.06173
2467,"장한평","선진국낙지마당","맛집","서울 동대문구 장한로 149-1",37.57385,127.071495
2468,"장한평","서산간장게장","맛집","서울 동대문구 장한로24길 7-0",37.570896,127.0715
2469,"장한평","부부횟집","맛집","서울 동대문구 장한로 198-0",37.57808,127.07246
2470,"장한평","명륜진사갈비장안점","맛집","서울 동대문구 답십리로 240-0",37.572502,127.066864
2471,"장한평","먹깨비간장게장해물아구찜","맛집","서울 동대문구 장한로 92-0",37.56881,127.06985
2472,"장한평","대한닭발1979본점","맛집","서울 동대문구 장한로 116-0",37.570732,127.07106
2473,"장한평","대한곱창장안점","맛집","서울 동대문구 천호대로85길 21-0",37.562984,127.06629
2474,"장한평","흥부골숯불갈비장안2호점","맛집","서울 동대문구 장한로 149-0",37.573708,127.07148
2475,"장한평","행운돈까스","맛집","서울 동대문구 장한로 173-0",37.575916,127.07173
2476,"장한평","한우천국장안점","맛집","서울 동대문구 장한로 96-0",37.569046,127.07011
2477,"장한평","진미기사식당","맛집","서울 동대문구 장한로 64-0",37.566635,127.06839
2478,"장한평","지호한방삼계탕장안점","맛집","서울 동대문구 장한로 161-0",37.57486,127.07166
2479,"장한평","제주은희네해장국장안점","맛집","서울 동대문구 장한로 43-0",37.565105,127.06671
2480,"장한평","정대감감자탕","맛집","서울 동대문구 천호대로83길 46-0",37.56409,127.06564
2481,"제기동","불로장생타워","관광지","서울 동대문구 왕산로 117-0",37.57840623,127.0365056
2482,"제기동","나정순할매주꾸미","맛집","서울 동대문구 무학로 144-0",37.57708,127.03069
2483,"제기동","서울경동약령시장","관광지","서울 동대문구 약령중앙로 10-0",37.58144667,127.0377552
2484,"제기동","경동시장","관광지","서울 동대문구 고산자로36길 3-0",37.57940612,127.0388387
2485,"제기동","한의약박물관","관광지","서울 동대문구 약령중앙로 26-0",37.5806282,127.0376166
2486,"제기동","법화정사","관광지","서울 동대문구 왕산로19다길 8-0",37.5789617,127.0333948
2487,"제기동","경동민물","관광지","서울 동대문구 고산자로 458-0",37.58032268,127.0386998
2488,"제기동","선농단","관광지","서울 동대문구 무학로44길 38-0",37.58098923,127.0320615
2489,"제기동","용두시장","관광지","서울 동대문구 한빛로 62-1",37.57846173,127.029534
2490,"제기동","한솔동의보감","관광지","서울 동대문구 왕산로 109-0",37.57857287,127.0355335
2491,"제기동","선농단역사문화관","관광지","서울 동대문구 무학로44길 38-0",37.58119198,127.0318928
2492,"제기동","함경면옥","맛집","서울 동대문구 왕산로 87-0",37.578506,127.03317
2493,"제기동","용두동쭈꾸미본점","맛집","서울 동대문구 무학로36길 10-0",37.5772,127.03107
2494,"제기동","용두동임오네쭈꾸미1호점본점","맛집","서울 동대문구 무학로36길 6-0",37.577156,127.03095
2495,"제기동","용두동복집","맛집","서울 동대문구 왕산로16길 9-0",37.577457,127.03132
2496,"제기동","소담촌용두점","맛집","서울 동대문구 왕산로 60-1",37.577286,127.03014
2497,"제기동","마루샤브용두직영점","맛집","서울 동대문구 왕산로 61-0",37.578022,127.03004
2498,"제기동","나정순할매쭈꾸미2호점","맛집","서울 동대문구 약령시로 65-0",37.58301,127.03708
2499,"제기동","서울한방진흥센터","관광지","서울 동대문구 약령중앙로 26-0",37.58057265,127.0376166
2500,"종각","갓덴스시종로점","맛집","서울 종로구 종로12길 14-0",37.569447,126.98559
2501,"종각","이문설농탕","맛집","서울 종로구 우정국로 38-13",37.57276,126.983894
2502,"종각","진진수라광화문점","맛집","서울 종로구 종로5길 7-0",37.570618,126.98056
2503,"종각","경복궁관훈점","맛집","서울 종로구 인사동5길 38-0",37.572586,126.98421
2504,"종각","쉐이크쉑종각점","맛집","서울 종로구 종로 33-0",37.57033,127.004776
2505,"종각","갤러리라메르","관광지","서울 종로구 인사동5길 26-0",37.5726288,126.984927
2506,"종각","마이클바이해비치","맛집","서울 종로구 우정국로 26-0",37.571495,126.98366
2507,"종각","서린낙지","맛집","서울 종로구 종로 19-0",37.570007,127.00284
2508,"종각","애슐리퀸즈종각역점","맛집","서울 종로구 종로 51-0",37.57506,127.01749
2509,"종각","삿뽀로관훈점","맛집","서울 종로구 인사동5길 38-0",37.572586,126.98421
2510,"종각","광화문미진본점","맛집","서울 종로구 종로 19-0",37.570007,127.00284
2511,"종로3가","탑골공원","관광지","서울 종로구 종로 99-0",37.57118454,126.9883433
2512,"종로3가","종로귀금속거리","관광지","서울 종로구",37.57149009,126.9930096
2513,"종로3가","CGV/피카디리1958","관광지","서울 종로구 돈화문로5가길 1-0",37.57107346,126.9912042
2514,"종로3가","와겐커피","맛집","서울 강북구 솔매로 131-0",37.626507,127.02669
2515,"종로3가","온천집","맛집","서울 종로구 돈화문로11나길 31-8",37.5741,126.9898
2516,"종로3가","청수당","맛집","서울 종로구 돈화문로11나길 31-9",37.573883,126.989784
2517,"종로3가","사랑방칼국수","맛집","서울 중구 퇴계로27길 46-0",37.563274,126.99134
2518,"종로5가","청계천","관광지","서울 종로구",37.56912917,126.9792609
2519,"종로5가","두산아트센터","관광지","서울 종로구 종로33길 15-0",37.57176789,127.0012033
2520,"종로5가","총회창립100주년기념관","관광지","서울 종로구 대학로3길 29-0",37.57460089,127.00037
2521,"종로5가","백제정육점","맛집","서울 종로구 종로35길 34-0",37.57266,127.00404
2522,"종로5가","광장시장","관광지","서울 종로구 창경궁로 88-0",37.57004585,126.9992868
2523,"종합운동장","잠실야구장","관광지","서울 송파구 올림픽로 25-0",37.51213633,127.0718086
2524,"종합운동장","해주냉면","맛집","서울 송파구 백제고분로7길 8-16",37.50965,127.07977
2525,"종합운동장","동방명주","맛집","서울 송파구 백제고분로 2-0",37.519207,127.07651
2526,"종합운동장","대호갈비","맛집","서울 송파구 백제고분로 83-0",37.509464,127.07932
2527,"종합운동장","이랜드크루즈/잠실선착장","관광지","서울 송파구 백제고분로 2-0",37.51883006,127.0818076
2528,"중계","하나샤브샤브","맛집","서울 노원구 동일로203가길 29-0",37.639877,127.064285
2529,"중계","마들스포츠타운","관광지","서울 노원구 덕릉로 460-0",37.64395433,127.0575586
2530,"중계","호접몽","맛집","서울 노원구 중계로18길 9-0",37.65113,127.077805
2531,"중계","동천실내스케이트장","관광지","서울 노원구 노원로18길 41-0",37.64406552,127.0731127
2532,"중계","노원천문우주과학관","관광지","서울 노원구 동일로205길 13-0",37.64071012,127.065229
2533,"중계","삼부프라자","관광지","서울 노원구 한글비석로 242-0",37.64925939,127.0769735
2534,"중계","그랜드프라자","관광지","서울 노원구 한글비석로 264-0",37.65089809,127.0771123
2535,"중계","마들근린공원","관광지","서울 노원구 덕릉로 460-0",37.64395433,127.0583641
2536,"중계","롯데마트/중계점","관광지","서울 노원구 노원로 330-0",37.64673187,127.070974
2537,"중계","2001아울렛/중계점","관광지","서울 노원구 동일로204가길 46-0",37.64123249,127.0679188
2538,"중계","이종구낙지세상본점","맛집","서울 노원구 중계로 90-0",37.643887,127.08347
2539,"중계","슈엔챠이상계점","맛집","서울 노원구 동일로 1335-0",37.648,127.06227
2540,"중계","느티울근린공원","관광지","서울 노원구",37.6492315,127.0580029
2541,"중계","피노파밀리아","관광지","서울 노원구 중계로 131-17",37.64598201,127.0799454
2542,"중계","노원에코센터","관광지","서울 노원구 덕릉로 460-0",37.64478758,127.0593362
2543,"중계","법성프라자","관광지","서울 노원구 중계로 219-0",37.65050924,127.075668
2544,"중계","노해근린공원","관광지","서울 노원구 노원로22길 1-0",37.64895383,127.0710018
2545,"중계","들국화어린이공원","관광지","서울 노원구",37.64420432,127.0614471
2546,"중계","로보카폴리어린이교통공원","관광지","서울 노원구 덕릉로 483-0",37.64564861,127.0628914
2547,"중곡","긴고랑계곡","관광지","서울 광진구",37.56290839,127.0963059
2548,"중곡","용암사","관광지","서울 광진구 용마산로28길 62-0",37.56721341,127.0900842
2549,"중곡","중곡제일시장","관광지","서울 광진구 긴고랑로11길 14-0",37.56371376,127.0815294
2550,"중곡","유일설렁탕","맛집","서울 광진구 용마산로 154-0",37.567394,127.08651
2551,"중곡","뽀빠이기사식당","맛집","서울 광진구 긴고랑로 17-1",37.563774,127.07857
2552,"중곡","도톰","맛집","서울 광진구 능동로 386-0",37.563572,127.083244
2553,"중화","제일프라자","관광지","서울 중랑구 동일로143길 19-0",37.60501452,127.0775849
2554,"중화","중화동제일시장","관광지","서울 중랑구 동일로139다길 40-0",37.60498673,127.0763628
2555,"중화","법만사","관광지","서울 중랑구 동일로140길 100-0",37.60618108,127.0835566
2556,"중화","보현정사","관광지","서울 중랑구 봉화산로45길 9-31",37.6054312,127.0886117
2557,"중화","성덕사","관광지","서울 중랑구 봉화산로 109-8",37.60340365,127.086473
2558,"중화","태릉시장","관광지","서울 중랑구 동일로129길 35-0",37.59920963,127.0776961
2559,"중화","태능배밭갈비","맛집","서울 중랑구 동일로143길 30-0",37.60526,127.07683
2560,"중화","이화김치찌개","맛집","서울 중랑구 중랑천로 188-0",37.601334,127.074455
2561,"증산","증산종합시장","관광지","서울 은평구 증산로3길 12-0",37.58146062,126.9050175
2057,"여의도","도쿄등심여의도점","맛집","서울 영등포구 여의나루로 50-0",37.521805,126.92565
2058,"여의도","단아여의도점 ","맛집","서울 영등포구 여의대방로67길 21-0",37.52055,126.929474
2059,"여의도","고봉삼계탕여의도점","맛집","서울 영등포구 국회대로72길 5-0",37.530514,126.9203
2060,"여의도","경복궁블랙여의도IFC점 ","맛집","서울 영등포구 국제금융로 10-0",37.525177,126.92487
2061,"여의도","화목순대국","맛집","서울 영등포구 여의대방로 383-0",37.519344,126.9315
2062,"역삼","이도곰탕본점","맛집","서울 강남구 논현로94길 29-5",37.50335,127.03844
2063,"역삼","강강술래역삼점","맛집","서울 강남구 논현로 325-0",37.49415,127.03948
2064,"역삼","돝고기506","맛집","서울 강남구 역삼로17길 53-0",37.49825,127.03621
2065,"역삼","신동궁감자탕역삼본점","맛집","서울 강남구 테헤란로10길 21-0",37.497887,127.03291
2066,"역촌","양촌리은평점","맛집","서울 은평구 은평로 141-0",37.600872,126.92326
2067,"역촌","제주도그릴본점","맛집","서울 은평구 응암로 373-0",37.604565,126.92241
2068,"역촌","이가네가마솥설렁탕","맛집","서울 은평구 진흥로 130-0",37.607513,126.92465
2069,"역촌","역촌왕돈까스역촌본점","맛집","서울 은평구 진흥로 121-1",37.60763,126.92363
2070,"역촌","삿뽀로녹번점","맛집","서울 은평구 서오릉로 4-0",37.60201,126.92753
2071,"역촌","머슴과마님","맛집","서울 은평구 응암로 369-1",37.60428,126.92237
2072,"역촌","전문서부감자국","맛집","서울 은평구 서오릉로 8-0",37.60226,126.92693
2073,"역촌","횟집울릉도","맛집","서울 은평구 서오릉로 29-4",37.603535,126.92477
2074,"역촌","경복궁녹번점","맛집","서울 은평구 서오릉로 4-0",37.60201,126.92753
2075,"역촌","복호두은평역촌점","맛집","서울 은평구 진흥로1길 28-0",37.60296,126.91896
2076,"역촌","오봉집녹번점","맛집","서울 은평구 진흥로 66-0",37.60275,126.9215
2077,"역촌","스시쇼부","맛집","서울 은평구 은평로13길 11-9",37.60203,126.92505
2078,"역촌","삼보사","관광지","서울 은평구 진흥로 99-4",37.60598566,126.9221546
2079,"역촌","보원집","맛집","서울 은평구 역말로 83-25",37.607456,126.9188
2080,"연신내","원조두꺼비집불오징어","맛집","서울 은평구 연서로28길 5-0",37.61815,126.92105
2081,"연신내","원조양평해장국","맛집","서울 은평구 연서로 203-0",37.616936,126.91872
2082,"연신내","갈현동할머니떡볶이","맛집","서울 은평구 통일로87길 8-1",37.623486,126.91876
2083,"연신내","쿠우쿠우연신내점","맛집","서울 은평구 통일로 856-0",37.61962,126.921524
2084,"연신내","잉어킹낚시카페/연신내점","관광지","서울 은평구 연서로26길 8-0",37.61698438,126.9203768
2085,"연신내","연서시장","관광지","서울 은평구 통일로 850-0",37.61934522,126.9219044
2086,"연신내","연신내","관광지","서울 은평구",37.6189286,126.9213489
2087,"연신내","대조어린이공원","관광지","서울 은평구 연서로22길 9-30",37.61551232,126.9199324
2088,"연신내","메트로백화점","관광지","서울 은평구 통일로 856-0",37.61962297,126.9215711
2089,"연신내","범서쇼핑센터","관광지","서울 은평구 통일로 842-0",37.61870641,126.9220711
2090,"연신내","좌월공원","관광지","서울 은평구",37.61731763,126.9132941
2091,"영등포","훈장골신길점","맛집","서울 영등포구 도신로49길 3-0",37.511765,126.91331
2092,"영등포","롯데백화점/영등포점","관광지","서울 영등포구 경인로 846-0",37.51574601,126.907379
2093,"영등포","신세계백화점/타임스퀘어점","관광지","서울 영등포구 영중로 9-0",37.51719028,126.9056291
2094,"영등포","이마트/영등포점","관광지","서울 영등포구 영중로 15-0",37.51663477,126.9032682
2095,"영등포","CGV/영등포","관광지","서울 영등포구 영중로 15-0",37.51713472,126.9036849
2096,"영등포","롯데시네마/영등포","관광지","서울 영등포구 경인로 846-0",37.51620796,126.90833
2097,"영등포","렛츠런CCC/영등포지점","관광지","서울 영등포구 영중로8길 14-0",37.51813462,126.9070734
2098,"영등포","aza쇼핑몰","관광지","서울 영등포구 영중로 28-0",37.51885675,126.9058791
2099,"영등포","영일시장","관광지","서울 영등포구 문래로30길 27-0",37.51621814,126.9007685
2100,"영등포","송죽장","맛집","서울 영등포구 문래로 203-0",37.518253,126.9047
2101,"영등포","청기와타운","맛집","서울 영등포구 영중로10길 32-4",37.51841,126.908455
2102,"영등포","하이디라오영등포점","맛집","서울 영등포구 경인로 870-0",37.516983,126.90929
2103,"영등포","타임스퀘어","관광지","서울 영등포구 영중로 15-0",37.51724789,126.9034862
2104,"영등포구청","YDP곤충체험학습관","관광지","서울 영등포구 선유동1로 80-0",37.52862792,126.8945077
2105,"영등포구청","경복궁당산점","맛집","서울 영등포구 국회대로 539-0",37.529312,126.89489
2106,"영등포구청","영등포아트홀","관광지","서울 영등포구 국회대로 596-0",37.5260781,126.9001018
2107,"영등포구청","당산공원","관광지","서울 영등포구 당산로27길 12-0",37.52557814,126.8957688
2108,"영등포구청","롯데마트/양평점","관광지","서울 영등포구 선유로 138-0",37.5260225,126.8916303
2109,"영등포구청","코스트코홀세일/양평점","관광지","서울 영등포구 선유로 156-0",37.52768898,126.892158
2110,"영등포구청","W페스타영등포점","맛집","서울 영등포구 국회대로 543-0",37.52916,126.89534
2111,"영등포구청","코끼리베이글","맛집","서울 영등포구 선유로 176-0",37.52861,126.89327
2112,"영등포구청","삿뽀로당산점","맛집","서울 영등포구 국회대로 539-0",37.529312,126.89489
2113,"영등포시장","3일한우국밥영등포본점","맛집","서울 영등포구 영등포로 204-0",37.519936,126.904076
2114,"영등포시장","뽀로로파크/롯데빅마켓영등포점","관광지","서울 영등포구 영중로 125-0",37.52783448,126.9046874
2115,"영등포시장","영등포전통시장","관광지","서울 영등포구",37.52030104,126.9069068
2116,"영등포시장","영등포청과시장","관광지","서울 영등포구 영신로 161-0",37.5220508,126.9009628
2117,"영등포시장","빅마켓/영등포점","관광지","서울 영등포구 영중로 125-0",37.52782793,126.9046847
2118,"오금","하츠베이커리","맛집","서울 송파구 중대로 210-0",37.50044,127.127144
2119,"오금","오금공원","관광지","서울 송파구 오금로 363-0",37.50341549,127.13147
2120,"오금","이경진우렁쌈밥정식오금점","맛집","서울 송파구 중대로 310-0",37.50783,127.13346
2121,"오류동","오류동역광장","관광지","서울 구로구",37.4949147,126.8438849
2122,"오류동","옹기종기감자옹심이","맛집","서울 구로구 서해안로30길 13-8",37.493164,126.84447
2123,"오류동","명륜진사갈비서울오류점","맛집","서울 구로구 서해안로 2293-0",37.491444,126.83972
2124,"오류동","59쌀피자오류남부역점","맛집","서울 구로구 오류로8길 46-0",37.49183,126.84306
2125,"오류동","오류시장","관광지","서울 구로구 경인로19가길 14-1",37.4966645,126.8435238
2126,"오류동","잣절공원","관광지","서울 구로구 고척로21나길 103-0",37.50149724,126.8391908
2127,"오류동","여래사","관광지","서울 구로구 경인로15길 36-0",37.49572013,126.8386632
2128,"오류동","고척근린시장","관광지","서울 구로구 경인로33길 103-0",37.50230277,126.8500232
2129,"오목교","목동야구장","관광지","서울 양천구 안양천로 939-0",37.53085521,126.880909
2130,"오목교","먹자대게","맛집","서울 양천구 목동서로 213-0",37.528015,126.87061
2131,"오목교","마루샤브목동점","맛집","서울 양천구 목동동로 339-0",37.532177,126.87675
2132,"오목교","락희안목동직영점","맛집","서울 양천구 오목로 330-0",37.524433,126.87398
2133,"오목교","락앤웍목동점","맛집","서울 양천구 목동동로 233-3",37.527847,126.87165
2134,"오목교","더아리엘목동점","맛집","서울 양천구 오목로 300-0",37.52483,126.870026
2135,"오목교","더브라운목동점","맛집","서울 양천구 오목로 354-0",37.523983,126.87679
2136,"오목교","닥터로빈목동점","맛집","서울 양천구 오목로 299-0",37.526085,126.87035
2137,"오목교","나폴레옹과자점목동점","맛집","서울 양천구 목동동로 401-0",37.536377,126.88113
2138,"오목교","경복궁목동점","맛집","서울 양천구 목동동로 189-0",37.52294,126.870125
2139,"오목교","강릉스낵","맛집","서울 양천구 목동동로 228-2",37.52577,126.87214
2140,"오목교","VIPS프리미어목동41타워점","맛집","서울 양천구 목동동로 293-0",37.52818,126.87577
2141,"오목교","일미락","맛집","서울 성동구 상원6나길 22-20",37.547626,127.04963
2142,"오목교","등촌샤브칼국수","맛집","서울 구로구 구로중앙로 57-0",37.49457,126.888985
2143,"오목교","현경목동점 ","맛집","서울 양천구 오목로 312-0",37.524693,126.87201
2144,"오목교","항아리보쌈","맛집","서울 양천구 신목로 48-0",37.51965,126.873474
2145,"오목교","팔각도목동본점","맛집","서울 양천구 목동동로 266-1",37.525604,126.87557
2146,"오목교","파티세리소나2호점","맛집","서울 양천구 신목로12길 8-0",37.520943,126.87435
2147,"오목교","파리크라상목동점","맛집","서울 양천구 목동동로 293-0",37.52818,126.87577
2148,"오목교","토다이U목동점","맛집","서울 양천구 목동동로 401-0",37.536377,126.88113
2149,"오목교","크리스피크림도넛오목교점","맛집","서울 양천구 오목로 300-0",37.52483,126.870026
2150,"오목교","창고43목동점","맛집","서울 양천구 목동서로 159-1",37.528233,126.87499
2151,"오목교","진대감목동점","맛집","서울 양천구 오목로 337-10",37.52521,126.87537
2152,"오목교","젠틀한식탁","맛집","서울 양천구 목동동로14길 6-1",37.524178,126.8722
2153,"오목교","제주은희네해장국양천목동점","맛집","서울 양천구 오목로 321-1",37.525272,126.873116
2154,"오목교","일미락","맛집","서울 양천구 목동동로 226-16",37.525417,126.872955
2155,"오목교","은행골목동점","맛집","서울 양천구 목동서로 155-0",37.529995,126.87507
2156,"오목교","원두막","맛집","서울 양천구 신목로 56-0",37.519855,126.87295
2157,"오목교","오목집목동본점","맛집","서울 양천구 목동서로 155-0",37.529995,126.87507
2158,"오목교","억조1978","맛집","서울 양천구 목동동로10길 24-0",37.519356,126.87235
2159,"오목교","양천뼈다귀","맛집","서울 양천구 목동동로 258-0",37.52534,126.875145
2160,"오목교","애슐리퀸즈목동행복한백화점점","맛집","서울 양천구 목동동로 309-0",37.529144,126.87601
2161,"오목교","아웃백스테이크하우스목동점","맛집","서울 양천구 목동동로 293-0",37.52818,126.87577
2162,"오목교","스시노미찌","맛집","서울 양천구 목동동로 293-0",37.52818,126.87577
2163,"오목교","송추가마골인어반목동점","맛집","서울 양천구 목동동로 293-0",37.52818,126.87577
2164,"오목교","삿뽀로목동점","맛집","서울 양천구 목동동로 189-0",37.52294,126.870125
2165,"오목교","비엔나커피하우스목동7단지점","맛집","서울 양천구 목동서로 211-0",37.52796,126.87109
2166,"오목교","브런치빈목동점","맛집","서울 양천구 목동동로 233-3",37.527847,126.87165
2167,"오목교","파리공원","관광지","서울 양천구 목동동로 363-0",37.53463253,126.8771593
2168,"오목교","대한민국예술인센터","관광지","서울 양천구 목동서로 225-0",37.52710558,126.8707711
2169,"오목교","CGV/목동","관광지","서울 양천구 목동동로 257-0",37.52652235,126.8751873
2170,"오목교","메가박스/목동","관광지","서울 양천구 목동동로 309-0",37.52904984,126.8760484
2171,"오목교","행복한백화점","관광지","서울 양천구 목동동로 309-0",37.52899429,126.875965
2172,"오목교","목동실내아이스링크","관광지","서울 양천구 안양천로 939-0",37.53071633,126.8792703
2173,"오목교","홈플러스/목동점","관광지","서울 양천구 목동서로 170-0",37.53029967,126.873243
2174,"오목교","이마트/목동점","관광지","서울 양천구 오목로 299-0",37.52549466,126.8707433
2175,"오목교","현대백화점/목동점","관광지","서울 양천구 목동동로 257-0",37.52653189,126.875191
2176,"오목교","목동교인라인스케이트장","관광지","서울 양천구",37.53243841,126.8883528
2177,"오목교","영학정","관광지","서울 양천구 안양천로 916-0",37.52727228,126.8794092
2178,"오목교","오목교중앙시장","관광지","서울 양천구 신목로4길 37-0",37.52121741,126.8765762
2179,"오목교","안양천생태공원물놀이장/휴장","관광지","서울 양천구",37.51877672,126.8788083
2180,"오목교","제이블리키즈카페","관광지","서울 양천구 신목로 34-0",37.51863436,126.8740209
2181,"오목교","오목공원","관광지","서울 양천구 목동서로 159-2",37.52799439,126.8733264
2182,"오목교","국제선센터","관광지","서울 양천구 목동동로 167-0",37.52080075,126.8700768
2183,"오목교","한국방송회관코바코홀","관광지","서울 양천구 목동동로 233-0",37.52693894,126.8714932
2184,"오목교","목동주경기장","관광지","서울 양천구 안양천로 939-0",37.53049416,126.8831033
2185,"오목교","로운아뜨리움","관광지","서울 양천구 목동서로 225-0",37.52707781,126.8706044
2186,"오목교","목동사격장","관광지","서울 양천구 안양천로 939-0",37.53052192,126.8807424
2187,"오목교","생명과학박물관","관광지","서울 양천구 목동동로 206-1",37.52393929,126.872021
2188,"오목교","현대백화점 유플렉스/목동점","관광지","서울 양천구 목동동로 257-0",37.52660567,126.8752984
2189,"옥수","더코너키친","맛집","서울 종로구 평창문화로 98-0",37.60708,126.97192
2190,"옥수","부첼리하우스","맛집","서울 용산구 독서당로 122-1",37.536846,127.012856
2191,"옥수","메종 한남","맛집","서울 용산구 유엔빌리지3길 24-0",37.53425,127.012924
2192,"옥수","쥬에","맛집","서울 용산구 독서당로 124-7",37.537487,127.012794
2193,"옥수","달맞이봉공원","관광지","서울 성동구",37.54332685,127.0208407
2194,"옥수","갤러리바톤","관광지","서울 용산구 독서당로 116-0",37.53643871,127.0122026
2195,"옥수","더줌아트센터","관광지","서울 용산구 독서당로 111-0",37.53585541,127.0070642
2196,"옥수","타데우스로팍","관광지","서울 용산구 독서당로 122-1",37.53687479,127.0127874
2197,"옥수","미타사","관광지","서울 성동구 독서당로40길 21-0",37.54355247,127.0172204
2198,"옥수","옥수해물찜칼국수","맛집","서울 성동구 독서당로40길 37-0",37.54185,127.01789
2199,"온수","우방정육식당","맛집","서울 구로구 부일로1길 110-0",37.495216,126.81823
2200,"온수","궁동저수지생태공원","관광지","서울 구로구",37.50135831,126.8287751
2201,"온수","관음사","관광지","서울 구로구 오리로22길 77-0",37.49980296,126.8329136
2202,"온수","모메존칼국수","맛집","서울 구로구 경인로 18-0",37.48907,126.82489
2203,"올림픽공원","샘밭막국수올림픽공원점","맛집","서울 강동구 강동대로 241-0",37.522396,127.13272
2204,"올림픽공원","긴자올림픽점","맛집","서울 강동구 강동대로 223-0",37.523205,127.13118
2205,"올림픽공원","올림픽공원88잔디마당","관광지","서울 송파구 올림픽로 424-0",37.51863591,127.1251926
2206,"올림픽공원","올림픽공원9경스탬프투어","관광지","서울 송파구 올림픽로 424-0",37.51985798,127.1228039
2207,"올림픽공원","올림픽프라자","관광지","서울 송파구 양재대로 1222-0",37.51560853,127.1326642
2208,"올림픽공원","올림픽홀","관광지","서울 송파구 올림픽로 424-0",37.51474749,127.1275535
2209,"올림픽공원","우리금융아트홀","관광지","서울 송파구 올림픽로 424-0",37.51671947,127.1249982
2210,"올림픽공원","올림픽공원","관광지","서울 송파구 올림픽로 424-0",37.51985798,127.1228039
2211,"올림픽공원","파리크라상올림픽공원키친점","맛집","서울 송파구 올림픽로 424-0",37.52034,127.11552
2212,"올림픽공원","서울제빵소올림픽본점","맛집","서울 송파구 양재대로 1178-0",37.512146,127.12892
2213,"올림픽공원","함경면옥","맛집","서울 강동구 강동대로 215-0",37.52355,127.13013
2214,"올림픽공원","차이나린찐","맛집","서울 강동구 강동대로 217-0",37.523407,127.13047
2215,"왕십리","소월아트홀","관광지","서울 성동구 왕십리로 281-0",37.55938065,127.0360614
2216,"왕십리","땅코참숯구이본점","맛집","서울 성동구 행당로17길 26-0",37.560684,127.03303
2217,"왕십리","스시도쿠","맛집","서울 성동구 왕십리로 280-0",37.560204,127.03802
2218,"왕십리","비트플렉스","관광지","서울 성동구 왕십리광장로 17-0",37.56182482,127.0382834
2219,"왕십리","CGV/왕십리","관광지","서울 성동구 왕십리광장로 17-0",37.56057497,127.0387556
2220,"왕십리","악어떡볶이","맛집","서울 성동구 마조로 33-0",37.56065,127.04109
2221,"왕십리","왕십리광장","관광지","서울 성동구",37.56163916,127.0373241
2222,"왕십리","행당시장","관광지","서울 성동구 왕십리로21길 19-0",37.56054715,127.0324784
2223,"왕십리","춘향미엔","맛집","서울 성동구 왕십리로21길 26-0",37.560555,127.03201
2224,"왕십리","조개창고왕십리점","맛집","서울 성동구 왕십리로 331-0",37.562637,127.0328
2225,"왕십리","전풍호텔라운지","맛집","서울 성동구 무학봉28길 7-0",37.562202,127.03307
2226,"왕십리","이마트/왕십리점","관광지","서울 성동구 왕십리광장로 17-0",37.56168595,127.0383945
2227,"외대앞","영화장","맛집","서울 동대문구 휘경로 3-8",37.59658,127.06094
2228,"외대앞","아티제외대점","맛집","서울 동대문구 이문로 107-0",37.598297,127.057945
2229,"외대앞","중화체육공원","관광지","서울 중랑구",37.60409793,127.0731131
2230,"외대앞","이경시장","관광지","서울 동대문구 외대역동로 76-0",37.59506598,127.065183
2231,"용답","하동매실거리","관광지","서울 성동구",37.56529671,127.0490324
2232,"용답","용답시장","관광지","서울 성동구 용답25다길 24-0",37.56329697,127.0533931
2233,"용두","전봇대집","맛집","서울 성동구 살곶이길 40-0",37.57126,127.04127
2234,"용두","홈플러스/동대문점","관광지","서울 동대문구 천호대로 133-0",37.57454558,127.0387554
2235,"용두","미트대명사","관광지","서울 성동구 청계천로10나길 48-0",37.57018495,127.0355613
2236,"용두","청계천박물관","관광지","서울 성동구 청계천로 530-0",37.57124038,127.034978
2237,"용두","용두근린공원","관광지","서울 동대문구",37.57326795,127.0392832
2238,"용두","HM풋살파크/동대문점","관광지","서울 동대문구 천호대로 133-0",37.57454558,127.0387832
2239,"용두","인생한우","맛집","서울 성동구 마장로31길 43-0",37.57015,127.0382
2240,"용두","몽실이네토종한우","맛집","서울 성동구 마장로35길 70-0",37.570644,127.04153
2241,"용두","대호그린푸드","관광지","서울 성동구 청계천로10나길 51-0",37.57043492,127.0355891
2242,"용마산","금화왕돈까스용마산역점","맛집","서울 중랑구 용마산로 248-0",37.575207,127.088486
2243,"용마산","극단씨앗","관광지","서울 광진구 답십리로78길 26-0",37.57040743,127.081085
2244,"용마산","장안동근린공원","관광지","서울 동대문구",37.57740656,127.071308
2245,"용마산","아트몰링/장안점","관광지","서울 동대문구 답십리로 288-0",37.57196275,127.0724191
2246,"용마산","장안벚꽃길","관광지","서울 동대문구",37.56809361,127.0754092
2247,"용마산","봉봉키즈/장안점","관광지","서울 동대문구 답십리로69길 55-0",37.5746698,127.0738051
2248,"용마산","장안벚꽃안길","관광지","서울 동대문구",37.57675738,127.0768074
2249,"용마산","타요키즈카페엔뽀로로샵아트몰링장안점","관광지","서울 동대문구 답십리로 288-0",37.5719072,127.0723635
2250,"용마산","마로니에어린이공원","관광지","서울 동대문구",37.57501796,127.0737245
2251,"용마산","용마폭포공원","관광지","서울 중랑구 용마산로 250-12",37.57363921,127.0902324
2252,"용마산","용마폭포공원축구장","관광지","서울 중랑구 용마산로 250-12",37.5744348,127.0901119
2253,"용마산","서울특별시교육청과학전시관/동부분관","관광지","서울 중랑구 면목로23길 20-0",37.57376817,127.0833347
2254,"용마산","중랑 실내놀이터","관광지","서울 중랑구 용마산로 209-0",37.57244699,127.084856
2255,"용마산","샘터공원","관광지","서울 중랑구 답십리로81길 35-0",37.57310158,127.0833347
2256,"용마산","중랑구민회관/대극장","관광지","서울 중랑구 면목로 238-0",37.57401815,127.0850012
2257,"용마산","오거리공원","관광지","서울 중랑구",37.57687892,127.0843346
2258,"용마산","면곡시장","관광지","서울 광진구 답십리로76길 5-4",37.57110179,127.0812516
2259,"용산","이마트/용산점","관광지","서울 용산구 한강대로21나길 17-0",37.52949478,126.9655403
2260,"용산","챔피언1250","관광지","서울 용산구 한강대로21나길 17-0",37.52955032,126.9641515
2261,"용산","아이파크몰","관광지","서울 용산구 한강대로21나길 17-0",37.52988362,126.964707
2262,"용산","과학동아천문대","관광지","서울 용산구 청파로 109-0",37.53366095,126.9634015
2263,"용산","오근내2닭갈비","맛집","서울 용산구 한강대로11길 13-0",37.52509,126.9628
2264,"용산","오근내닭갈비","맛집","서울 용산구 이촌로29길 15-0",37.524525,126.95972
2265,"용산","미미옥신용산점","맛집","서울 용산구 한강대로15길 27-0",37.526283,126.96295
2266,"용산","HDC아이파크몰","관광지","서울 용산구 한강대로23길 55-0",37.52895986,126.9645195
2267,"용산","CGV/용산아이파크몰","관광지","서울 용산구 한강대로23길 55-0",37.53016136,126.9651792
2268,"용산","새남터순교지","관광지","서울 용산구 이촌로 80-8",37.52493969,126.9568189
2269,"용산","롯데시네마/용산","관광지","서울 용산구 청파로 74-0",37.53279991,126.9597074
2270,"용산","용산전자상가","관광지","서울 용산구",37.5329388,126.9622905
2271,"용산","신라아이파크면세점/용산점","관광지","서울 용산구 한강대로23길 55-0",37.52955032,126.9641515
2272,"용산","하나로마트/용산점","관광지","서울 용산구 청파로 122-0",37.53318879,126.9647347
2273,"용산","용산역앞잔디광장","관광지","서울 용산구",37.5280505,126.965818
2783,"한성대입구","성북동빵공장","맛집","서울 성북구 대사관로 40-0",37.595894,126.98863
2784,"한성대입구","성북동면옥집","맛집","서울 성북구 대사관로 40-0",37.595894,126.98863
2785,"한성대입구","성북동메밀수제비누룽지백숙","맛집","서울 성북구 성북로31길 9-0",37.594585,126.99046
2786,"한성대입구","성북동돼지갈비본점","맛집","서울 성북구 성북로 115-0",37.59329,126.99607
2787,"한성대입구","선동보리밥","맛집","서울 성북구 성북로 134-4",37.594696,126.99515
2788,"한성대입구","서울왕돈까스성북동본점","맛집","서울 성북구 창경궁로35다길 140-0",37.592537,126.99933
2789,"한성대입구","삼청각한식당","맛집","서울 성북구 대사관로 3-0",37.597282,126.98353
2790,"한성대입구","비양도","맛집","서울 성북구 성북로 158-0",37.594563,126.99231
2791,"한성대입구","블랑제메종북악","맛집","서울 성북구 성북로 156-0",37.594753,126.99238
2792,"한성대입구","밀곳간","맛집","서울 성북구 성북로18길 19-0",37.594116,126.99933
2793,"한성대입구","문화식당","맛집","서울 성북구 혜화로 88-0",37.59275,126.99819
2794,"한성대입구","모짜","맛집","서울 성북구 성북로 102-0",37.593063,126.99756
2795,"한성대입구","명문막국수","맛집","서울 성북구 창경궁로 319-0",37.588303,127.004845
2796,"한양대","살곶이체육공원","관광지","서울 성동구",37.55454796,127.0504212
2797,"한양대","파크에비뉴엔터식스/한양대점","관광지","서울 성동구 왕십리로 241-0",37.55676986,127.0403666
2798,"한양대","살곶이물놀이장","관광지","서울 성동구",37.5546691,127.050001
2799,"한양대","살곶이체육공원/야구장","관광지","서울 성동구",37.5553812,127.0504768
2800,"합정","감성타코&그릴합정점","맛집","서울 마포구 월드컵로3길 14-0",37.551006,126.91165
2801,"합정","각시보쌈","맛집","서울 마포구 성지길 25-0",37.547535,126.91346
2802,"합정","VIPS합정역점","맛집","서울 마포구 월드컵로1길 14-0",37.55005,126.91206
2803,"합정","한옥집","맛집","서울 서대문구 통일로9길 12-0",37.567272,126.96433
2804,"합정","핑크솔트숯불구이","맛집","서울 마포구 양화로 16-0",37.548237,126.911125
2805,"합정","피오니","맛집","서울 마포구 독막로7길 51-0",37.550087,126.91976
2806,"합정","포비베이직합정점","맛집","서울 마포구 양화로3길 66-0",37.55195,126.91106
2807,"합정","저스티나","맛집","서울 마포구 양화진2길 31-0",37.54773,126.91088
2808,"합정","우동카덴","맛집","서울 마포구 양화로7안길 2-1",37.551685,126.91507
2809,"합정","옥동식서교점","맛집","서울 마포구 양화로7길 44-10",37.552666,126.91453
2810,"합정","오레노라멘","맛집","서울 마포구 독막로6길 14-0",37.547478,126.917336
2811,"합정","잠두봉선착장","관광지","서울 마포구",37.54505613,126.9083701
2812,"합정","신한pLay스퀘어","관광지","서울 마포구 양화로 45-0",37.55065868,126.9135725
2813,"합정","절두산순교성지","관광지","서울 마포구 토정로 6-0",37.54429671,126.91158
2814,"합정","롯데시네마/합정","관광지","서울 마포구 양화로 45-0",37.55126971,126.9134372
2815,"합정","교다이야","맛집","서울 마포구 성지길 39-0",37.546856,126.91321
2816,"합정","빈브라더스합정점","맛집","서울 마포구 토정로 35-1",37.54572,126.91498
2817,"합정","홈플러스/합정점","관광지","서울 마포구 양화로 45-0",37.55132526,126.9133226
2818,"합정","아웃백스테이크하우스합정점","맛집","서울 마포구 월드컵로3길 14-0",37.551006,126.91165
2819,"합정","스케줄합정","맛집","서울 마포구 양화로6길 33-0",37.54913,126.916084
2820,"행당","롯데마트/행당역점","관광지","서울 성동구 행당로 84-0",37.55654759,127.0287843
2821,"행당","헬로방방/행당점","관광지","서울 성동구 행당로 84-0",37.55657537,127.0288121
2822,"혜화","한성아트홀","관광지","서울 종로구 창경궁로 254-0",37.58371094,126.9998144
2823,"혜화","혜화칼국수","맛집","서울 종로구 창경궁로35길 13-0",37.586567,127.00151
2824,"혜화","대학로예술극장","관광지","서울 종로구 대학로10길 17-0",37.58182229,127.0032586
2825,"혜화","CGV/대학로","관광지","서울 종로구 대명길 28-0",37.58346097,126.9998422
2826,"혜화","국립어린이과학관","관광지","서울 종로구 창경궁로 215-0",37.58185003,126.9969814
2827,"혜화","마로니에공원","관광지","서울 종로구 대학로 104-0",37.58051688,127.0028419
2828,"혜화","대학로","관광지","서울 종로구",37.58179451,127.0018698
2829,"혜화","창경궁","관광지","서울 종로구 창경궁로 185-0",37.57879481,126.9953149
2830,"혜화","낙산공원","관광지","서울 종로구 낙산길 41-0",37.58065579,127.0074804
2831,"혜화","순대실록대학로본점","맛집","서울 종로구 동숭길 127-0",37.583294,127.00306
2832,"혜화","디마떼오대학로점","맛집","서울 종로구 동숭길 29-0",37.580017,127.00394
2833,"혜화","하이디라오대학로점","맛집","서울 종로구 대학로 146-0",37.584248,127.00203
2834,"혜화","핏제리아오","맛집","서울 종로구 동숭길 86-0",37.582096,127.004326
2835,"혜화","나누미떡볶이성대본점","맛집","서울 종로구 성균관로 9-1",37.583706,126.99792
2836,"혜화","아르코예술극장","관광지","서울 종로구 대학로8길 7-0",37.58118347,127.0029808
2837,"홍대입구","스페이스독","관광지","서울 서대문구 연희로8길 18-0",37.56516865,126.930896
2838,"홍대입구","연희정원","관광지","서울 서대문구 연희로11라길 10-8",37.56849005,126.9303764
2839,"홍대입구","궁동근린공원","관광지","서울 서대문구",37.57071198,126.9248769
2840,"홍대입구","라이카시네마","관광지","서울 서대문구 연희로8길 18-0",37.56515711,126.9309319
2841,"홍대입구","코코넛박스","관광지","서울 마포구 홍익로3길 20-0",37.55351951,126.9217107
2842,"홍대입구","웨스트브릿지라이브홀","관광지","서울 마포구 와우산로25길 6-0",37.55369268,126.9261558
2843,"홍대입구","무신사테라스","관광지","서울 마포구 양화로 188-0",37.55788014,126.9263213
2844,"홍대입구","구름아래소극장","관광지","서울 마포구 와우산로29가길 15-0",37.55418614,126.9285434
2845,"홍대입구","플라워바이네이키드","관광지","서울 마포구 양화로 188-0",37.5580824,126.9262481
2846,"홍대입구","홍대놀이터","관광지","서울 마포구",37.55229743,126.9230994
2847,"홍대입구","경의선숲길공원","관광지","서울 마포구",37.55904667,126.9251825
2848,"홍대입구","소극장산울림","관광지","서울 마포구 와우산로 157-0",37.55509362,126.9300864
2849,"홍대입구","메가박스/홍대","관광지","서울 마포구 양화로 147-0",37.55599144,126.9220439
2850,"홍대입구","와이즈파크","관광지","서울 마포구 양화로 176-0",37.55729687,126.9249048
2851,"홍대입구","CGV/홍대","관광지","서울 마포구 양화로 153-0",37.55649139,126.922655
2852,"홍대입구","CGV/연남","관광지","서울 마포구 양화로 186-0",37.55791449,126.9257733
2853,"홍대입구","롯데시네마/홍대입구","관광지","서울 마포구 양화로 176-0",37.55729687,126.9250992
2854,"홍대입구","AK&/홍대점","관광지","서울 마포구 양화로 188-0",37.55782332,126.9263716
2855,"홍대입구","평택고여사집냉면","맛집","서울 서대문구 연희로 81-9",37.565678,126.92926
2856,"홍대입구","콘하스연희점","맛집","서울 서대문구 연희로27길 99-0",37.570324,126.93218
2857,"홍대입구","카덴","맛집","서울 서대문구 연희로 173-0",37.5725,126.93506
2858,"홍대입구","청송함흥냉면","맛집","서울 서대문구 연희맛로 6-0",37.565895,126.92878
2859,"홍대입구","짚불집","맛집","서울 서대문구 연희로8길 5-3",37.565777,126.93047
2860,"홍대입구","진보","맛집","서울 서대문구 연희맛로 9-0",37.566334,126.92882
2861,"홍대입구","지호한방삼계탕연희점","맛집","서울 서대문구 연희로25길 10-0",37.57289,126.9348
2862,"홍대입구","조은집","맛집","서울 서대문구 연희맛로 43-0",37.568577,126.93108
2863,"홍대입구","이화원","맛집","서울 서대문구 연희맛로 13-0",37.56655,126.92901
2864,"홍대입구","월순철판동태찜연희본점","맛집","서울 서대문구 연희맛로 17-14",37.567226,126.929054
2865,"홍대입구","연희예술극장","맛집","서울 서대문구 연희맛로 2-3",37.56566,126.928535
2866,"홍대입구","연희보리밥","맛집","서울 서대문구 연희맛로 33-0",37.56801,126.93058
2867,"홍대입구","연희동손칼국수본점","맛집","서울 서대문구 연희맛로 37-0",37.56822,126.93075
2868,"홍대입구","연희녹두삼계탕","맛집","서울 서대문구 연희맛로 43-1",37.568707,126.93119
2869,"홍대입구","연희김밥본점","맛집","서울 서대문구 연희로11가길 2-0",37.568027,126.929375
2870,"홍대입구","연희곰탕","맛집","서울 서대문구 증가로 17-0",37.569798,126.93091
2871,"홍대입구","연대북문우리집","맛집","서울 서대문구 연희로26길 23-0",37.57299,126.936966
2872,"홍대입구","연남장","맛집","서울 서대문구 연희로5길 22-0",37.56433,126.92758
2873,"홍대입구","연경연희점","맛집","서울 서대문구 연희로 145-0",37.570576,126.933624
2874,"홍대입구","앤트러사이트연희점","맛집","서울 서대문구 연희로 135-0",37.569695,126.93284
2875,"홍대입구","아워온즈","맛집","서울 서대문구 연희맛로 45-0",37.568863,126.9312
2876,"홍대입구","시오","맛집","서울 서대문구 연희로11가길 23-0",37.567215,126.928696
2877,"홍대입구","수빈","맛집","서울 서대문구 연희로25길 31-3",37.57183,126.93432
2878,"홍대입구","민스키친연희점","맛집","서울 서대문구 연희맛로 7-0",37.566265,126.92868
2879,"홍대입구","목란","맛집","서울 서대문구 연희로15길 21-0",37.56839,126.93049
2880,"홍대입구","맛있는집","맛집","서울 서대문구 거북골로20길 55-0",37.58044,126.91084
2881,"홍대입구","만동제과","맛집","서울 서대문구 연희로 32-0",37.561535,126.92728
2882,"홍대입구","르솔레이","맛집","서울 서대문구 연희맛로 7-29",37.56637,126.927986
2883,"홍대입구","로덴드론연희점","맛집","서울 서대문구 연희로25길 82-0",37.570133,126.932274
2884,"홍대입구","락희안가좌본점","맛집","서울 서대문구 가재울로4길 53-0",37.57609,126.92416
2885,"홍대입구","데스툴","맛집","서울 서대문구 연희로25길 98-0",37.569553,126.93182
2886,"홍대입구","녹원쌈밥","맛집","서울 서대문구 연희로25길 22-0",37.572483,126.93414
2887,"홍대입구","노아스로스팅연희점","맛집","서울 서대문구 연희로 160-0",37.571438,126.934944
2888,"홍대입구","그로어스","맛집","서울 서대문구 연희로27길 52-0",37.57228,126.933334
2889,"홍대입구","고미정","맛집","서울 서대문구 연희로26길 28-0",37.572704,126.937035
2890,"홍대입구","강수사","맛집","서울 서대문구 연희로 157-0",37.571365,126.934204
2891,"홍대입구","하이디라오홍대점","맛집","서울 마포구 양화로 176-0",37.557247,126.92499
2892,"홍대입구","툭툭누들타이","맛집","서울 마포구 성미산로 161-8",37.565193,126.92404
2893,"홍대입구","카페노티드연남","맛집","서울 마포구 월드컵북로6길 12-13",37.557713,126.920135
2894,"홍대입구","중화복춘골드","맛집","서울 마포구 월드컵북로6길 42-0",37.558758,126.92082
2895,"홍대입구","연남동카페거리","맛집","서울 마포구",37.566216,126.901955
2896,"홍대입구","쉐이크쉑홍대점","맛집","서울 마포구 양화로 186-0",37.557667,126.925896
2897,"홍대입구","송가네감자탕본점","맛집","서울 마포구 동교로 245-0",37.561836,126.92405
2898,"홍대입구","소이연남","맛집","서울 마포구 동교로 267-0",37.563534,126.92538
2899,"홍대입구","삿뽀로홍대점","맛집","서울 마포구 월드컵북로 14-0",37.556416,126.92051
2900,"홍대입구","바다회사랑2호점","맛집","서울 마포구 동교로 143-0",37.555496,126.91778
2901,"홍대입구","바다회사랑","맛집","서울 마포구 동교로27길 60-0",37.560413,126.92106
2902,"홍대입구","명인갈비","맛집","서울 마포구 연남로 85-0",37.566277,126.91826
2903,"홍대입구","랜디스도넛연남점","맛집","서울 마포구 동교로 247-0",37.562035,126.924164
2904,"홍대입구","딥커피","맛집","서울 마포구 동교로 209-0",37.55872,126.92335
2905,"홍대입구","고구려홍대점","맛집","서울 마포구 월드컵북로 14-0",37.556416,126.92051
2906,"홍대입구","경복궁서교점","맛집","서울 마포구 월드컵북로 37-0",37.557613,126.918175
2907,"홍대입구","감나무집기사식당","맛집","서울 마포구 연남로 23-0",37.561695,126.92209
2908,"홍대입구","호천식당","맛집","서울 서대문구 연희로14길 5-0",37.567474,126.93179
2909,"홍대입구","하노이의아침연희점","맛집","서울 서대문구 연희맛로 10-0",37.566067,126.92904
2910,"홍대입구","피터팬1978본점","맛집","서울 서대문구 증가로 10-0",37.56939,126.93176
2911,"홍대입구","프로토콜","맛집","서울 서대문구 연희로 109-0",37.567795,126.93137
2912,"홍대입구","폴앤폴리나연희점","맛집","서울 서대문구 연희로11길 56-0",37.568886,126.92907
2913,"홍제","소담촌홍제점","맛집","서울 서대문구 통일로 413-0",37.58618,126.94644
2914,"홍제","인왕시장","관광지","서울 서대문구",37.5907931,126.9430973
2915,"홍제","서울옥션하우스","관광지","서울 종로구 평창30길 24-0",37.61181865,126.9750942
2916,"홍제","화정박물관","관광지","서울 종로구 평창8길 3-0",37.60465275,126.9659006
2917,"홍제","상명아트센터","관광지","서울 종로구 홍지문2길 20-0",37.60312509,126.9565681
2918,"홍제","서대문돌산구장","관광지","서울 서대문구",37.60287506,126.9459302
2919,"홍제","서대문구립인조잔디구장","관광지","서울 서대문구 백련사길 39-0",37.58009982,126.9305985
2920,"홍제","안산벚꽃길","관광지","서울 서대문구",37.58009987,126.9394032
2921,"홍제","꽃그리는아이/서대문점","관광지","서울 서대문구 모래내로 411-0",37.58418274,126.9402642
2922,"홍제","홍제천폭포마당","관광지","서울 서대문구",37.58137749,126.9374867
2923,"홍제","포방터시장","관광지","서울 서대문구 포방터길 46-0",37.59868112,126.9490966
2924,"홍제","옥천암","관광지","서울 서대문구 홍지문길 1-38",37.59701467,126.9542628
2925,"홍제","홍은손칼국수전문점","맛집","서울 서대문구 홍은중앙로 27-0",37.593987,126.94597
2926,"홍제","신기한놀이터떼굴떼굴","관광지","서울 서대문구",37.58557146,126.9386255
2927,"홍제","문화촌초밥집","맛집","서울 서대문구 세무서7길 12-6",37.591633,126.94654
2928,"화곡","할머니추어탕","맛집","서울 양천구 가로공원로 146-0",37.536144,126.832184
2929,"화곡","메가박스/화곡","관광지","서울 강서구 화곡로 142-0",37.54060382,126.8376073
2930,"화곡","화곡본동시장","관광지","서울 강서구 까치산로 35-0",37.54313134,126.8437178
2931,"화곡","볏골공원","관광지","서울 강서구 까치산로4길 22-0",37.54146487,126.8443567
2932,"화곡","화곡중앙골목시장","관광지","서울 강서구 월정로30길 66-0",37.53488227,126.839135
2933,"화곡","이마트/신월점","관광지","서울 양천구 화곡로 59-0",37.53974276,126.828497
2934,"화곡","가로공원","관광지","서울 양천구",37.53674314,126.8342465
2935,"화곡","신월시장","관광지","서울 양천구 남부순환로42길 27-0",37.53363234,126.8274138
2936,"화곡","신월3동골목시장","관광지","서울 양천구 가로공원로60가길 2-0",37.5342156,126.8251362
2937,"화곡","송죽어린이공원","관광지","서울 양천구",37.53940949,126.8338854
2938,"화곡","부산돼지국밥신월점","맛집","서울 양천구 남부순환로 344-0",37.536224,126.82773
2939,"화곡","소플러스신월점","맛집","서울 양천구 화곡로 64-0",37.53906,126.82896
2940,"화곡","금화왕돈까스신월점","맛집","서울 양천구 화곡로 91-0",37.539776,126.83217
2941,"화랑대","태릉CC","관광지","서울 노원구 화랑로 682-0",37.6311228,127.1086374
2942,"화랑대","태릉","관광지","서울 노원구 화랑로 681-0",37.63418043,127.0969219
2943,"화랑대","노원불빛정원","관광지","서울 노원구 화랑로 608-0",37.62445634,127.0930954
2944,"화랑대","경춘선숲길","관광지","서울 노원구",37.6315556,127.0695734
2945,"화랑대","육사야구장","관광지","서울 노원구 화랑로 682-0",37.62926184,127.0981662
2946,"화랑대","공릉동근린공원","관광지","서울 노원구",37.6207072,127.0863618
2947,"화랑대","목예원","관광지","서울 노원구 화랑로 606-0",37.62492898,127.0933055
2948,"화랑대","경춘선숲길갤러리","관광지","서울 노원구",37.62410662,127.0924634
2949,"화랑대","화랑대역사전시관","관광지","서울 노원구 화랑로 610-0",37.62426734,127.0933323
2950,"화랑대","법장사","관광지","서울 중랑구 숙선옹주로 69-0",37.61487453,127.0840843
2951,"화랑대","기차가있는풍경","맛집","서울 노원구 화랑로 608-0",37.62445,127.09309
2952,"화랑대","오스테리아잭팟","맛집","서울 노원구 화랑로53길 14-0",37.6266,127.094025
2953,"화랑대","테르미니","맛집","서울 노원구 화랑로53길 12-0",37.626465,127.09409
2954,"화랑대","페페그라노","맛집","서울 노원구 공릉로32길 5-0",37.622047,127.07962
2955,"화랑대","화랑대철도공원","관광지","서울 노원구",37.62393421,127.0920613
2956,"화랑대","태명정육식당","맛집","서울 중랑구 공릉로14길 20-12",37.617104,127.0806
2957,"회기","놀부만두","맛집","서울 동대문구 망우로16길 15-0",37.58935,127.061485
2958,"회기","레알라면","맛집","서울 동대문구 회기로25길 23-5",37.59112,127.055374
2959,"회기","삼육서울병원 추모관식당","맛집","서울 동대문구 망우로 82-0",37.586212,127.06355
2960,"회기","소담촌장안점","맛집","서울 동대문구 사가정로 207-0",37.57889,127.068016
2961,"회기","팔각도경희대점","맛집","서울 동대문구 회기로13길 10-0",37.591946,127.051056
2962,"회기","청량사","관광지","서울 동대문구 제기로31길 10-3",37.58857134,127.0476294
2963,"회기","회기왕족발","맛집","서울 동대문구 회기로 158-0",37.590855,127.0535
2964,"회기","고황24시뼈다귀해장국감자탕","맛집","서울 동대문구 경희대로1길 8-16",37.592342,127.05205
2965,"회기","시립동대문청소년센터","관광지","서울 동대문구 제기로33길 25-0",37.58723862,127.0499765
2966,"회기","연화사","관광지","서울 동대문구 경희대로3길 56-0",37.59435763,127.0504642
2967,"회기","홍익돈까스회기역점","맛집","서울 동대문구 망우로21길 52-0",37.590397,127.059875
2968,"회현","양미옥남대문점","맛집","서울 중구 남대문로5길 9-1",37.56156,126.9787
2969,"회현","야래향","맛집","서울 은평구 통일로 1010-0",37.632797,126.91857
2970,"회현","나폴레옹과자점본점","맛집","서울 성북구 성북로 7-0",37.5889,127.00506
2971,"회현","카페마뫼","맛집","서울 중구 소파로 41-0",37.555172,126.98135
2972,"회현","팔레드신","맛집","서울 중구 퇴계로 67-0",37.55973,126.97952
2973,"회현","신세계백화점/본점","관광지","서울 중구 소공로 63-0",37.56093568,126.9811497
2974,"회현","신세계백화점/본점신관","관광지","서울 중구 소공로 63-0",37.56032464,126.9807886
2975,"회현","남산공원","관광지","서울 중구 소파로 46-0",37.5509369,126.9908989
2976,"회현","남산케이블카","관광지","서울 중구 소파로 83-0",37.55663064,126.9839828
2977,"회현","남대문시장","관광지","서울 중구",37.55921364,126.97765
2978,"회현","ddp패션몰","관광지","서울 중구 마장로 22-0",37.56729625,127.0122023
2979,"회현","신세계면세점/명동점","관광지","서울 중구 퇴계로 77-0",37.56040796,126.9808164
2980,"회현","피크닉","관광지","서울 중구 퇴계로6가길 30-0",37.5569639,126.9781222
2981,"회현","남산백범광장","관광지","서울 중구",37.55488081,126.979261
2982,"회현","화폐박물관","관광지","서울 중구 남대문로 39-0",37.56207443,126.9805386
2983,"효창공원앞","MTL효창점","맛집","서울 용산구 효창원로69길 25-0",37.54203,126.9609
2984,"효창공원앞","창성옥용문본점","맛집","서울 용산구 새창로 124-10",37.536392,126.96041
2985,"효창공원앞","우스블랑","맛집","서울 용산구 효창원로70길 4-0",37.541412,126.96238
2986,"효창공원앞","용문해장국","맛집","서울 용산구 효창원로 110-0",37.53797,126.960884
2987,"효창공원앞","용마루고개","관광지","서울 용산구",37.54041014,126.958513
2988,"효창공원앞","김세중미술관","관광지","서울 용산구 효창원로70길 35-0",37.5420211,126.9638736
2989,"효창공원앞","백범김구기념관","관광지","서울 용산구 임정로 26-0",37.54424303,126.9591796
2990,"효창공원앞","용문시장","관광지","서울 용산구",37.53596622,126.9602629
2562,"증산","도깨비우동","맛집","서울 서대문구 증가로 250-0",37.583347,126.91225
2563,"증산","헬로방방/남가좌충암점","관광지","서울 서대문구 명지대길 103-0",37.58459925,126.9228769
2564,"증산","백련상가","관광지","서울 서대문구 가재울로6길 53-87",37.57698902,126.9230992
2565,"증산","은가어린이공원","관광지","서울 서대문구",37.5827124,126.9194841
2566,"증산","진곰숯불갈비","맛집","서울 은평구 증산로 345-0",37.587303,126.912415
2567,"증산","제주은희네해장국증산점","맛집","서울 은평구 증산로 335-0",37.586433,126.9119
2568,"증산","한촌설렁탕북가좌점","맛집","서울 서대문구 응암로 67-0",37.57921,126.91055
2569,"증산","쿳사","맛집","서울 서대문구 증가로 48-0",37.57218,126.92939
2570,"증산","이정희떡볶이","맛집","서울 서대문구 증가로10길 14-0",37.578087,126.92332
2571,"증산","우자매순대국","맛집","서울 서대문구 거북골로24길 65-0",37.58197,126.909424
2572,"증산","영양센타모래내점","맛집","서울 서대문구 모래내로 271-0",37.57724,126.928215
2573,"증산","빈플루","맛집","서울 서대문구 응암로 118-0",37.582916,126.91386
2574,"증산","모래내설농탕본점","맛집","서울 서대문구 모래내로 271-0",37.57724,126.928215
2575,"증산","모래내곱창","맛집","서울 서대문구 증가로10길 26-0",37.5784,126.923645
2576,"증산","맛있는칼국수","맛집","서울 서대문구 불광천길 150-0",37.581905,126.908905
2577,"증산","등촌샤브칼국수명지대점","맛집","서울 서대문구 모래내로 273-0",37.57725,126.92842
2578,"증산","은평구생활체육광장","관광지","서울 은평구",37.58454358,126.9026565
2579,"창동","창동극장","관광지","서울 도봉구 노해로 391-0",37.65281438,127.0516146
2580,"창동","꿀소담","맛집","서울 도봉구 해등로16길 67-0",37.65508,127.04375
2581,"창동","키블리","관광지","서울 도봉구 도봉로136가길 73-0",37.65570288,127.0428376
2582,"창동","플랫폼창동61","관광지","서울 도봉구 마들로11길 74-0",37.65409489,127.0487402
2583,"창동","렛츠런CCC/도봉지점","관광지","서울 도봉구 노해로67길 14-0",37.65231442,127.0493926
2584,"창동","이마트/창동점","관광지","서울 도봉구 노해로65길 4-0",37.65181446,127.0471983
2585,"창동","하나로마트/창동점","관광지","서울 도봉구 마들로11길 20-0",37.65478637,127.0513368
2586,"창동","초안산인조잔디축구장","관광지","서울 노원구 마들로5가길 113-0",37.6385807,127.0508879
2587,"창동","공생선원","관광지","서울 도봉구 도봉로 575-0",37.65639721,127.0387268
2588,"창동","무중력지대도봉","관광지","서울 도봉구 마들로11길 75-0",37.65314765,127.0486982
2589,"창동","대관령감자옹심이","맛집","서울 도봉구 해등로16길 55-0",37.655296,127.04301
2590,"창동","하누소창동본점","맛집","서울 도봉구 노해로 327-0",37.651505,127.04481
2591,"창동","창동두리네곱창전문점","맛집","서울 도봉구 해등로16길 46-0",37.655178,127.04242
2592,"창동","찌마기창동점","맛집","서울 도봉구 마들로11가길 13-0",37.652905,127.0492
2593,"창동","연안식당창동점","맛집","서울 도봉구 노해로 341-0",37.651443,127.04591
2594,"창동","삼성숯불갈비","맛집","서울 도봉구 도당로 36-0",37.66129,127.03502
2595,"창동","복진해물잔치마당","맛집","서울 도봉구 방학로11길 101-0",37.65838,127.03438
2596,"창동","등촌샤브칼국수창동역점","맛집","서울 도봉구 도봉로136가길 69-0",37.656124,127.04261
2597,"창신","테르트르","맛집","서울 종로구 낙산5길 46-0",37.578224,127.01119
2598,"창신","깃대봉냉면","맛집","서울 종로구 지봉로12길 3-0",37.577183,127.01575
2599,"천왕","항동철길","관광지","서울 구로구",37.48624895,126.8295807
2600,"천호","천호문구완구거리","관광지","서울 강동구 천호대로 0-0",37.5394946,127.1227482
2601,"천호","현대백화점/천호점","관광지","서울 강동구 천호대로 1005-0",37.53888357,127.1244703
2602,"천호","이마트/천호점","관광지","서울 강동구 천호대로 1017-0",37.53860583,127.1256368
2603,"천호","롯데시네마/강동","관광지","서울 강동구 천호옛길 85-0",37.53666161,127.1253313
2604,"천호","2001아울렛/천호점","관광지","서울 강동구 구천면로 189-0",37.54116109,127.1259701
2605,"천호","천호공원","관광지","서울 강동구 올림픽로 702-0",37.54429962,127.1263311
2606,"천호","천호로데오거리","관광지","서울 강동구",37.53905023,127.1274422
2607,"천호","고분다리전통시장","관광지","서울 강동구 구천면로34길 10-0",37.54232766,127.1318029
2608,"천호","송월냉면","맛집","서울 강동구 구천면로29길 26-0",37.54148,127.12946
2609,"천호","아웃백스테이크하우스천호점","맛집","서울 강동구 올림픽로 660-0",37.54017,127.12457
2610,"천호","쿠우쿠우천호점","맛집","서울 강동구 천호대로157길 18-0",37.538498,127.12749
2611,"천호","성내전통시장","관광지","서울 강동구 천호대로162길 61-0",37.53430079,127.1279144
2612,"천호","한강공원광나루모형비행장","관광지","서울 강동구",37.54688261,127.1194984
2613,"천호","렛츠런CCC/강동지점","관광지","서울 강동구 구천면로 200-0",37.53980014,127.1265534
2614,"천호","광나루자전거공원","관광지","서울 강동구",37.54516059,127.119054
2615,"천호","천호공구거리","관광지","서울 강동구",37.54149437,127.1234148
2616,"천호","광진교8번가","관광지","서울 강동구",37.54451036,127.1142723
2617,"천호","풍납전통시장","관광지","서울 송파구 바람드리길 50-0",37.5366686,127.1214748
2618,"천호","왕도매식자재마트/천호점","관광지","서울 강동구 올림픽로 713-0",37.54499398,127.1253034
2619,"천호","나비쇼핑몰","관광지","서울 강동구 천호대로157길 14-0",37.53824477,127.1273033
2620,"천호","한강시민공원광나루지구수영장","관광지","서울 강동구",37.5485749,127.12133
2621,"천호","브랜뉴하이몬드","맛집","서울 강동구 천호옛14길 11-0",37.536434,127.12616
2622,"천호","로니로티천호점","맛집","서울 강동구 천호대로 1027-0",37.53811,127.126396
2623,"청담","청담골","맛집","서울 강남구 선릉로148길 48-0",37.522766,127.0434
2624,"청담","페어링룸","맛집","서울 강남구 도산대로81길 14-0",37.52538,127.04784
2625,"청담","피양옥","맛집","서울 강남구 삼성로133길 14-0",37.519455,127.0483
2626,"청담","새벽집청담동점","맛집","서울 강남구 도산대로101길 6-0",37.525562,127.05287
2627,"청담","몽중헌청담점","맛집","서울 강남구 도산대로 445-0",37.524334,127.044785
2628,"청담","영천영화청담점","맛집","서울 강남구 도산대로90길 3-0",37.52396,127.049576
2629,"청담","뜨락","맛집","서울 강남구 영동대로142길 13-3",37.524414,127.05555
2630,"청담","더라운드삼성점","맛집","서울 강남구 영동대로 648-0",37.519997,127.05767
2631,"청담","긴자청담점","맛집","서울 강남구 도산대로 534-0",37.524395,127.05186
2632,"청담","강강술래청담점","맛집","서울 강남구 도산대로 535-0",37.52518,127.05216
2633,"청담","리사르커피청담점","맛집","서울 강남구 도산대로99길 60-0",37.527084,127.04843
2634,"청량리","카페NSW","맛집","서울 동대문구 왕산로 273-0",37.585155,127.05076
2635,"청량리","할머니냉면","맛집","서울 동대문구 왕산로37길 51-0",37.58227,127.04368
2636,"청량리","혜성칼국수","맛집","서울 동대문구 왕산로 247-1",37.583424,127.04899
2637,"청량리","홍릉각","맛집","서울 동대문구 약령시로 90-0",37.58286,127.03996
2638,"청량리","로운샤브샤브롯데백화점청량리점","맛집","서울 동대문구 왕산로 214-0",37.584198,127.05115
2639,"청량리","신락원","맛집","서울 동대문구 전농로20길 2-0",37.5789,127.05717
2640,"청량리","애슐리퀸즈롯데백화점청량리점","맛집","서울 동대문구 왕산로 214-0",37.584198,127.05115
2641,"청량리","은하곱창","맛집","서울 동대문구 전농로15길 22-0",37.57804,127.05631
2642,"청량리","롯데백화점/청량리점","관광지","서울 동대문구 왕산로 214-0",37.58073936,127.0476712
2643,"청량리","롯데마트/청량리점","관광지","서울 동대문구 왕산로 214-0",37.58071159,127.0483656
2644,"청량리","청량리청과물시장","관광지","서울 동대문구 왕산로 167-0",37.57946169,127.0416718
2645,"청량리","롯데시네마/청량리","관광지","서울 동대문구 왕산로 214-0",37.58060049,127.0480045
2646,"청량리","청량리수산시장","관광지","서울 동대문구 고산자로34길 48-1",37.57782299,127.0414218
2647,"청량리","청량종합도매시장","관광지","서울 동대문구 경동시장로 3-1",37.5818503,127.0404219
2648,"청량리","전농로터리시장","관광지","서울 동대문구",37.57790641,127.056726
2649,"청량리","청량리농수산물시장","관광지","서울 동대문구",37.58082264,127.0404497
2650,"청량리","전곡마을마당공원","관광지","서울 동대문구",37.58076718,127.0545317
2651,"청량리","청량리시장","관광지","서울 동대문구 홍릉로 13-0",37.58057268,127.0430883
2652,"청량리","츄츄볼리키즈카페","관광지","서울 동대문구 왕산로 214-0",37.58096155,127.0469768
2653,"청량리","이삭어린이공원","관광지","서울 동대문구",37.57882293,127.0495322
2654,"청량리","깡통시장","관광지","서울 동대문구 경동시장로 50-0",37.58532213,127.042255
2655,"총신대입구","남성사계시장","관광지","서울 동작구 동작대로29길 9-0",37.48844406,126.9805393
2656,"총신대입구","닥터방방","관광지","서울 동작구 동작대로29길 69-0",37.48844404,126.9781229
2657,"충무로","대한극장","관광지","서울 중구 퇴계로 212-0",37.56110242,126.9953428
2658,"충무로","남산골한옥마을","관광지","서울 중구 퇴계로34길 28-0",37.55921374,126.9944818
2659,"충무로","오발탄충무로점","맛집","서울 중구 퇴계로 205-0",37.561756,126.99486
2660,"충무로","필동면옥","맛집","서울 중구 서애로 26-0",37.560394,126.997
2661,"충무로","한국의집","맛집","서울 중구 퇴계로36길 10-0",37.560223,126.9945
2662,"충정로","중림장","맛집","서울 중구 청파로 459-1",37.560276,126.967705
2663,"충정로","철길떡볶이","맛집","서울 서대문구 충정로 35-6",37.559223,126.961685
2664,"충정로","청년예술청","관광지","서울 서대문구 경기대로 26-26",37.56139608,126.9624805
2665,"충정로","서소문성지역사박물관","관광지","서울 중구 칠패로 5-0",37.56060231,126.9688452
2666,"태릉입구","동적깡통구이태릉입구직영점","맛집","서울 중랑구 중랑역로 263-1",37.616096,127.07752
2667,"태릉입구","서울생활사박물관","관광지","서울 노원구 동일로174길 27-0",37.6198739,127.0769737
2668,"태릉입구","할매복집","맛집","서울 중랑구 공릉로 82-0",37.61771,127.07923
2669,"태릉입구","태릉설렁탕전문점","맛집","서울 중랑구 공릉로 65-0",37.616463,127.07932
2670,"태릉입구","먹고을전주콩나물국밥묵동본점","맛집","서울 중랑구 중랑역로 268-0",37.615963,127.07797
2671,"태릉입구","태능고향풍천장어본점","맛집","서울 노원구 화랑로 459-0",37.618755,127.07816
2672,"태릉입구","제일콩집","맛집","서울 노원구 동일로174길 37-8",37.61952,127.07765
2673,"태릉입구","안시성","맛집","서울 노원구 화랑로 475-0",37.61937,127.07987
2674,"태릉입구","산들바다","맛집","서울 노원구 화랑로 443-0",37.61828,127.076584
2675,"태릉입구","백소정공릉점","맛집","서울 노원구 동일로 1024-0",37.62163,127.074646
2676,"태릉입구","메트로폴리스","맛집","서울 노원구 동일로178길 11-9",37.62149,127.07507
2677,"태릉입구","공릉본점닭한마리본점","맛집","서울 노원구 동일로 1020-0",37.6212,127.07479
2678,"태릉입구","경회루","맛집","서울 노원구 동일로 1005-0",37.619926,127.07452
2679,"태릉입구","경성초밥","맛집","서울 노원구 공릉로 119-5",37.62104,127.07816
2680,"태릉입구","서울장미공원","관광지","서울 중랑구",37.61517998,127.0730853
2681,"태릉입구","개미어린이공원","관광지","서울 노원구",37.62062382,127.077807
2682,"태릉입구","더아리움","관광지","서울 노원구 동일로174길 27-0",37.6196517,127.0765571
2683,"태릉입구","공릉동도깨비시장","관광지","서울 노원구 동일로180길 22-0",37.62248471,127.0759183
2684,"태릉입구","채선당묵동점","맛집","서울 중랑구 동일로 942-0",37.61467,127.077126
2685,"하계","DNJ","맛집","서울 노원구 노원로 244-0",37.639523,127.07431
2686,"하계","경춘선숲길방문자센터","관광지","서울 노원구",37.63170582,127.0697243
2687,"하계","신가네칼국수","맛집","서울 노원구 공릉로59나길 78-14",37.635693,127.07024
2688,"하계","신고집찜칼국수본점","맛집","서울 노원구 노원로15길 51-30",37.63946,127.0701
2689,"하계","애슐리퀸즈2001아울렛중계점","맛집","서울 노원구 동일로204가길 46-0",37.641285,127.06791
2690,"하계","장위동유성집노원점","맛집","서울 노원구 한글비석로1길 68-0",37.640823,127.070496
2691,"하계","제형면옥하계점","맛집","서울 노원구 공릉로65길 16-0",37.635372,127.07007
2692,"하계","참누렁소가든","맛집","서울 노원구 공릉로63길 13-0",37.634884,127.070526
2693,"하계","해품장팔팔장어","맛집","서울 노원구 노원로 192-0",37.637447,127.07954
2694,"하계","향림","맛집","서울 노원구 한글비석로 127-0",37.639458,127.07552
2695,"하계","홈플러스/중계점","관광지","서울 노원구 동일로204가길 12-0",37.63984376,127.0686687
2696,"하계","세이브존/노원점","관광지","서울 노원구 한글비석로 57-0",37.63667746,127.0684188
2697,"하계","서울시립북서울미술관","관광지","서울 노원구 동일로 1238-0",37.64087141,127.06678
2698,"하계","건영백화점","관광지","서울 노원구 섬밭로 258-0",37.63867721,127.0648358
2699,"하계","CGV/중계","관광지","서울 노원구 동일로204가길 12-0",37.63990053,127.068615
2700,"하계","CGV/하계","관광지","서울 노원구 섬밭로 258-0",37.63867721,127.0648635
2701,"하계","불암산스포츠타운","관광지","서울 노원구 중계로 36-0",37.63917727,127.0839729
2702,"하계","서울시립과학관","관광지","서울 노원구 한글비석로 160-0",37.64170471,127.076918
2703,"하계","키즈런","관광지","서울 노원구 동일로203가길 21-2",37.63862166,127.0648635
2704,"하계","등나무근린공원","관광지","서울 노원구 동일로204길 13-0",37.64051034,127.0671133
2705,"하계","중계근린공원","관광지","서울 노원구",37.63987152,127.0657801
2706,"하계","하계어린이공원","관광지","서울 노원구",37.63217799,127.0691965
2707,"하계","뉴서울온천","관광지","서울 노원구 노원로 247-0",37.63948272,127.0734183
2708,"하계","더블에잇/2001아울렛중계점","관광지","서울 노원구 동일로204가길 46-0",37.64128804,127.0679466
2709,"하계","하계어울림센터","관광지","서울 노원구 공릉로58가길 13-0",37.63609422,127.0725018
2710,"하계","불암산더불어숲","관광지","서울 노원구",37.63939945,127.0820286
2711,"하계","마들원","맛집","서울 노원구 공릉로62길 27-11",37.636414,127.0713
2712,"학동","진미평양냉면","맛집","서울 강남구 학동로 305-3",37.516144,127.03604
2713,"학동","영동장어","맛집","서울 강남구 언주로148길 8-0",37.520317,127.03534
2714,"학동","평양면옥강남점","맛집","서울 강남구 논현로150길 6-0",37.51894,127.02916
2715,"학여울","SETEC","관광지","서울 강남구 남부순환로 3104-0",37.49574933,127.0718088
2716,"한강진","리움미술관","관광지","서울 용산구 이태원로55길 60-16",37.53836183,126.9991701
2717,"한강진","페이스서울","관광지","서울 용산구 이태원로 267-0",37.53852022,127.0011341
2718,"한강진","용산공예관","관광지","서울 용산구 이태원로 274-0",37.53902168,127.0020924
2719,"한강진","패션5","맛집","서울 용산구 이태원로 272-0",37.53871,127.002075
2720,"한강진","나리의집","맛집","서울 용산구 이태원로 245-0",37.536907,127.00004
2721,"한강진","콘하스한남점","맛집","서울 용산구 이태원로55나길 22-0",37.536854,126.99804
2722,"한강진","올드페리도넛","맛집","서울 용산구 한남대로27길 66-0",37.5396,127.003
2723,"한강진","라쿠치나본점","맛집","서울 용산구 회나무로44길 10-0",37.54055,126.99646
2724,"한강진","부자피자한강진1호점","맛집","서울 용산구 이태원로55가길 28-0",37.537266,126.9998
2725,"한강진","앤더슨씨나인원한남점","맛집","서울 용산구 한남대로 91-0",37.536564,127.00214
2726,"한강진","라인드한남","맛집","서울 용산구 이태원로55길 11-0",37.53825,127.00086
2727,"한강진","써머레인","맛집","서울 용산구 이태원로55가길 49-0",37.536358,126.99927
2728,"한강진","맥심플랜트","맛집","서울 용산구 이태원로 250-0",37.53699,127.001
2729,"한강진","고메이494한남","맛집","서울 용산구 한남대로 91-0",37.536564,127.00214
2730,"한강진","난포한남점","맛집","서울 용산구 이태원로49길 18-0",37.537163,126.999504
2731,"한강진","블루보틀한남카페","맛집","서울 용산구 한남대로 91-0",37.536564,127.00214
2732,"한강진","휴135","맛집","서울 용산구 이태원로55나길 6-0",37.536667,126.99909
2733,"한강진","리틀넥한남","맛집","서울 용산구 한남대로27길 66-0",37.5396,127.003
2734,"한강진","로코스비비큐경리단길본점","맛집","서울 용산구 회나무로 83-0",37.54099,126.99554
2735,"한강진","더백푸드트럭","맛집","서울 용산구 신흥로20길 45-1",37.547527,126.98405
2736,"한강진","레호이","맛집","서울 용산구 소월로38가길 5-0",37.543232,126.99017
2737,"한강진","바다식당","맛집","서울 용산구 이태원로 245-0",37.536907,127.00004
2738,"한강진","남산야외식물원","관광지","서울 용산구 소월로 323-0",37.54246569,126.9963151
2739,"한강진","블루스퀘어","관광지","서울 용산구 이태원로 294-0",37.54091035,127.0024535
2740,"한강진","알부스갤러리","관광지","서울 용산구 한남대로28길 26-0",37.53821624,127.0059254
2741,"한강진","일신홀","관광지","서울 용산구 한남대로 98-0",37.53718858,127.0055088
2742,"한성대입구","금왕돈까스","맛집","서울 성북구 성북로 138-0",37.594833,126.994385
2743,"한성대입구","국화정원","맛집","서울 성북구 성북로 154-0",37.594563,126.99271
2744,"한성대입구","국시집","맛집","서울 성북구 창경궁로43길 9-0",37.58843,127.0043
2745,"한성대입구","구포국수1호점","맛집","서울 성북구 성북로 52-1",37.592518,127.002785
2746,"한성대입구","Neighborhood","맛집","서울 성북구 대사관로 133-0",37.60072,126.995125
2747,"한성대입구","조셉의커피나무","맛집","서울 성북구 성북로31길 65-0",37.594597,126.98861
2748,"한성대입구","우주제빵소","맛집","서울 성북구 성북로28길 13-0",37.59522,126.99346
2749,"한성대입구","오박사네왕돈까스본점","맛집","서울 성북구 혜화로 80-0",37.592594,126.998985
2750,"한성대입구","알렉스더커피성북점","맛집","서울 성북구 성북로28길 9-0",37.595104,126.993515
2751,"한성대입구","쌍다리돼지불백본점","맛집","서울 성북구 성북로23길 4-0",37.5935,126.99569
2752,"한성대입구","수연산방","맛집","서울 성북구 성북로26길 8-0",37.595055,126.994835
2753,"한성대입구","손가네","맛집","서울 성북구 성북로15길 8-0",37.593113,127.00033
2754,"한성대입구","성북동집","맛집","서울 성북구 성북로24길 4-0",37.59445,126.995674
2755,"한성대입구","와룡공원","관광지","서울 종로구",37.59062675,126.9906207
2756,"한성대입구","북악스카이웨이","관광지","서울 종로구",37.6006255,126.9757331
2757,"한성대입구","성북선잠박물관","관광지","서울 성북구 성북로 96-0",37.59323761,126.9982311
2758,"한성대입구","선잠단지","관광지","서울 성북구",37.59357091,126.999481
2759,"한성대입구","홍련사","관광지","서울 성북구 대사관로 1-0",37.59943124,126.9836491
2760,"한성대입구","리홀뮤직갤러리","관광지","서울 성북구 성북로31길 9-0",37.594573,126.9905213
2761,"한성대입구","바움아트스페이스","관광지","서울 성북구 성북로31길 69-0",37.59462627,126.988482
2762,"한성대입구","리홀아트갤러리","관광지","서울 성북구 성북로31길 5-0",37.59459851,126.9910095
2763,"한성대입구","칠보사","관광지","서울 성북구 성북로28길 66-0",37.59648719,126.9918706
2764,"한성대입구","여행자극장","관광지","서울 성북구 성북로5길 9-3",37.58893259,127.0046473
2765,"한성대입구","팔정사","관광지","서울 성북구 성북로31가길 82-0",37.59609831,126.9852323
2766,"한성대입구","삼청각/유하정","관광지","서울 성북구",37.59754257,126.9830102
2767,"한성대입구","제이슨함","관광지","서울 성북구 성북로31길 73-0",37.59457072,126.9883987
2768,"한성대입구","예향재","관광지","서울 성북구 성북로31길 97-0",37.59390414,126.9886764
2769,"한성대입구","성북천분수광장","관광지","서울 성북구",37.58815491,127.006786
2770,"한성대입구","LKATEGallery","관광지","서울 성북구 성북로 189-0",37.59604654,126.9894511
2771,"한성대입구","수월암","관광지","서울 성북구 성북로 170-0",37.59507068,126.9910373
2772,"한성대입구","만해한용운심우장","관광지","서울 성북구 성북로29길 24-0",37.59365418,126.9917595
2773,"한성대입구","BB&M","관광지","서울 성북구 성북로23길 10-0",37.59338198,126.9953828
2774,"한성대입구","정각사","관광지","서울 성북구 삼선교로10마길 6-12",37.58471087,127.0080359
2775,"한성대입구","우들","관광지","서울 성북구 성북로 34-0",37.59104345,127.0039251
2776,"한성대입구","최순우옛집","관광지","서울 성북구 성북로15길 9-0",37.59290432,127.0003143
2777,"한성대입구","성북구립미술관","관광지","서울 성북구 성북로 134-0",37.59482073,126.9948981
2778,"한성대입구","우리옛돌박물관","관광지","서울 성북구 대사관로13길 66-0",37.60087556,126.9900651
2779,"한성대입구","한국가구박물관","관광지","서울 성북구 대사관로 121-0",37.60001457,126.9931204
2780,"한성대입구","간송미술관","관광지","서울 성북구 성북로 102-11",37.59365422,126.9968701
2781,"한성대입구","삼청각","관광지","서울 성북구 대사관로 3-0",37.59737593,126.984149
2782,"한성대입구","길상사","관광지","서울 성북구 선잠로5길 68-0",37.59890359,126.9943981
