,NAME,ADDRESS,CATE,SUBCATE,STATION,LAT,LON,STATION_NAME
0,LAB1004,서울 금천구 벚꽃로 104-0,맛집,카페/찻집,독산역,37.46456408,126.8910696,독산
1,가산물갈비&백년불고기,서울 금천구 가산디지털1로 128-0,맛집,한식,가산디지털단지역,37.47723652,126.8836952,가산디지털단지
2,강강술래시흥점,서울 금천구 시흥대로 193-0,맛집,한식,금천구청역,37.45099327,126.9012779,금천구청
3,개성손만두요리전문점가산디지털점,서울 금천구 가산로9길 22-0,맛집,한식,가산디지털단지역,37.47684165,126.8905299,가산디지털단지
4,궁전산들애밥상,서울 금천구 독산로 178-1,맛집,한식,독산역,37.46324816,126.9039601,독산
5,김명태매운갈비찜가산점,서울 금천구 가산로 132-1,맛집,한식,가산디지털단지역,37.47734912,126.8919219,가산디지털단지
6,김밥전문공간얌얌,서울 금천구 금하로 675-0,맛집,간이음식,독산역,37.45279752,126.9054298,독산
7,논빼미돼지볶음,서울 금천구 시흥대로 185-0,맛집,한식,독산역,37.45035977,126.9018324,독산
8,더카페이네스트점,서울 금천구 범안로 1155-0,맛집,카페/찻집,독산역,37.46681871,126.8900295,독산
9,도넛 인사이드 도넛,서울 금천구 시흥대로141길 81-0,맛집,간이음식,가산디지털단지역,37.47650429,126.8976418,가산디지털단지
10,도원,서울 금천구 범안로 1130-0,맛집,외국식,독산역,37.46552156,126.8876722,독산
11,독산동먹자골목,서울 금천구,맛집,기타음식,독산역,37.45684115,126.8954568,독산
12,동남집,서울 금천구 가산디지털1로 149-0,맛집,한식,가산디지털단지역,37.47874164,126.8818627,가산디지털단지
13,동흥관,서울 금천구 시흥대로63길 20-0,맛집,외국식,금천구청역,37.45522396,126.8985984,금천구청
14,두껍삼가산직영점,서울 금천구 벚꽃로38길 43-0,맛집,한식,가산디지털단지역,37.48301816,126.884759,가산디지털단지
15,떡볶이랑걸레만두랑,서울 금천구 시흥대로58길 13-0,맛집,간이음식,금천구청역,37.45383936,126.9022223,금천구청
16,로운샤브샤브금천점,서울 금천구 시흥대로 291-0,맛집,외국식,금천구청역,37.45995605,126.8966992,금천구청
17,마벨리에시흥점,서울 금천구 시흥대로 201-0,맛집,전문음식,금천구청역,37.45190478,126.9007948,금천구청
18,만두라,서울 금천구 시흥대로 97-0,맛집,한식,석수역,37.44468212,126.9010724,석수
19,망향비빔국수금천직영점,서울 금천구 가산디지털1로 186-0,맛집,한식,가산디지털단지역,37.48191309,126.8815811,가산디지털단지
20,명륜진사갈비독산점,서울 금천구 시흥대로 447-0,맛집,한식,독산역,37.47356478,126.8978903,독산
21,명륜진사갈비석수역점,서울 금천구 시흥대로 10-0,맛집,한식,석수역,37.43498672,126.9034307,석수
22,명륜진사갈비시흥사거리점,서울 금천구 시흥대로 266-0,맛집,한식,금천구청역,37.45752185,126.8999192,금천구청
23,미분당가산점,서울 금천구 디지털로10길 69-0,맛집,외국식,가산디지털단지역,37.47530023,126.8908539,가산디지털단지
24,본가집가마솥설렁탕금천구청본점,서울 금천구 시흥대로 269-0,맛집,한식,금천구청역,37.45765662,126.8989418,금천구청
25,부뚜막청국장,서울 금천구 독산로 242-0,맛집,한식,독산역,37.46837833,126.9024057,독산
26,북창동순두부독산점,서울 금천구 시흥대로123길 14-0,맛집,한식,독산역,37.47049161,126.8972654,독산
27,빵집아저씨,서울 금천구 독산로 112-0,맛집,간이음식,독산역,37.45738265,126.905616,독산
28,삼숙이 갈비,서울 금천구 벚꽃로 308-0,맛집,한식,금천구청역,37.48198703,126.8830881,금천구청
29,솔향기해물칼국수,서울 금천구 금하로 722-0,맛집,한식,독산역,37.45040766,126.9099224,독산
30,순댕이네얼큰수제비,서울 금천구 시흥대로136길 1-0,맛집,한식,가산디지털단지역,37.47234397,126.8993268,가산디지털단지
31,신선설농탕독산점,서울 금천구 시흥대로 405-0,맛집,한식,독산역,37.46995109,126.897565,독산
32,아웃백스테이크하우스가산점,서울 금천구 디지털로10길 9-0,맛집,외국식,가산디지털단지역,37.47761902,126.8890553,가산디지털단지
33,암소한마리,서울 금천구 시흥대로 371-0,맛집,한식,독산역,37.46669371,126.8973089,독산
34,어물전금천독산점,서울 금천구 시흥대로152길 11-43,맛집,한식,구로디지털단지역,37.47854595,126.9005716,구로디지털단지
35,왕게수산시흥동점,서울 금천구 시흥대로 182-0,맛집,외국식,독산역,37.45017016,126.9027602,독산
36,우리소양평해장국본점,서울 금천구 범안로 1244-0,맛집,한식,독산역,37.46625114,126.9000514,독산
37,우시장3호집,서울 금천구 시흥대로 364-0,맛집,한식,독산역,37.46607664,126.8980703,독산
38,원조홍어집,서울 금천구 금하로14길 2-3,맛집,외국식,금천구청역,37.45332697,126.9035539,금천구청
39,은행골가산디지털단지역점,서울 금천구 가산디지털1로 171-0,맛집,외국식,가산디지털단지역,37.4807624,126.8806788,가산디지털단지
40,은행골시흥분점,서울 금천구 시흥대로 198-0,맛집,외국식,금천구청역,37.45160777,126.9021563,금천구청
41,인크커피가산점,서울 금천구 가산디지털2로 127-20,맛집,카페/찻집,가산디지털단지역,37.47933939,126.8780731,가산디지털단지
42,진영면옥,서울 금천구 가산로 22-5,맛집,한식,독산역,37.47156992,126.9003999,독산
43,차림,서울 금천구 가산디지털1로 131-0,맛집,한식,가산디지털단지역,37.47708291,126.8819822,가산디지털단지
44,참숯구이육향,서울 금천구 가산디지털1로 225-0,맛집,한식,가산디지털단지역,37.48507253,126.8788845,가산디지털단지
45,채선당금천구청점,서울 금천구 시흥대로 277-0,맛집,외국식,금천구청역,37.45834121,126.8985235,금천구청
46,춘천옥,서울 금천구 디지털로12길 19-0,맛집,외국식,가산디지털단지역,37.47791045,126.8896829,가산디지털단지
47,커피베이가산직영점,서울 금천구 벚꽃로 254-0,맛집,카페/찻집,가산디지털단지역,37.47776302,126.8854927,가산디지털단지
48,코애식당,서울 금천구 가산디지털2로 127-33,맛집,외국식,가산디지털단지역,37.47838349,126.8777911,가산디지털단지
49,파티엘하우스,서울 금천구 디지털로 173-0,맛집,외국식,가산디지털단지역,37.47796964,126.8860685,가산디지털단지
50,풍년갈비,서울 금천구 디지털로12길 33-0,맛집,한식,가산디지털단지역,37.47749788,126.8900761,가산디지털단지
51,호세가,서울 금천구 남부순환로108길 19-0,맛집,외국식,가산디지털단지역,37.47793715,126.8923512,가산디지털단지
52,화로구이독산점,서울 금천구 범안로 1200-0,맛집,한식,독산역,37.46632999,126.8950699,독산
