,NAME,ADDRESS,CATE,SUBCATE,,LAT,LON,STATION_NAME
0,59쌀피자오류남부역점,서울 구로구 오류로8길 46-0,맛집,간이음식,오류동역,37.49182893,126.8430607,오류동
1,갈비명가,서울 구로구 가마산로 260-0,맛집,한식,대림역,37.49526303,126.8896663,대림
2,갓파스시구로점,서울 구로구 디지털로 288-0,맛집,외국식,구로디지털단지역,37.48356957,126.8955028,구로디지털단지
3,강촌숯불닭갈비본점,서울 구로구 공원로6나길 35-2,맛집,외국식,신도림역,37.50443248,126.8917146,신도림
4,개성면옥,서울 구로구 가마산로 204-0,맛집,한식,남구로역,37.49290273,126.8838109,남구로
5,경복궁디큐브점,서울 구로구 경인로 662-0,맛집,한식,신도림역,37.50812307,126.888213,신도림
6,깔깔거리,서울 구로구,맛집,기타음식,구로디지털단지역,37.49543309,126.8875053,구로디지털단지
7,다채개봉점,서울 구로구 개봉로23길 38-0,맛집,한식,개봉역,37.49599482,126.8566744,개봉
8,닥터로빈고척점,서울 구로구 경인로46길 51-0,맛집,외국식,구일역,37.49562175,126.8657527,구일
9,동대문엽기떡볶이구로점,서울 구로구 도림천로 338-0,맛집,간이음식,대림역,37.49480605,126.8938015,대림
10,뒤뜰,서울 구로구 안양천로539길 6-0,맛집,외국식,구일역,37.5050772,126.8705414,구일
11,등촌샤브칼국수,서울 구로구 구로중앙로 57-0,맛집,외국식,오목교역,37.49457168,126.8889855,오목교
12,라무진신도림역점,서울 구로구 경인로67길 23-0,맛집,한식,신도림역,37.51070955,126.8892324,신도림
13,류타이쿠진,서울 구로구 연동로11길 14-0,맛집,외국식,역곡역,37.48341844,126.8207469,역곡
14,메이비,서울 구로구 디지털로32나길 51-0,맛집,외국식,구로디지털단지역,37.48490133,126.9003821,구로디지털단지
15,명륜진사갈비서울 개봉점,서울 구로구 개봉로 27-0,맛집,한식,개봉역,37.48819048,126.8560058,개봉
16,명륜진사갈비서울오류점,서울 구로구 서해안로 2293-0,맛집,한식,오류동역,37.4914453,126.8397215,오류동
17,모메존칼국수,서울 구로구 경인로 18-0,맛집,한식,온수역,37.48907226,126.8248882,온수
18,봉고기신도림본점,서울 구로구 경인로 619-3,맛집,한식,신도림역,37.50688385,126.8840367,신도림
19,사월에쭈꾸미 현대백화점 디큐브시티,서울 구로구 경인로 662-0,맛집,외국식,신도림역,37.50812307,126.888213,신도림
20,새벽집 양곱창,서울 구로구 경인로61길 21-0,맛집,외국식,신도림역,37.50772099,126.8841447,신도림
21,생어거스틴지밸리몰점,서울 구로구 디지털로 300-0,맛집,외국식,구로디지털단지역,37.48492704,126.896538,구로디지털단지
22,샤브향구로점,서울 구로구 중앙로 13-0,맛집,외국식,구일역,37.49917235,126.8641089,구일
23,서울안심축산정육식당,서울 구로구 공원로 47-0,맛집,한식,대림역,37.5010208,126.889644,대림
24,서일순대국전문구로점,서울 구로구 구로중앙로 6-0,맛집,한식,대림역,37.49108694,126.8927768,대림
25,소담촌고척점,서울 구로구 경인로 397-0,맛집,한식,구일역,37.49769957,126.8638709,구일
26,송림가,서울 구로구 경인로 398-0,맛집,한식,구일역,37.49699769,126.8643486,구일
27,스시메이진구로점,서울 구로구 디지털로 300-0,맛집,외국식,구로디지털단지역,37.48492704,126.896538,구로디지털단지
28,신도림전주관,서울 구로구 새말로 97-0,맛집,한식,신도림역,37.50704384,126.8902273,신도림
29,신도림참족발신도림점,서울 구로구 경인로 661-0,맛집,외국식,신도림역,37.50904922,126.8869873,신도림
30,신림춘천집구로디지털직영점,서울 구로구 디지털로32나길 17-23,맛집,외국식,구로디지털단지역,37.4840587,126.8998466,구로디지털단지
31,신선설농탕고척점,서울 구로구 경인로 387-0,맛집,한식,개봉역,37.49708685,126.8631426,개봉
32,실크로드,서울 구로구 경인로 398-0,맛집,외국식,구일역,37.49699769,126.8643486,구일
33,애슐리퀸즈NC신구로점,서울 구로구 구로중앙로 152-0,맛집,외국식,구로역,37.50116014,126.882773,구로
34,앵커스볼링라운지,서울 구로구 디지털로31길 12-0,맛집,외국식,남구로역,37.48510657,126.8953634,남구로
35,어다리횟집구로점,서울 구로구 시흥대로 551-0,맛집,외국식,구로디지털단지역,37.48253994,126.9002463,구로디지털단지
36,옹기종기감자옹심이,서울 구로구 서해안로30길 13-8,맛집,한식,오류동역,37.49316274,126.8444642,오류동
37,왕뼈감자탕고척점,서울 구로구 중앙로 101-0,맛집,한식,양천구청역,37.50628298,126.8599326,양천구청
38,우방정육식당,서울 구로구 부일로1길 110-0,맛집,한식,온수역,37.49521616,126.8182295,온수
39,우월소곱창신도림본점,서울 구로구 경인로 631-0,맛집,외국식,신도림역,37.50736946,126.8853875,신도림
40,월래순교자관,서울 구로구 디지털로19길 12-0,맛집,외국식,남구로역,37.4803129,126.8900677,남구로
41,이춘복참치신도림디큐브시티점,서울 구로구 경인로 662-0,맛집,외국식,신도림역,37.50812307,126.888213,신도림
42,제주은희네해장국신도림점,서울 구로구 공원로6나길 44-0,맛집,한식,신도림역,37.50443432,126.8922492,신도림
43,조선갈비실록구로점,서울 구로구 경인로 572-0,맛집,한식,구로역,37.50330627,126.8810839,구로
44,참조은순대국전문점구로직영점,서울 구로구 구로중앙로 47-0,맛집,한식,대림역,37.4938736,126.8895846,대림
45,초가집부뚜막청국장,서울 구로구 구로중앙로28길 24-0,맛집,한식,우장산역,37.49919326,126.8874127,우장산
46,최우영스시,서울 구로구 디지털로 288-0,맛집,외국식,구로디지털단지역,37.48356957,126.8955028,구로디지털단지
47,컴포신도림점,서울 구로구 경인로67길 57-0,맛집,외국식,신도림역,37.51184375,126.8877201,신도림
48,토마토김밥 고척사거리점,서울 구로구 고척로 237-0,맛집,간이음식,양천구청역,37.50662298,126.8592913,양천구청
49,팔각도신도림역점,서울 구로구 경인로 643-0,맛집,전문음식,신도림역,37.50884988,126.8855536,신도림
50,평양면옥,서울 구로구 고척로10길 65-0,맛집,한식,동대문역사문화공원역,37.49644297,126.842175,동대문역사문화공원
51,폴바셋구로지밸리몰점,서울 구로구 디지털로 300-0,맛집,카페/찻집,구로디지털단지역,37.48492704,126.896538,구로디지털단지
52,한라산도새기오류점,서울 구로구 서해안로 2318-0,맛집,한식,신도림역,37.49252521,126.8425105,신도림
53,한우가,서울 구로구 공원로 67-0,맛집,한식,구로역,37.50235183,126.8884632,구로
54,할머니추어탕,서울 구로구 개봉로19길 39-0,맛집,한식,부평삼거리역,37.49354988,126.8558138,부평삼거리
55,행주산성 국수집,서울 구로구 신도림로 105-0,맛집,간이음식,도림천역,37.51215759,126.8853091,도림천
56,향원갈비,서울 구로구 개봉로20길 18-0,맛집,한식,개봉역,37.49289175,126.8564516,개봉
