,NAME,ADDRESS,CATE,SUBCATE,,LAT,LON,STATION_NAME
0,DNJ,서울 노원구 노원로 244-0,맛집,외국식,하계역,37.63952211,127.0743111,하계
1,감동식당,서울 노원구 한글비석로47길 58-0,맛집,한식,노원역,37.66161558,127.0665925,노원
2,강강술래상계점,서울 노원구 동일로 1628-0,맛집,한식,수락산역,37.67384341,127.0560304,수락산
3,경복식당,서울 노원구 공릉로39길 10-0,맛집,한식,공릉역,37.62371127,127.0788582,공릉
4,경성초밥,서울 노원구 공릉로 119-5,맛집,외국식,태릉입구역,37.62104058,127.0781639,태릉입구
5,경회루,서울 노원구 동일로 1005-0,맛집,한식,태릉입구역,37.6199277,127.0745144,태릉입구
6,고기파티,서울 노원구 중계로12길 6-0,맛집,한식,상계역,37.64763097,127.0811424,상계
7,공릉동국수거리,서울 노원구,맛집,기타음식,공릉역,37.65436176,127.0564305,공릉
8,공릉본점닭한마리본점,서울 노원구 동일로 1020-0,맛집,한식,태릉입구역,37.62120017,127.0747914,태릉입구
9,기차가있는풍경,서울 노원구 화랑로 608-0,맛집,카페/찻집,화랑대역,37.62445098,127.0930897,화랑대
10,돈까스먹는용만이,서울 노원구 한글비석로20길 52-0,맛집,외국식,상계역,37.66125624,127.0746116,상계
11,라라브레드공릉점,서울 노원구 공릉로41길 32-0,맛집,카페/찻집,공릉역,37.62486124,127.0778588,공릉
12,로니로티노원점,서울 노원구 상계로 63-7,맛집,외국식,노원역,37.65650993,127.0618893,노원
13,마들원,서울 노원구 공릉로62길 27-11,맛집,한식,하계역,37.63641548,127.0712969,하계
14,마실노원점,서울 노원구 노원로 412-0,맛집,한식,노원역,37.65340587,127.0681043,노원
15,마포생고기,서울 노원구 동일로190길 39-0,맛집,한식,공릉역,37.62601213,127.0752653,공릉
16,멍텅구리즉석떡볶이,서울 노원구 공릉로51길 14-2,맛집,간이음식,공릉역,37.62887637,127.0763821,공릉
17,메트로폴리스,서울 노원구 동일로178길 11-9,맛집,간이음식,태릉입구역,37.621492,127.075073,태릉입구
18,무명칼국수,서울 노원구 석계로7길 4-0,맛집,한식,석계역,37.61672145,127.063907,석계
19,무봉리토종순대국,서울 노원구 동일로192길 63-0,맛집,한식,공릉역,37.62715484,127.0762692,공릉
20,미스터아구,서울 노원구 덕릉로 744-0,맛집,한식,상계역,37.66387577,127.0765612,상계
21,백소정공릉점,서울 노원구 동일로 1024-0,맛집,외국식,태릉입구역,37.62163183,127.0746429,태릉입구
22,보타닉커피,서울 노원구 상계로3길 38-8,맛집,카페/찻집,노원역,37.65797486,127.0630404,노원
23,비손칼국수수락산점,서울 노원구 동일로 1660-0,맛집,한식,수락산역,37.67658859,127.0556677,수락산
24,산들바다,서울 노원구 화랑로 443-0,맛집,한식,태릉입구역,37.61828027,127.0765852,태릉입구
25,생선까시,서울 노원구 동일로191가길 22-0,맛집,한식,공릉역,37.62598217,127.0714211,공릉
26,소담촌노원역점,서울 노원구 상계로 90-0,맛집,한식,노원역,37.65627586,127.0645755,노원
27,소문난멸치국수,서울 노원구 동일로173가길 81-0,맛집,간이음식,공릉역,37.6218845,127.0724217,공릉
28,수락산먹자골목,서울 노원구 동일로230가길 0-0,맛집,기타음식,수락산역,37.6218845,127.0724217,수락산
29,수락이오냉면,서울 노원구 동일로237다길 7-0,맛집,한식,수락산역,37.67391626,127.0525831,수락산
30,쉐이크쉑노원점,서울 노원구 동일로 1414-0,맛집,간이음식,노원역,37.65527873,127.0613917,노원
31,슈엔챠이상계점,서울 노원구 동일로 1335-0,맛집,외국식,중계역,37.64799842,127.062273,중계
32,스시웨이노원점,서울 노원구 동일로 1374-0,맛집,외국식,노원역,37.65130926,127.0617569,노원
33,신가네칼국수,서울 노원구 공릉로59나길 78-14,맛집,한식,하계역,37.63569272,127.0702391,하계
34,신고집찜칼국수본점,서울 노원구 노원로15길 51-30,맛집,한식,하계역,37.63946117,127.0700977,하계
35,신선설농탕노원역점,서울 노원구 노해로 511-0,맛집,한식,노원역,37.65545769,127.0647241,노원
36,아웃백스테이크하우스노원점,서울 노원구 동일로 1419-0,맛집,전문음식,노원역,37.65530944,127.0598461,노원
37,안시성,서울 노원구 화랑로 475-0,맛집,외국식,태릉입구역,37.6193709,127.0798711,태릉입구
38,애슐리퀸즈2001아울렛중계점,서울 노원구 동일로204가길 46-0,맛집,외국식,하계역,37.64128649,127.0679074,하계
39,애슐리퀸즈이마트월계점,서울 노원구 마들로3길 15-0,맛집,외국식,광운대역,37.62650936,127.0619798,광운대
40,엄마손칼국수,서울 노원구 상계로39길 5-0,맛집,한식,당고개역,37.67103991,127.0802308,당고개
41,오스테리아잭팟,서울 노원구 화랑로53길 14-0,맛집,외국식,화랑대역,37.62659882,127.094024,화랑대
42,용순가재골수제비,서울 노원구 동일로242길 100-0,맛집,한식,수락산역,37.67443199,127.0606461,수락산
43,유정집,서울 노원구 동일로173가길 65-0,맛집,한식,공릉역,37.62116223,127.0726437,공릉
44,이종구낙지세상본점,서울 노원구 중계로 90-0,맛집,외국식,중계역,37.64388594,127.0834762,중계
45,이춘복참치노원직영점,서울 노원구 노해로85길 10-7,맛집,외국식,노원역,37.65617064,127.0655233,노원
46,장위동유성집노원점,서울 노원구 한글비석로1길 68-0,맛집,한식,하계역,37.64082493,127.0704967,하계
47,전민규의황제누룽지탕노원직영점,서울 노원구 노해로77길 14-8,맛집,한식,노원역,37.65472931,127.0596387,노원
48,제일콩집,서울 노원구 동일로174길 37-8,맛집,한식,태릉입구역,37.61952005,127.0776507,태릉입구
49,제형면옥하계점,서울 노원구 공릉로65길 16-0,맛집,한식,하계역,37.63537261,127.0700698,하계
50,중원,서울 노원구 동일로242가길 36-0,맛집,외국식,수락산역,37.67753304,127.0561586,수락산
51,쪼매매운떡볶이공릉점,서울 노원구 공릉로 208-0,맛집,간이음식,공릉역,37.62827071,127.07778,공릉
52,참누렁소가든,서울 노원구 공릉로63길 13-0,맛집,한식,하계역,37.63488364,127.0705236,하계
53,천하뼈다귀감자탕,서울 노원구 동일로 1595-0,맛집,한식,마들역,37.67091781,127.0556962,마들
54,청와정,서울 노원구 동일로 1611-0,맛집,한식,수락산역,37.67227049,127.0554335,수락산
55,청학골,서울 노원구 동일로192길 6-0,맛집,한식,공릉역,37.62553621,127.0735762,공릉
56,춘보만두,서울 노원구 섬밭로 56-0,맛집,한식,공릉역,37.62191766,127.0718366,공릉
57,카페브람스,서울 노원구 중계로8길 48-0,맛집,카페/찻집,상계역,37.64629132,127.0846982,상계
58,코타브레드,서울 노원구 공릉로 165-0,맛집,간이음식,공릉역,37.62473414,127.07956,공릉
59,크래버대게나라노원점,서울 노원구 한글비석로 326-0,맛집,외국식,상계역,37.65652305,127.078327,상계
60,태능고향풍천장어본점,서울 노원구 화랑로 459-0,맛집,외국식,태릉입구역,37.61875622,127.0781628,태릉입구
61,터줏대감,서울 노원구 동일로246길 21-0,맛집,한식,수락산역,37.67833859,127.0567546,수락산
62,테르미니,서울 노원구 화랑로53길 12-0,맛집,외국식,화랑대역,37.62646605,127.0940919,화랑대
63,페페그라노,서울 노원구 공릉로32길 5-0,맛집,외국식,화랑대역,37.62204853,127.0796183,화랑대
64,평양칼국수,서울 노원구 동일로 1652-0,맛집,한식,수락산역,37.62204853,127.0796183,수락산
65,풍미연노원본점,서울 노원구 노해로85길 7-0,맛집,한식,노원역,37.65566802,127.0648129,노원
66,피노키오냉면,서울 노원구 한글비석로 474-0,맛집,한식,마들역,37.66482335,127.0654415,마들
67,핏짜굽는언니,서울 노원구 동일로198길 58-0,맛집,외국식,공릉역,37.62948433,127.0747303,공릉
68,하나샤브샤브,서울 노원구 동일로203가길 29-0,맛집,외국식,중계역,37.63987596,127.0642838,중계
69,한촌설렁탕공릉역점,서울 노원구 동일로 1045-0,맛집,한식,공릉역,37.62340593,127.0734119,공릉
70,해품장팔팔장어,서울 노원구 노원로 192-0,맛집,외국식,하계역,37.63744806,127.0795366,하계
71,향림,서울 노원구 한글비석로 127-0,맛집,외국식,하계역,37.639458,127.0755232,하계
72,호접몽,서울 노원구 중계로18길 9-0,맛집,외국식,중계역,37.65113146,127.0778068,중계
