,NAME,ADDRESS,CATE,SUBCATE,,LAT,LON,STATION_NAME
0,갈비명가이상답십리점,서울 동대문구 천호대로 327-0,맛집,한식,답십리역,37.56454376,127.0564192,답십리
1,고황24시뼈다귀해장국감자탕,서울 동대문구 경희대로1길 8-16,맛집,한식,회기역,37.59234054,127.0520486,회기
2,나정순할매주꾸미,서울 동대문구 무학로 144-0,맛집,전문음식,제기동역,37.5770815,127.0306946,제기동
3,나정순할매쭈꾸미2호점,서울 동대문구 약령시로 65-0,맛집,한식,제기동역,37.58301299,127.0370765,제기동
4,놀부만두,서울 동대문구 망우로16길 15-0,맛집,한식,회기역,37.58935254,127.0614879,회기
5,늘봄해물찜손칼국수답십리본점,서울 동대문구 전농로 39-0,맛집,한식,답십리역,37.5685604,127.0568082,답십리
6,대한곱창장안점,서울 동대문구 천호대로85길 21-0,맛집,외국식,장한평역,37.56298604,127.0662915,장한평
7,대한닭발1979본점,서울 동대문구 장한로 116-0,맛집,한식,장한평역,37.57073273,127.0710615,장한평
8,더모임,서울 동대문구 왕산로 6-0,맛집,외국식,신설동역,37.57572444,127.0244608,신설동
9,레알라면,서울 동대문구 회기로25길 23-5,맛집,간이음식,회기역,37.59112079,127.0553776,회기
10,로운샤브샤브롯데백화점청량리점,서울 동대문구 왕산로 214-0,맛집,외국식,청량리역,37.58419614,127.0511471,청량리
11,마루샤브용두직영점,서울 동대문구 왕산로 61-0,맛집,외국식,제기동역,37.57802042,127.0300389,제기동
12,먹깨비간장게장해물아구찜,서울 동대문구 장한로 92-0,맛집,외국식,장한평역,37.56881082,127.0698438,장한평
13,명륜진사갈비장안점,서울 동대문구 답십리로 240-0,맛집,한식,장한평역,37.57250194,127.0668652,장한평
14,부부횟집,서울 동대문구 장한로 198-0,맛집,전문음식,장한평역,37.5780776,127.0724585,장한평
15,삼육서울병원 추모관식당,서울 동대문구 망우로 82-0,맛집,한식,회기역,37.58621194,127.0635533,회기
16,서산간장게장,서울 동대문구 장한로24길 7-0,맛집,한식,장한평역,37.57089635,127.071503,장한평
17,선진국낙지마당,서울 동대문구 장한로 149-1,맛집,외국식,장한평역,37.57384829,127.0714932,장한평
18,성천막국수,서울 동대문구 답십리로48나길 2-0,맛집,한식,답십리역,37.56989419,127.0578096,답십리
19,소담촌용두점,서울 동대문구 왕산로 60-1,맛집,외국식,제기동역,37.57728491,127.0301471,제기동
20,소담촌장안점,서울 동대문구 사가정로 207-0,맛집,외국식,회기역,37.57889257,127.0680162,회기
21,속초명가장안점,서울 동대문구 한천로 42-0,맛집,한식,장한평역,37.565949,127.0617272,장한평
22,송쉐프,서울 동대문구 장한로2길 20-0,맛집,외국식,신사역,37.56184924,127.0663171,신사
23,송학수산,서울 동대문구 장한로26길 67-0,맛집,외국식,장한평역,37.57155663,127.07508,장한평
24,신락원,서울 동대문구 전농로20길 2-0,맛집,외국식,청량리역,37.57889797,127.0571645,청량리
25,아티제외대점,서울 동대문구 이문로 107-0,맛집,카페/찻집,외대앞역,37.59829668,127.0579424,외대앞
26,안흥갈비,서울 동대문구 장한로 153-0,맛집,한식,답십리역,37.57415719,127.0715728,답십리
27,애슐리퀸즈롯데백화점청량리점,서울 동대문구 왕산로 214-0,맛집,외국식,청량리역,37.58419614,127.0511471,청량리
28,어머니대성집,서울 동대문구 왕산로11길 4-0,맛집,한식,신설동역,37.57747424,127.0285642,신설동
29,영동교집장안직영점,서울 동대문구 천호대로83길 32-0,맛집,한식,장한평역,37.5634862,127.065279,장한평
30,영화장[중식],서울 동대문구 휘경로 3-8,맛집,외국식,외대앞역,37.59658148,127.0609421,외대앞
31,오소리순대본점,서울 동대문구 회기로4길 16-0,맛집,한식,고려대역,37.59055986,127.0371608,고려대
32,옥천옥설렁탕,서울 동대문구 하정로 16-0,맛집,한식,신설동역,37.57248418,127.0269804,신설동
33,용두동복집,서울 동대문구 왕산로16길 9-0,맛집,외국식,제기동역,37.57745931,127.0313208,제기동
34,용두동임오네쭈꾸미1호점본점,서울 동대문구 무학로36길 6-0,맛집,외국식,제기동역,37.57715595,127.0309524,제기동
35,용두동쭈꾸미본점,서울 동대문구 무학로36길 10-0,맛집,외국식,제기동역,37.57720025,127.031064,제기동
36,원골전통순대국,서울 동대문구 사가정로 232-0,맛집,한식,장한평역,37.57847873,127.0708031,장한평
37,육전식당3호점,서울 동대문구 천호대로 38-0,맛집,한식,신설동역,37.57368743,127.027505,신설동
38,육전식당본점,서울 동대문구 난계로30길 16-0,맛집,한식,신설동역,37.57428297,127.0243031,신설동
39,은하곱창,서울 동대문구 전농로15길 22-0,맛집,외국식,청량리역,37.57804036,127.0563148,청량리
40,일미간장게장본점,서울 동대문구 장한로24길 7-0,맛집,외국식,장한평역,37.57089635,127.071503,장한평
41,일번지정육식당,서울 동대문구 장한로 18-0,맛집,한식,장한평역,37.56277643,127.0658781,장한평
42,일심해장국본점,서울 동대문구 장한로 179-0,맛집,한식,장한평역,37.57647498,127.0717466,장한평
43,장안설렁탕,서울 동대문구 천호대로89길 3-0,맛집,한식,장한평역,37.56211878,127.0679588,장한평
44,장안순대국밥,서울 동대문구 고미술로 81-0,맛집,한식,답십리역,37.56560024,127.0557219,답십리
45,장안정본점,서울 동대문구 답십리로 291-3,맛집,외국식,장한평역,37.57272459,127.0726318,장한평
46,장원닭한마리,서울 동대문구 전농로 30-1,맛집,한식,답십리역,37.56747535,127.0571312,답십리
47,정대감감자탕,서울 동대문구 천호대로83길 46-0,맛집,한식,장한평역,37.56409084,127.0656395,장한평
48,제주은희네해장국장안점,서울 동대문구 장한로 43-0,맛집,한식,장한평역,37.56510485,127.0667099,장한평
49,지호한방삼계탕장안점,서울 동대문구 장한로 161-0,맛집,한식,장한평역,37.57486018,127.0716626,장한평
50,진미기사식당,서울 동대문구 장한로 64-0,맛집,한식,장한평역,37.56663423,127.0683889,장한평
51,채선당답십리점,서울 동대문구 사가정로 6-0,맛집,외국식,신답역,37.57016097,127.0495161,신답
52,천호낙지,서울 동대문구 사가정로 207-0,맛집,한식,답십리역,37.57889257,127.0680162,답십리
53,카페NSW,서울 동대문구 왕산로 273-0,맛집,카페/찻집,청량리역,37.58515577,127.0507601,청량리
54,커피나인본점,서울 동대문구 전농로3길 12-0,맛집,카페/찻집,답십리역,37.56854697,127.0566249,답십리
55,킹수제만두,서울 동대문구 한빛로 3-0,맛집,한식,신설동역,37.57652072,127.0241182,신설동
56,팔각도경희대점,서울 동대문구 회기로13길 10-0,맛집,외국식,회기역,37.59194624,127.0510574,회기
57,팔선생제기점,서울 동대문구 회기로 34-0,맛집,외국식,고려대역,37.59107845,127.0402445,고려대
58,한우천국장안점,서울 동대문구 장한로 96-0,맛집,한식,장한평역,37.56904456,127.0701101,장한평
59,할머니냉면,서울 동대문구 왕산로37길 51-0,맛집,한식,청량리역,37.58227155,127.0436766,청량리
60,함경면옥,서울 동대문구 왕산로 87-0,맛집,한식,제기동역,37.57850503,127.0331731,제기동
61,행운돈까스,서울 동대문구 장한로 173-0,맛집,외국식,장한평역,37.57591638,127.0717287,장한평
62,혜성칼국수,서울 동대문구 왕산로 247-1,맛집,한식,청량리역,37.5834249,127.0489861,청량리
63,홍능갈비집본점,서울 동대문구 제기로 85-0,맛집,한식,고려대역,37.58689456,127.0426735,고려대
64,홍릉각[중식],서울 동대문구 약령시로 90-0,맛집,외국식,청량리역,37.58286059,127.0399605,청량리
65,홍익돈까스회기역점,서울 동대문구 망우로21길 52-0,맛집,외국식,회기역,37.590396,127.0598779,회기
66,회기왕족발,서울 동대문구 회기로 158-0,맛집,외국식,회기역,37.59085433,127.0534946,회기
67,흥부골숯불갈비장안2호점,서울 동대문구 장한로 149-0,맛집,한식,장한평역,37.5737063,127.0714815,장한평
