,NAME,ADDRESS,CATE,SUBCATE,,LAT,LON,STATION_NAME
0,37.5동작이수점,서울 동작구 동작대로27가길 23-0,맛집,외국식,이수역,37.48653799,126.9813502,이수
1,가마솥손두부사당본점,서울 동작구 남부순환로271길 20-0,맛집,한식,사당역,37.4777354,126.9801955,사당
2,고봉삼계탕중앙대점,서울 동작구 서달로 166-0,맛집,한식,상도역,37.50776441,126.9628813,상도
3,낙성곱창,서울 동작구 동작대로19길 60-0,맛집,외국식,이수역,37.4836193,126.9783628,이수
4,낙지세상신대방본점,서울 동작구 대림로 57-0,맛집,외국식,신대방역,37.4882009,126.9071155,신대방
5,낙지한마리수제비상도본점,서울 동작구 상도로31길 19-0,맛집,한식,장승배기역,37.50623587,126.9445418,장승배기
6,노량진컵밥거리,서울 동작구,맛집,기타음식,노량진역,37.51248204,126.9393151,노량진
7,농실가,서울 동작구 상도로 142-0,맛집,한식,장승배기역,37.50244334,126.9354442,장승배기
8,늘보리,서울 동작구 상도로26길 19-0,맛집,한식,장승배기역,37.50414463,126.9386778,장승배기
9,다래식당,서울 동작구 만양로2길 2-0,맛집,한식,상도역,37.50626337,126.9477383,상도
10,다채대방점,서울 동작구 알마타길 6-0,맛집,한식,대방역,37.50985709,126.9249542,대방
11,단아한정식,서울 동작구 동작대로27가길 44-0,맛집,한식,이수역,37.48565573,126.9808147,이수
12,대방싸리집,서울 동작구 여의대방로26길 24-0,맛집,한식,보라매역,37.49919404,126.9217254,보라매
13,등나무집,서울 동작구 대림로 52-0,맛집,한식,신대방역,37.48816696,126.9079542,신대방
14,라시에스타,서울 동작구 동작대로 21-0,맛집,외국식,사당역,37.47848162,126.9813621,사당
15,망향비빔국수동작점,서울 동작구 상도로 319-0,맛집,한식,상도역,37.49965566,126.9510769,상도
16,미분당신대방삼거리점,서울 동작구 보라매로19길 25-0,맛집,외국식,신대방삼거리역,37.49778512,126.9263227,신대방삼거리
17,방배김밥,서울 동작구 동작대로27길 59-16,맛집,간이음식,이수역,37.48812497,126.9784035,이수
18,백제갈비,서울 동작구 사당로 231-0,맛집,한식,남성역,37.48370105,126.9736557,남성
19,사리원,서울 동작구 상도로50길 2-15,맛집,한식,상도역,37.49915244,126.9506292,상도
20,상도면옥,서울 동작구 성대로1길 3-0,맛집,한식,신대방삼거리역,37.50046611,126.9325882,신대방삼거리
21,서일순대국,서울 동작구 여의대방로24길 10-4,맛집,한식,보라매역,37.49791433,126.9209109,보라매
22,서일순대국전문,서울 동작구 여의대방로24길 16-0,맛집,한식,보라매역,37.49786484,126.9211365,보라매
23,설빙보라매점,서울 동작구 보라매로3길 29-0,맛집,카페/찻집,신대방역,37.49121134,126.9249903,신대방
24,세녹,서울 동작구 사당로 304-0,맛집,카페/찻집,이수역,37.48492437,126.981347,이수
25,세종대왕숯불갈비보라매점,서울 동작구 여의대방로 136-0,맛집,한식,장승배기역,37.49921172,126.9206881,장승배기
26,소담촌사당직영점,서울 동작구 동작대로 43-0,맛집,외국식,사당역,37.480418,126.9814562,사당
27,순천집,서울 동작구 노량진로 80-0,맛집,외국식,노량진역,37.51288731,126.9345879,노량진
28,스시로로,서울 동작구 동작대로23길 29-0,맛집,외국식,이수역,37.48409038,126.9801053,이수
29,시간을들이다본점,서울 동작구 국사봉5길 4-0,맛집,간이음식,신대방삼거리역,37.49762309,126.9304395,신대방삼거리
30,신도세기보라매점,서울 동작구 보라매로5길 43-0,맛집,한식,신대방역,37.49143108,126.923417,신대방
31,신온누리에생돈까스대방점,서울 동작구 여의대방로24길 107-0,맛집,외국식,신대방삼거리역,37.49918567,126.9259391,신대방삼거리
32,애플하우스이수점,서울 동작구 동작대로27다길 29-0,맛집,간이음식,이수역,37.48628506,126.9806626,이수
33,약초마을,서울 동작구 노량진로 26-0,맛집,한식,사당역,37.51295297,126.9289275,사당
34,어촌식당,서울 동작구 상도로 122-0,맛집,한식,신대방삼거리역,37.50130999,126.9338717,신대방삼거리
35,오페뜨총신대점,서울 동작구 사당로 178-0,맛집,카페/찻집,남성역,37.48609038,126.9682983,남성
36,우부래도,서울 동작구 상도로37길 3-0,맛집,간이음식,상도역,37.5031717,126.9486553,상도
37,은희네온집닭떡볶이,서울 동작구 상도로41길 35-0,맛집,간이음식,상도역,37.50243791,126.9509447,상도
38,일진아구찜,서울 동작구 여의대방로24길 93-0,맛집,한식,신대방삼거리역,37.49895391,126.9251894,신대방삼거리
39,쟝블랑제리이수직영점,서울 동작구 동작대로23길 8-0,맛집,간이음식,이수역,37.48437485,126.9813251,이수
40,전주전집,서울 동작구 동작대로7길 19-0,맛집,한식,사당역,37.47966787,126.9806484,사당
41,조가네갑오징어사당점,서울 동작구 남부순환로271길 24-0,맛집,외국식,사당역,37.47791407,126.9802146,사당
42,조선화로집상도역점,서울 동작구 상도로 263-6,맛집,한식,상도역,37.50395938,126.9478663,상도
43,천외천,서울 동작구 만양로 19-0,맛집,외국식,장승배기역,37.50707174,126.9457182,장승배기
44,청와옥사당직영점,서울 동작구 동작대로 71-0,맛집,한식,이수역,37.48285623,126.9815544,이수
45,초록애대방점,서울 동작구 여의대방로54길 5-0,맛집,한식,대방역,37.51197471,126.9259313,대방
46,초와밥,서울 동작구 동작대로5길 8-0,맛집,외국식,사당역,37.47912822,126.9810024,사당
47,팔각도이수역점,서울 동작구 동작대로27다길 12-0,맛집,외국식,이수역,37.48702428,126.9803487,이수
48,한울갈비,서울 동작구 동작대로1길 9-0,맛집,한식,사당역,37.47720192,126.9807872,사당
49,형제상회,서울 동작구 노들로 688-0,맛집,외국식,노량진역,37.51501192,126.9445243,노량진
50,희래등,서울 동작구 등용로 123-0,맛집,외국식,대방역,37.5121047,126.9317236,대방
