,NAME,ADDRESS,CATE,SUBCATE,,LAT,LON,STATION_NAME
0,37.5DMC가재울점,서울 서대문구 가재울미래로 17-0,맛집,외국식,가좌역,37.57075584,126.9168774,가좌
1,SICTAC이대하늬솔점,서울 서대문구 성산로 527-0,맛집,외국식,이대역,37.5637751,126.9440902,이대
2,가미분식,서울 서대문구 이화여대8길 2-0,맛집,간이음식,이대역,37.5586536,126.9459207,이대
3,가타쯔무리,서울 서대문구 명지대길 72-0,맛집,외국식,새절역,37.58322931,126.9234286,새절
4,강수사,서울 서대문구 연희로 157-0,맛집,외국식,홍대입구역,37.5713635,126.9342059,홍대입구
5,고미정,서울 서대문구 연희로26길 28-0,맛집,한식,홍대입구역,37.57270329,126.9370328,홍대입구
6,그로어스,서울 서대문구 연희로27길 52-0,맛집,외국식,홍대입구역,37.57228257,126.9333349,홍대입구
7,난향,서울 서대문구 신촌로 67-0,맛집,외국식,신촌역,37.55650346,126.9340422,신촌
8,노아스로스팅연희점,서울 서대문구 연희로 160-0,맛집,카페/찻집,홍대입구역,37.57143824,126.9349463,홍대입구
9,녹원쌈밥,서울 서대문구 연희로25길 22-0,맛집,한식,홍대입구역,37.57248124,126.934146,홍대입구
10,데스툴,서울 서대문구 연희로25길 98-0,맛집,카페/찻집,홍대입구역,37.56955349,126.931826,홍대입구
11,도깨비우동,서울 서대문구 증가로 250-0,맛집,외국식,증산역,37.58334857,126.9122459,증산
12,등촌샤브칼국수명지대점,서울 서대문구 모래내로 273-0,맛집,외국식,증산역,37.57725237,126.9284214,증산
13,뚜레쥬르무악재점,서울 서대문구 통일로 363-0,맛집,간이음식,무악재역,37.58274756,126.9497808,무악재
14,라이라이,서울 서대문구 연희로15길 27-0,맛집,외국식,신사역,37.56859015,126.9304371,신사
15,락희안가좌본점,서울 서대문구 가재울로4길 53-0,맛집,외국식,홍대입구역,37.57609364,126.9241529,홍대입구
16,로덴드론연희점,서울 서대문구 연희로25길 82-0,맛집,카페/찻집,홍대입구역,37.57013291,126.9322707,홍대입구
17,르솔레이,서울 서대문구 연희맛로 7-29,맛집,간이음식,홍대입구역,37.56636908,126.9279853,홍대입구
18,만동제과,서울 서대문구 연희로 32-0,맛집,간이음식,홍대입구역,37.56153345,126.9272755,홍대입구
19,맛있는집,서울 서대문구 거북골로20길 55-0,맛집,간이음식,홍대입구역,37.58044046,126.9108437,홍대입구
20,맛있는칼국수,서울 서대문구 불광천길 150-0,맛집,한식,증산역,37.58190409,126.9089029,증산
21,모래내곱창,서울 서대문구 증가로10길 26-0,맛집,외국식,증산역,37.57839959,126.9236462,증산
22,모래내설농탕본점,서울 서대문구 모래내로 271-0,맛집,한식,증산역,37.57723927,126.9282141,증산
23,목란,서울 서대문구 연희로15길 21-0,맛집,외국식,홍대입구역,37.568388,126.9304895,홍대입구
24,문화촌초밥집,서울 서대문구 세무서7길 12-6,맛집,외국식,홍제역,37.59163101,126.9465405,홍제
25,민스키친연희점,서울 서대문구 연희맛로 7-0,맛집,한식,홍대입구역,37.56626679,126.9286809,홍대입구
26,백년약수골,서울 서대문구 백련사길 99-0,맛집,한식,새절역,37.58345232,126.9301305,새절
27,벽제갈비신촌점,서울 서대문구 명물길 22-0,맛집,한식,신촌역,37.55775595,126.9380531,신촌
28,빈플루,서울 서대문구 응암로 118-0,맛집,카페/찻집,증산역,37.58291458,126.9138562,증산
29,사조미가,서울 서대문구 통일로 107-39,맛집,한식,서대문역,37.56420099,126.9661196,서대문
30,소담촌홍제점,서울 서대문구 통일로 413-0,맛집,한식,홍제역,37.58618176,126.9464387,홍제
31,수빈,서울 서대문구 연희로25길 31-3,맛집,한식,홍대입구역,37.57183262,126.9343154,홍대입구
32,시오,서울 서대문구 연희로11가길 23-0,맛집,외국식,홍대입구역,37.56721473,126.9286944,홍대입구
33,아웃백스테이크하우스신촌점,서울 서대문구 연세로12길 33-0,맛집,외국식,신촌역,37.55912003,126.9388629,신촌
34,아워온즈,서울 서대문구 연희맛로 45-0,맛집,카페/찻집,홍대입구역,37.56886252,126.9311983,홍대입구
35,앤트러사이트연희점,서울 서대문구 연희로 135-0,맛집,카페/찻집,홍대입구역,37.56969292,126.9328373,홍대입구
36,엄마손떡볶이,서울 서대문구 증가로10길 37-0,맛집,간이음식,경성대.부경대역,37.57893375,126.9241469,경성대.부경대
37,연경연희점,서울 서대문구 연희로 145-0,맛집,외국식,홍대입구역,37.5705758,126.9336229,홍대입구
38,연남장,서울 서대문구 연희로5길 22-0,맛집,간이음식,홍대입구역,37.56433006,126.927585,홍대입구
39,연대북문우리집,서울 서대문구 연희로26길 23-0,맛집,한식,홍대입구역,37.57299103,126.9369634,홍대입구
40,연희곰탕,서울 서대문구 증가로 17-0,맛집,한식,홍대입구역,37.56979578,126.9309052,홍대입구
41,연희김밥본점,서울 서대문구 연희로11가길 2-0,맛집,간이음식,홍대입구역,37.56802676,126.9293759,홍대입구
42,연희녹두삼계탕,서울 서대문구 연희맛로 43-1,맛집,한식,홍대입구역,37.5687079,126.9311935,홍대입구
43,연희동손칼국수본점,서울 서대문구 연희맛로 37-0,맛집,한식,홍대입구역,37.56821967,126.9307506,홍대입구
44,연희보리밥,서울 서대문구 연희맛로 33-0,맛집,한식,홍대입구역,37.56800666,126.9305769,홍대입구
45,연희예술극장,서울 서대문구 연희맛로 2-3,맛집,카페/찻집,홍대입구역,37.5656579,126.9285381,홍대입구
46,영양센타모래내점,서울 서대문구 모래내로 271-0,맛집,한식,증산역,37.57723927,126.9282141,증산
47,우자매순대국,서울 서대문구 거북골로24길 65-0,맛집,한식,증산역,37.58197125,126.9094275,증산
48,월순철판동태찜연희본점,서울 서대문구 연희맛로 17-14,맛집,한식,홍대입구역,37.56722531,126.9290508,홍대입구
49,이정희떡볶이,서울 서대문구 증가로10길 14-0,맛집,간이음식,증산역,37.57808592,126.9233188,증산
50,이화원,서울 서대문구 연희맛로 13-0,맛집,외국식,홍대입구역,37.56655044,126.9290103,홍대입구
51,정육면체,서울 서대문구 연세로5다길 22-8,맛집,외국식,신촌역,37.55683903,126.9345897,신촌
52,조은집,서울 서대문구 연희맛로 43-0,맛집,한식,홍대입구역,37.56857611,126.9310846,홍대입구
53,지호한방삼계탕연희점,서울 서대문구 연희로25길 10-0,맛집,한식,홍대입구역,37.57289255,126.9347955,홍대입구
54,진보,서울 서대문구 연희맛로 9-0,맛집,외국식,홍대입구역,37.56633552,126.9288153,홍대입구
55,짚불집,서울 서대문구 연희로8길 5-3,맛집,한식,홍대입구역,37.56577717,126.9304734,홍대입구
56,철길떡볶이,서울 서대문구 충정로 35-6,맛집,간이음식,충정로역,37.55922343,126.9616832,충정로
57,청송함흥냉면,서울 서대문구 연희맛로 6-0,맛집,한식,홍대입구역,37.56589357,126.9287825,홍대입구
58,카덴,서울 서대문구 연희로 173-0,맛집,외국식,홍대입구역,37.57249887,126.9350607,홍대입구
59,콘하스연희점,서울 서대문구 연희로27길 99-0,맛집,카페/찻집,홍대입구역,37.57032486,126.9321831,홍대입구
60,쿳사,서울 서대문구 증가로 48-0,맛집,카페/찻집,증산역,37.57218234,126.9293886,증산
61,크리스피크림도넛가좌역점,서울 서대문구 수색로 56-0,맛집,간이음식,가좌역,37.57083922,126.9123139,가좌
62,키친봄날,서울 서대문구 신촌로11길 62-0,맛집,간이음식,신촌역,37.55894953,126.9344333,신촌
63,타코벨신촌점,서울 서대문구 연세로 26-1,맛집,외국식,신촌역,37.55799458,126.9371189,신촌
64,티원연세대점 [중식],서울 서대문구 연세로 50-0,맛집,외국식,신촌역,37.56380644,126.9429309,신촌
65,평택고여사집냉면,서울 서대문구 연희로 81-9,맛집,한식,홍대입구역,37.56567743,126.9292614,홍대입구
66,폴앤폴리나연희점,서울 서대문구 연희로11길 56-0,맛집,간이음식,홍대입구역,37.56888658,126.9290707,홍대입구
67,프로토콜,서울 서대문구 연희로 109-0,맛집,카페/찻집,홍대입구역,37.56779314,126.9313729,홍대입구
68,피터팬1978본점,서울 서대문구 증가로 10-0,맛집,간이음식,홍대입구역,37.56938848,126.9317599,홍대입구
69,하노이의아침연희점,서울 서대문구 연희맛로 10-0,맛집,외국식,홍대입구역,37.56606644,126.9290413,홍대입구
70,한옥집,서울 서대문구 통일로9길 12-0,맛집,한식,합정역,37.56727169,126.9643307,합정
71,한옥집김치찜본점,서울 서대문구 통일로9길 12-0,맛집,한식,서대문역,37.56727169,126.9643307,서대문
72,한촌설렁탕북가좌점,서울 서대문구 응암로 67-0,맛집,한식,증산역,37.57920985,126.9105555,증산
73,형제갈비,서울 서대문구 명물1길 2-0,맛집,한식,신촌역,37.55783892,126.9373496,신촌
74,호천식당,서울 서대문구 연희로14길 5-0,맛집,한식,홍대입구역,37.56747335,126.9317917,홍대입구
75,홍은손칼국수전문점,서울 서대문구 홍은중앙로 27-0,맛집,한식,홍제역,37.5939881,126.945968,홍제
