,NAME,ADDRESS,CATE,SUBCATE,,LAT,LON,STATION_NAME
0,3대삼계장인,서울 서초구 반포대로28길 56-3,맛집,한식,교대역,37.49130288,127.0115914,교대
1,TODAH,서울 서초구 성촌6길 39-0,맛집,카페/찻집,남부터미널역,37.46752779,127.0226322,남부터미널
2,VIPS반포역점,서울 서초구 나루터로4길 61-0,맛집,외국식,반포역,37.50959121,127.0134667,반포
3,갈비사랑,서울 서초구 강남대로 204-0,맛집,한식,양재역,37.48247804,127.0367296,양재
4,경복궁서초점,서울 서초구 서초중앙로 195-0,맛집,한식,교대역,37.49918323,127.0120227,교대
5,곤드레집,서울 서초구 청룡마을1길 1-0,맛집,한식,교대역,37.44540504,127.0578509,교대
6,교대곱창,서울 서초구 서초중앙로 77-0,맛집,외국식,교대역,37.48867904,127.0142518,교대
7,교대이층집본점,서울 서초구 서초대로50길 24-0,맛집,한식,교대역,37.49208816,127.0128184,교대
8,금수복국서초점,서울 서초구 서초중앙로24길 22-0,맛집,외국식,교대역,37.49472412,127.0159927,교대
9,김영모과자점서초성당점,서울 서초구 서초대로64길 41-4,맛집,간이음식,교대역,37.49379271,127.0213887,교대
10,대나무골,서울 서초구 법원로3길 15-0,맛집,한식,서초역,37.49314523,127.0088375,서초
11,대도식당강남대로점,서울 서초구 강남대로 567-0,맛집,한식,신사역,37.51239375,127.0200688,신사
12,더리버,서울 서초구 동작대로 350-0,맛집,외국식,동작역,37.50576255,126.9810858,동작
13,딘타이펑강남역점,서울 서초구 서초대로73길 12-0,맛집,외국식,강남역,37.49855024,127.0257354,강남
14,라그릴리아양재점,서울 서초구 남부순환로 2620-0,맛집,외국식,양재역,37.48451441,127.037328,양재
15,마루심본점,서울 서초구 고무래로10길 10-0,맛집,외국식,반포역,37.50190081,127.0104612,반포
16,모던눌랑반포센트럴시티점,서울 서초구 사평대로 205-0,맛집,외국식,고속터미널역,37.50449212,127.0078453,고속터미널
17,몽중헌반포점,서울 서초구 서초중앙로 249-0,맛집,외국식,반포역,37.50367352,127.0106324,반포
18,무한쌈밥집,서울 서초구 강남대로93길 23-10,맛집,한식,논현역,37.51240152,127.0188512,논현
19,백년옥,서울 서초구 남부순환로 2407-0,맛집,한식,남부터미널역,37.48119667,127.0137752,남부터미널
20,밴건디스테이크하우스,서울 서초구 사평대로22길 5-0,맛집,외국식,내방역,37.49934248,126.9977388,내방
21,버드나무집서초본점,서울 서초구 효령로 434-0,맛집,한식,양재역,37.48910592,127.0312045,양재
22,버드나무집우면점,서울 서초구 남부순환로 2461-0,맛집,한식,남부터미널역,37.48290264,127.0195381,남부터미널
23,봉산옥서초동본점,서울 서초구 반포대로8길 5-6,맛집,한식,남부터미널역,37.48338221,127.0124534,남부터미널
24,봉피양양재점,서울 서초구 강남대로 283-0,맛집,한식,양재역,37.48846706,127.0317168,양재
25,브루클린더버거조인트서래마을점,서울 서초구 서래로2길 27-0,맛집,간이음식,고속터미널역,37.49610654,126.9997417,고속터미널
26,산들해반포점,서울 서초구 반포대로 287-0,맛집,한식,고속터미널역,37.50432794,127.0010883,고속터미널
27,산들해양재동점,서울 서초구 강남대로 213-0,맛집,한식,양재역,37.48276664,127.0349496,양재
28,삿뽀로서초점,서울 서초구 서초중앙로 195-0,맛집,외국식,교대역,37.49918323,127.0120227,교대
29,샘밭막국수,서울 서초구 서초중앙로24길 27-0,맛집,한식,교대역,37.495411,127.0164023,교대
30,서관면옥,서울 서초구 서초대로56길 11-0,맛집,한식,교대역,37.49399079,127.0172694,교대
31,서래본가,서울 서초구 사평대로 126-0,맛집,한식,고속터미널역,37.49976696,126.9983523,고속터미널
32,서석대,서울 서초구 서초대로 346-0,맛집,한식,교대역,37.49509753,127.0194221,교대
33,서초면옥서래마을점,서울 서초구 동광로 97-0,맛집,한식,내방역,37.4939432,126.9931145,내방
34,설마중,서울 서초구 남부순환로 2648-0,맛집,한식,양재역,37.48502365,127.0403657,양재
35,소들녘서초점,서울 서초구 효령로 232-0,맛집,한식,남부터미널역,37.48334706,127.0096732,남부터미널
36,스시타노,서울 서초구 서래로5길 30-0,맛집,외국식,내방역,37.497985,126.9964909,내방
37,신선설농탕도곡점,서울 서초구 논현로 161-0,맛집,한식,매봉역,37.48385439,127.041727,매봉
38,아티제삼성타운점,서울 서초구 서초대로74길 11-0,맛집,카페/찻집,강남역,37.49663336,127.0269145,강남
39,아티제서초역점,서울 서초구 반포대로27길 16-0,맛집,카페/찻집,서초역,37.49017517,127.007238,서초
40,영동설렁탕,서울 서초구 강남대로101안길 24-0,맛집,한식,신사역,37.51615299,127.0173661,신사
41,영동족발본점,서울 서초구 남부순환로358길 8-0,맛집,외국식,양재역,37.4845842,127.0379993,양재
42,오발탄서초점,서울 서초구 반포대로 154-0,맛집,한식,서초역,37.49361215,127.0072012,서초
43,오선채,서울 서초구 남부순환로 2634-8,맛집,한식,양재역,37.4845648,127.0386381,양재
44,우참판서래본점,서울 서초구 서래로 23-0,맛집,한식,내방역,37.49708916,126.9980843,내방
45,울돌목가는길,서울 서초구 서초대로40길 41-0,맛집,한식,서초역,37.48983976,127.0080136,서초
46,이남장서초점,서울 서초구 서초대로49길 4-0,맛집,한식,교대역,37.49379129,127.012383,교대
47,이솔라,서울 서초구 올림픽대로 2085-14,맛집,외국식,잠원역,37.5124362,126.9959623,잠원
48,인덕원비빔국수서초점,서울 서초구 남부순환로 2656-0,맛집,한식,매봉역,37.48524182,127.0410518,매봉
49,임병주산동손칼국수,서울 서초구 강남대로37길 65-0,맛집,한식,양재역,37.48456632,127.0299852,양재
50,장꼬방김치찌개전문,서울 서초구 효령로 364-0,맛집,한식,남부터미널역,37.48689281,127.0236629,남부터미널
51,진동둔횟집,서울 서초구 강남대로91길 18-0,맛집,외국식,논현역,37.512273,127.0196415,논현
52,채빛퀴진,서울 서초구 올림픽대로 2085-14,맛집,외국식,잠원역,37.5124362,126.9959623,잠원
53,챠이797서래마을점,서울 서초구 동광로 78-0,맛집,외국식,내방역,37.49284897,126.9911009,내방
54,카페노티드서래,서울 서초구 방배로32길 30-9,맛집,카페/찻집,내방역,37.49137436,126.9934359,내방
55,카페캐틀앤비양재점,서울 서초구 양재천로 131-0,맛집,카페/찻집,양재역,37.47880153,127.0419765,양재
56,커피빈방배카페골목점,서울 서초구 방배중앙로 187-0,맛집,카페/찻집,내방역,37.49571011,126.9855324,내방
57,퀸즈파크서래점,서울 서초구 동광로 95-1,맛집,외국식,내방역,37.49380091,126.9927118,내방
58,크라이치즈버거양재점,서울 서초구 강남대로41길 8-0,맛집,간이음식,양재역,37.48727416,127.0319217,양재
59,크리스탈제이드잠원점,서울 서초구 신반포로33길 27-0,맛집,외국식,반포역,37.51036822,127.0100442,반포
60,탐라도야지본점,서울 서초구 서초대로50길 82-0,맛집,한식,교대역,37.48959508,127.0135612,교대
61,태양커피,서울 서초구 서초대로25길 55-0,맛집,카페/찻집,사당역,37.49019409,126.9928216,사당
62,텍사스데브라질센트럴시티점,서울 서초구 사평대로 205-0,맛집,외국식,고속터미널역,37.50449212,127.0078453,고속터미널
63,통나무집강남점,서울 서초구 헌인릉길 9-0,맛집,한식,일원역,37.46186838,127.0817544,일원
64,파리크라상반포서래,서울 서초구 서래로5길 2-0,맛집,간이음식,신반포역,37.49791998,126.9981072,신반포
65,프릿츠양재점,서울 서초구 강남대로37길 24-11,맛집,카페/찻집,양재역,37.48536962,127.0321962,양재
66,프로간장게장신사본점,서울 서초구 강남대로97길 17-0,맛집,외국식,신사역,37.51459889,127.0188402,신사
67,하오차이,서울 서초구 효령로 260-0,맛집,외국식,남부터미널역,37.48404245,127.0126345,남부터미널
68,하이디라오서초지점,서울 서초구 서초대로77길 54-0,맛집,외국식,강남역,37.50257983,127.0248169,강남
69,한국순대,서울 서초구 바우뫼로35길 4-0,맛집,한식,강남구청역,37.47880222,127.0397373,강남구청
70,한국회관,서울 서초구 사평대로18길 10-0,맛집,한식,신반포역,37.49839051,126.995612,신반포
71,한우다이닝울릉,서울 서초구 서운로 135-0,맛집,한식,강남역,37.49551762,127.0245306,강남
72,해담채남부터미널점,서울 서초구 서초중앙로5길 10-8,맛집,한식,남부터미널역,37.48586544,127.0150996,남부터미널
73,혜장국,서울 서초구 사평대로56길 4-0,맛집,한식,신논현역,37.50346036,127.0226805,신논현
