,NAME,ADDRESS,CATE,SUBCATE,,LAT,LON,STATION_NAME
0,가락골마산아구찜,서울 송파구 송이로19길 3-0,맛집,한식,경찰병원역,37.49745788,127.1217177,경찰병원
1,강남면옥송파점,서울 송파구 법원로 55-0,맛집,한식,문정역,37.47986386,127.1217612,문정
2,경복궁방이점,서울 송파구 올림픽로 348-0,맛집,한식,몽촌토성역,37.51592311,127.1090334,몽촌토성
3,고도식,서울 송파구 백제고분로45길 28-0,맛집,한식,송파나루역,37.51035372,127.1086596,송파나루
4,고든램지버거,서울 송파구 올림픽로 300-0,맛집,간이음식,잠실역,37.51375196,127.1044469,잠실
5,골목떡볶이,서울 송파구 문정로1길 33-0,맛집,간이음식,문정역,37.48905615,127.1234696,문정
6,광화문갈비석촌호수점,서울 송파구 석촌호수로 296-0,맛집,한식,송파나루역,37.51142222,127.107771,송파나루
7,군산오징어본점,서울 송파구 삼학사로 101-0,맛집,외국식,석촌역,37.50628295,127.0970019,석촌
8,내고향횡성한우정육점식당,서울 송파구 오금로 113-0,맛집,한식,송파나루역,37.5121873,127.1084205,송파나루
9,놀부유황오리잠실점,서울 송파구 오금로 131-0,맛집,외국식,송파나루역,37.51153982,127.1099035,송파나루
10,늘푸른목장잠실본점,서울 송파구 백제고분로9길 34-0,맛집,한식,잠실새내역,37.50958784,127.08265,잠실새내
11,다운타우너잠실,서울 송파구 백제고분로45길 3-0,맛집,간이음식,송파나루역,37.50903765,127.1106654,송파나루
12,담은갈비,서울 송파구 삼전로 93-0,맛집,한식,잠실새내역,37.50685238,127.0895903,잠실새내
13,대호갈비,서울 송파구 백제고분로 83-0,맛집,한식,종합운동장역,37.50946281,127.0793243,종합운동장
14,더퍼스트클래스파티하우스송파문정점,서울 송파구 법원로 127-0,맛집,외국식,문정역,37.48629381,127.1187596,문정
15,돈까스의집,서울 송파구 삼전로 100-0,맛집,외국식,잠실새내역,37.506963,127.0906821,잠실새내
16,돈블랑송파석촌호수점,서울 송파구 석촌호수로 296-0,맛집,한식,송파나루역,37.51142222,127.107771,송파나루
17,동방명주,서울 송파구 백제고분로 2-0,맛집,외국식,종합운동장역,37.51920839,127.0765103,종합운동장
18,등촌샤브칼국수방이본점,서울 송파구 올림픽로30길 10-0,맛집,한식,잠실역,37.51484246,127.1079367,잠실
19,라라브레드송파점,서울 송파구 오금로16길 4-0,맛집,간이음식,송파나루역,37.51113268,127.1091047,송파나루
20,라세느롯데호텔월드,서울 송파구 올림픽로 240-0,맛집,외국식,잠실역,37.51130961,127.0981418,잠실
21,명인밥상,서울 송파구 송이로 157-0,맛집,한식,경찰병원역,37.4931919,127.1252382,경찰병원
22,모던눌랑라이브잠실점,서울 송파구 잠실로 209-0,맛집,외국식,잠실역,37.51387107,127.1063644,잠실
23,몽중헌문정점,서울 송파구 새말로5길 31-0,맛집,외국식,문정역,37.48517977,127.1234523,문정
24,몽중헌방이점,서울 송파구 위례성대로 10-0,맛집,외국식,몽촌토성역,37.51670609,127.1135153,몽촌토성
25,밀파니,서울 송파구 위례서로 273-0,맛집,카페/찻집,거여역,37.48912443,127.1424624,거여
26,바이킹스워프롯데월드몰점,서울 송파구 올림픽로 300-0,맛집,외국식,잠실역,37.51375196,127.1044469,잠실
27,방이맛골,서울 송파구,맛집,기타음식,송파나루역,37.51458372,127.1059177,송파나루
28,방이샤브샤브칼국수방이본점,서울 송파구 오금로31길 42-0,맛집,한식,방이역,37.50928385,127.1233517,방이
29,버드나무집,서울 송파구 동남로 309-0,맛집,한식,개롱역,37.5030623,127.1375685,개롱
30,벨라스가든,서울 송파구 백제고분로41길 42-19,맛집,카페/찻집,석촌역,37.51008179,127.1062898,석촌
31,벽제갈비방이본점,서울 송파구 양재대로71길 1-4,맛집,한식,방이역,37.51001038,127.1262088,방이
32,본가설렁탕,서울 송파구 석촌호수로 204-0,맛집,한식,석촌역,37.50630843,127.099938,석촌
33,봉피양방이점,서울 송파구 양재대로71길 1-4,맛집,한식,방이역,37.51001038,127.1262088,방이
34,산들해송파점,서울 송파구 위례성대로 6-0,맛집,한식,몽촌토성역,37.51684186,127.1131514,몽촌토성
35,산삼청각,서울 송파구 송이로 151-0,맛집,한식,경찰병원역,37.49350614,127.1249181,경찰병원
36,삿뽀로방이점,서울 송파구 오금로11길 7-0,맛집,외국식,잠실역,37.51455438,127.1079666,잠실
37,서울제빵소올림픽본점,서울 송파구 양재대로 1178-0,맛집,간이음식,올림픽공원역,37.51214571,127.1289184,올림픽공원
38,송도갈비문정역점,서울 송파구 법원로 128-0,맛집,한식,문정역,37.48684563,127.12049,문정
39,송쉐프,서울 송파구 백제고분로 357-0,맛집,외국식,신사역,37.50494124,127.1056412,신사
40,수원집,서울 송파구 송파대로 108-0,맛집,한식,장지역,37.48047837,127.1257822,장지
41,아그라잠실롯데에비뉴엘점,서울 송파구 올림픽로 300-0,맛집,외국식,잠실역,37.51375196,127.1044469,잠실
42,아웃백스테이크하우스잠실점,서울 송파구 송파대로 466-0,맛집,외국식,석촌역,37.50788754,127.1052256,석촌
43,아티제올림픽공원점,서울 송파구 위례성대로 18-0,맛집,카페/찻집,한성백제역,37.51645448,127.1143195,한성백제
44,애슐리퀸즈잠실롯데캐슬점,서울 송파구 올림픽로 269-0,맛집,외국식,잠실역,37.51442735,127.1006114,잠실
45,얼터너티브,서울 송파구 백제고분로46길 26-1,맛집,카페/찻집,송파나루역,37.50745395,127.1138021,송파나루
46,오모리찌개잠실본점,서울 송파구 송파대로 471-0,맛집,한식,석촌역,37.5080394,127.1040531,석촌
47,오발탄송파본점,서울 송파구 위례성대로 206-0,맛집,외국식,방이역,37.50903114,127.1333718,방이
48,오향가가락본점,서울 송파구 송이로 106-0,맛집,외국식,경찰병원역,37.49676076,127.1213763,경찰병원
49,우설화송파문정역점,서울 송파구 법원로4길 5-0,맛집,한식,문정역,37.48291393,127.1218733,문정
50,유천냉면본점,서울 송파구 강동대로3길 22-0,맛집,한식,강동구청역,37.52850515,127.1155783,강동구청
51,을밀대잠실점,서울 송파구 오금로15길 7-13,맛집,한식,송파나루역,37.51282223,127.1087247,송파나루
52,이경진우렁쌈밥정식오금점,서울 송파구 중대로 310-0,맛집,한식,오금역,37.50783342,127.1334643,오금
53,이성원쉐프의청년감자탕방이동본점,서울 송파구 오금로19길 5-0,맛집,한식,송파나루역,37.51047593,127.1129402,송파나루
54,일일향잠실점,서울 송파구 석촌호수로 290-0,맛집,외국식,송파나루역,37.51116259,127.1074373,송파나루
55,잠수교집3호점,서울 송파구 송파대로49길 51-0,맛집,한식,석촌역,37.50588602,127.0992102,석촌
56,제주은희네해장국잠실직영점,서울 송파구 송파대로49길 10-0,맛집,한식,석촌역,37.50782907,127.1034856,석촌
57,주은감자탕,서울 송파구 삼학사로 71-0,맛집,한식,석촌역,37.5036784,127.0967927,석촌
58,짬뽕지존송파점,서울 송파구 오금로 152-0,맛집,외국식,송파나루역,37.51033255,127.1114554,송파나루
59,채선당플러스위례신도시점,서울 송파구 위례광장로 199-0,맛집,외국식,장지역,37.48170027,127.1427874,장지
60,청기와타운잠실점,서울 송파구 오금로 125-0,맛집,한식,송파나루역,37.51179307,127.1092468,송파나루
61,청와옥석촌호수점,서울 송파구 삼학사로 96-0,맛집,한식,석촌역,37.50568899,127.0974551,석촌
62,청와옥올림픽공원점,서울 송파구 위례성대로 48-0,맛집,한식,몽촌토성역,37.51531444,127.1175296,몽촌토성
63,춘향골남원추어탕오금본점,서울 송파구 위례성대로22길 18-0,맛집,한식,방이역,37.50868581,127.1303562,방이
64,취영루송파점,서울 송파구 송이로 162-0,맛집,외국식,경찰병원역,37.49261222,127.1249528,경찰병원
65,카페노티드잠실,서울 송파구 백제고분로45길 3-0,맛집,카페/찻집,송파나루역,37.50903765,127.1106654,송파나루
66,칸지고고올림픽점,서울 송파구 위례성대로 114-0,맛집,외국식,방이역,37.51286986,127.1242858,방이
67,쿠우쿠우송파하비오점,서울 송파구 송파대로 111-0,맛집,외국식,장지역,37.47966838,127.1249139,장지
68,크래버대게나라잠실본점,서울 송파구 오금로 165-0,맛집,외국식,석촌역,37.51012031,127.1131232,석촌
69,툇마루밥상,서울 송파구 송파대로22길 11-0,맛집,한식,문정역,37.48792114,127.1231399,문정
70,파리크라상올림픽공원키친점,서울 송파구 올림픽로 424-0,맛집,간이음식,올림픽공원역,37.5203397,127.1155179,올림픽공원
71,풍년뼈다귀해장국,서울 송파구 가락로 94-0,맛집,한식,석촌역,37.50075069,127.1067117,석촌
72,프로퍼커피바,서울 송파구 위례성대로22길 6-0,맛집,카페/찻집,방이역,37.50970869,127.1311212,방이
73,하연옥잠실점,서울 송파구 송파대로49길 61-0,맛집,한식,석촌역,37.50575005,127.0979231,석촌
74,하츠베이커리,서울 송파구 중대로 210-0,맛집,간이음식,오금역,37.50043746,127.1271415,오금
75,한아람,서울 송파구 위례성대로 34-0,맛집,한식,한성백제역,37.51579445,127.116023,한성백제
76,함경도찹쌀순대,서울 송파구 송파대로28길 32-0,맛집,한식,경찰병원역,37.49473573,127.1213021,경찰병원
77,해주냉면,서울 송파구 백제고분로7길 8-16,맛집,한식,종합운동장역,37.50965271,127.0797734,종합운동장
78,화사랑화로구이송파점,서울 송파구 오금로 162-0,맛집,한식,송파나루역,37.50978081,127.1124663,송파나루
79,황도바지락칼국수,서울 송파구 백제고분로 358-0,맛집,한식,석촌역,37.50429418,127.1060942,석촌
80,흥부골숯불돼지왕갈비,서울 송파구 백제고분로33길 35-0,맛집,한식,석촌역,37.5057352,127.0985571,석촌
