,NAME,ADDRESS,CATE,SUBCATE,,LAT,LON,STATION_NAME
0,3일한우국밥영등포본점,서울 영등포구 영등포로 204-0,맛집,한식,영등포시장역,37.51993431,126.9040767,영등포시장
1,63뷔페파빌리온,서울 영등포구 63로 50-0,맛집,외국식,여의나루역,37.51966416,126.9399093,여의나루
2,W페스타영등포점,서울 영등포구 국회대로 543-0,맛집,외국식,영등포구청역,37.5291591,126.8953436,영등포구청
3,가양칼국수버섯매운탕,서울 영등포구 국제금융로 78-0,맛집,한식,여의도역,37.52087248,126.9312982,여의도
4,가족천하,서울 영등포구 가마산로 330-0,맛집,한식,대림역,37.49880417,126.8963333,대림
5,값진식육,서울 영등포구 선유로 58-4,맛집,한식,문래역,37.51902876,126.8896857,문래
6,강강술래당산점,서울 영등포구 선유로 251-0,맛집,한식,당산역,37.53524218,126.896747,당산
7,경복궁당산점,서울 영등포구 국회대로 539-0,맛집,한식,영등포구청역,37.52931213,126.8948872,영등포구청
8,경복궁블랙여의도IFC점 ,서울 영등포구 국제금융로 10-0,맛집,한식,여의도역,37.52517752,126.9248767,여의도
9,고봉삼계탕여의도점,서울 영등포구 국회대로72길 5-0,맛집,한식,여의도역,37.53051314,126.9203055,여의도
10,골목집,서울 영등포구 도림로139가길 11-0,맛집,외국식,문래역,37.51335616,126.8931488,문래
11,그믐족발,서울 영등포구 경인로79길 21-0,맛집,외국식,문래역,37.51352206,126.893075,문래
12,낙지세상,서울 영등포구 신풍로 23-0,맛집,외국식,신풍역,37.50037105,126.9083637,신풍
13,능이버섯백숙,서울 영등포구 선유로 32-0,맛집,한식,문래역,37.51675718,126.8888578,문래
14,단아여의도점 ,서울 영등포구 여의대방로67길 21-0,맛집,한식,여의도역,37.52055164,126.9294754,여의도
15,대한옥설렁탕,서울 영등포구 영등포로51길 6-0,맛집,한식,신길역,37.51935552,126.9108841,신길
16,도쿄등심여의도점,서울 영등포구 여의나루로 50-0,맛집,한식,여의도역,37.52180529,126.9256512,여의도
17,돈블랑여의도점,서울 영등포구 여의대방로67길 11-0,맛집,한식,여의도역,37.51976516,126.9302412,여의도
18,동해도본점,서울 영등포구 은행로 25-0,맛집,외국식,여의도역,37.52869492,126.9213837,여의도
19,드롭탑서여의도점,서울 영등포구 국회대로70길 7-0,맛집,카페/찻집,여의도역,37.52999489,126.9199072,여의도
20,또순이네,서울 영등포구 선유로47길 16-0,맛집,한식,당산역,37.53586853,126.8953862,당산
21,뚜스뚜스선유도점,서울 영등포구 양평로 132-0,맛집,외국식,당산역,37.53851413,126.8933696,당산
22,뚝심한우여의도점,서울 영등포구 국제금융로6길 26-0,맛집,한식,여의도역,37.52195469,126.9269736,여의도
23,라크라센타,서울 영등포구 문래로 92-5,맛집,카페/찻집,문래역,37.51888808,126.8921915,문래
24,러스트베이커리,서울 영등포구 경인로79길 15-0,맛집,간이음식,문래역,37.5131908,126.8937163,문래
25,모던눌랑여의도점 ,서울 영등포구 국제금융로8길 31-0,맛집,외국식,여의도역,37.51974601,126.9280666,여의도
26,모도우여의도점,서울 영등포구 국제금융로2길 32-0,맛집,한식,여의도역,37.52386402,126.9241424,여의도
27,문래돼지불백본점,서울 영등포구 당산로 2-1,맛집,한식,문래역,37.51499059,126.8942596,문래
28,백리향,서울 영등포구 63로 50-0,맛집,외국식,여의나루역,37.51966416,126.9399093,여의나루
29,복만루,서울 영등포구 디지털로 346-0,맛집,외국식,구로디지털단지역,37.4886127,126.8992527,구로디지털단지
30,부일갈비,서울 영등포구 영중로6길 23-8,맛집,한식,남부터미널역,37.51814535,126.9087153,남부터미널
31,브로트아트,서울 영등포구 국제금융로7길 3-0,맛집,카페/찻집,여의나루역,37.52256343,126.9312031,여의나루
32,브루클린더버거조인트여의도점,서울 영등포구 국제금융로2길 24-0,맛집,간이음식,여의도역,37.52430479,126.92484,여의도
33,사대부집곳간,서울 영등포구 여의대로 24-0,맛집,한식,여의도역,37.52218032,126.9199166,여의도
34,삼거리먼지막순대국,서울 영등포구 시흥대로185길 11-0,맛집,한식,신대방역,37.49172015,126.9072418,신대방
35,삿뽀로당산점,서울 영등포구 국회대로 539-0,맛집,외국식,영등포구청역,37.52931213,126.8948872,영등포구청
36,세상의모든아침,서울 영등포구 여의대로 24-0,맛집,외국식,여의도역,37.52218032,126.9199166,여의도
37,세상의모든아침,서울 영등포구 여의대로 24-0,맛집,전문음식,여의도역,37.52218032,126.9199166,여의도
38,소호정여의도점,서울 영등포구 국회대로 800-0,맛집,한식,여의도역,37.53092939,126.9210835,여의도
39,송죽장,서울 영등포구 문래로 203-0,맛집,외국식,영등포역,37.5182521,126.9047006,영등포
40,송추가마골인어반영등포점,서울 영등포구 문래로28길 25-0,맛집,한식,문래역,37.5163887,126.8999754,문래
41,쉐프조문래본점,서울 영등포구 문래로 98-0,맛집,간이음식,문래역,37.51925248,126.8927222,문래
42,신길동별난아찌짬뽕,서울 영등포구 영등포로62길 10-1,맛집,외국식,신길역,37.51534702,126.9165158,신길
43,아리수만찬,서울 영등포구 노들로 111-0,맛집,한식,당산역,37.54534066,126.8936823,당산
44,아웃백스테이크하우스여의도점,서울 영등포구 국제금융로8길 6-0,맛집,외국식,여의도역,37.52180903,126.9296974,여의도
45,아티제여의도점,서울 영등포구 국제금융로2길 17-0,맛집,카페/찻집,여의도역,37.52406263,126.9260307,여의도
46,애슐리퀸즈여의도한강공원점,서울 영등포구 여의동로 290-0,맛집,외국식,여의나루역,37.52581426,126.9384095,여의나루
47,어라운지선유도점,서울 영등포구 양평로28마길 9-0,맛집,카페/찻집,당산역,37.54233402,126.8907172,당산
48,영일분식,서울 영등포구 도림로141가길 34-1,맛집,한식,문래역,37.51631556,126.8896777,문래
49,오발탄여의도점,서울 영등포구 여의대방로65길 20-0,맛집,한식,여의도역,37.52021901,126.9295096,여의도
50,오복수산여의도점,서울 영등포구 국제금융로2길 17-0,맛집,외국식,여의도역,37.52406263,126.9260307,여의도
51,올라여의도KBS점,서울 영등포구 의사당대로 38-0,맛집,외국식,여의도역,37.52603046,126.9186926,여의도
52,올라여의도파크센터점,서울 영등포구 여의대로 8-0,맛집,외국식,여의도역,37.52121777,126.9185836,여의도
53,운산,서울 영등포구 여의공원로 101-0,맛집,한식,여의도역,37.52927196,126.9248927,여의도
54,워킹온더클라우드,서울 영등포구 63로 50-0,맛집,외국식,여의나루역,37.51966416,126.9399093,여의나루
55,은성회관,서울 영등포구 여의대방로65길 12-0,맛집,한식,여의도역,37.51962871,126.9300319,여의도
56,이조보쌈,서울 영등포구 당산로 244-0,맛집,외국식,당산역,37.53496482,126.9030945,당산
57,이한스시,서울 영등포구 선유로22길 3-0,맛집,외국식,문래역,37.52160445,126.8903555,문래
58,일심해장국,서울 영등포구 도신로 55-0,맛집,한식,신도림역,37.50581304,126.8986611,신도림
59,일일향여의도점,서울 영등포구 의사당대로 83-0,맛집,외국식,여의도역,37.52336677,126.923451,여의도
60,잠수교집문래점,서울 영등포구 도림로 428-1,맛집,한식,문래역,37.51422213,126.8954777,문래
61,정인면옥,서울 영등포구 국회대로76길 10-0,맛집,한식,여의도역,37.53065616,126.9215576,여의도
62,진주집,서울 영등포구 국제금융로6길 33-0,맛집,한식,여의도역,37.52079083,126.926912,여의도
63,진진2호점,서울 영등포구 국회대로72길 11-0,맛집,한식,여의도역,37.52997424,126.9208259,여의도
64,창고43샛강점,서울 영등포구 여의대방로 376-0,맛집,한식,여의도역,37.51818861,126.9313546,여의도
65,창고43여의도본점,서울 영등포구 국제금융로6길 33-0,맛집,한식,여의도역,37.52079083,126.926912,여의도
66,청기와타운,서울 영등포구 영중로10길 32-4,맛집,한식,영등포역,37.51840941,126.9084542,영등포
67,코끼리베이글,서울 영등포구 선유로 176-0,맛집,간이음식,영등포구청역,37.52861043,126.893271,영등포구청
68,타코벨여의도메리츠점,서울 영등포구 국제금융로2길 11-0,맛집,외국식,여의도역,37.5241692,126.9264279,여의도
69,태양정육식당,서울 영등포구 문래로 92-3,맛집,한식,문래역,37.51903068,126.892253,문래
70,파리크라상더현대서울점,서울 영등포구 여의대로 108-0,맛집,간이음식,여의나루역,37.52519132,126.9291128,여의나루
71,파리크라상여의도점,서울 영등포구 여의나루로4길 18-0,맛집,간이음식,여의나루역,37.52137129,126.9273983,여의나루
72,폰트문래점,서울 영등포구 경인로77가길 6-0,맛집,카페/찻집,신도림역,37.51225308,126.8925712,신도림
73,푸주옥,서울 영등포구 대림로 171-0,맛집,한식,교대역,37.49603652,126.8990022,교대
74,플로렌스파티하우스오목교점,서울 영등포구 영등포로 33-0,맛집,외국식,양평역,37.52329201,126.8852223,양평
75,하동관국회의사당역직영점,서울 영등포구 은행로 3-0,맛집,한식,여의도역,37.52751174,126.9196658,여의도
76,하이디라오영등포점,서울 영등포구 경인로 870-0,맛집,외국식,영등포역,37.51698295,126.9092831,영등포
77,한암동여의도점,서울 영등포구 국제금융로2길 32-0,맛집,한식,여의도역,37.52386402,126.9241424,여의도
78,해담채서여의도점,서울 영등포구 은행로 30-0,맛집,한식,여의도역,37.52819958,126.9226561,여의도
79,화목순대국,서울 영등포구 여의대방로 383-0,맛집,한식,여의도역,37.51934369,126.9315042,여의도
80,화사랑화로구이문래점,서울 영등포구 선유로9가길 16-0,맛집,한식,문래역,37.51861542,126.8882971,문래
81,훈장골신길점,서울 영등포구 도신로49길 3-0,맛집,한식,영등포역,37.511766,126.9133038,영등포
82,흑돈가여의도직영점,서울 영등포구 여의대방로69길 23-0,맛집,한식,여의도역,37.52093809,126.9300905,여의도
