,NAME,ADDRESS,CATE,SUBCATE,,LAT,LON,STATION_NAME
0,삼청동수제비본점,서울 종로구 삼청로 101-1,맛집,한식,안국역,37.58460966,126.9819246,안국
1,토속촌삼계탕,서울 종로구 자하문로5길 5-0,맛집,한식,경복궁역,37.57760304,126.9716322,경복궁
2,더숲초소책방,서울 종로구 인왕산로 172-0,맛집,카페/찻집,무악재역,37.5859537,126.9642777,무악재
3,런던베이글뮤지엄,서울 종로구 북촌로4길 20-0,맛집,간이음식,안국역,37.57917013,126.9862027,안국
4,대성집,서울 종로구 사직로 5-0,맛집,한식,독립문역,37.57273299,126.9609312,독립문
5,황생가칼국수,서울 종로구 북촌로5길 78-0,맛집,한식,안국역,37.58007909,126.9806686,안국
6,진옥화할매원조닭한마리본점,서울 종로구 종로40가길 18-0,맛집,한식,동대문역,37.57037376,127.0056975,동대문
7,더피아노,서울 종로구 평창6길 71-0,맛집,카페/찻집,신풍역,37.61726719,126.9748006,신풍
8,스태픽스,서울 종로구 사직로9길 22-0,맛집,카페/찻집,경복궁역,37.57747279,126.967882,경복궁
9,광화문미진본점,서울 종로구 종로 19-0,맛집,한식,종각역,37.57000616,127.0028359,종각
10,카페노티드안국,서울 종로구 북촌로 6-3,맛집,카페/찻집,안국역,37.57746128,126.9860399,안국
11,테르트르,서울 종로구 낙산5길 46-0,맛집,카페/찻집,창신역,37.57822346,127.0111929,창신
12,몽중헌안국점,서울 종로구 북촌로 31-22,맛집,외국식,안국역,37.5796105,126.9838388,안국
13,청진옥본점,서울 종로구 종로3길 32-0,맛집,한식,광화문역,37.57172964,126.9794632,광화문
14,깃대봉냉면,서울 종로구 지봉로12길 3-0,맛집,한식,창신역,37.57718184,127.0157443,창신
15,혜화칼국수,서울 종로구 창경궁로35길 13-0,맛집,한식,혜화역,37.58656727,127.0015069,혜화
16,진진수라광화문점,서울 종로구 종로5길 7-0,맛집,한식,종각역,37.5706161,126.9805599,종각
17,이문설농탕,서울 종로구 우정국로 38-13,맛집,한식,종각역,37.57276142,126.983898,종각
18,나누미떡볶이성대본점,서울 종로구 성균관로 9-1,맛집,간이음식,혜화역,37.5837076,126.99792,혜화
19,경복궁관훈점,서울 종로구 인사동5길 38-0,맛집,한식,종각역,37.57258424,126.9842107,종각
20,온천집,서울 종로구 돈화문로11나길 31-8,맛집,한식,종로3가역,37.57409997,126.9897997,종로3가
21,낙산냉면,서울 종로구 지봉로5길 8-0,맛집,한식,동묘앞역,37.57448613,127.0152638,동묘앞
22,블루보틀삼청카페,서울 종로구 북촌로5길 76-0,맛집,카페/찻집,안국역,37.58015345,126.9808643,안국
23,어니언안국점,서울 종로구 계동길 5-0,맛집,카페/찻집,안국역,37.5773851,126.9863764,안국
24,송추가마골인어반광화문점,서울 종로구 새문안로5길 31-0,맛집,한식,광화문역,37.57297651,126.9743513,광화문
25,효자베이커리,서울 종로구 필운대로 54-0,맛집,간이음식,경복궁역,37.58094128,126.9686674,경복궁
26,쉐이크쉑종각점,서울 종로구 종로 33-0,맛집,간이음식,종각역,37.57033289,127.0047761,종각
27,아키비스트,서울 종로구 효자로13길 52-0,맛집,카페/찻집,경복궁역,37.58221854,126.9726787,경복궁
28,테라로사광화문지점,서울 종로구 종로1길 50-0,맛집,카페/찻집,광화문역,37.57472447,126.9790224,광화문
29,모도우광화문점,서울 종로구 율곡로 6-0,맛집,한식,안국역,37.57545386,126.9797758,안국
30,소금집델리안국점,서울 종로구 북촌로4길 19-0,맛집,간이음식,안국역,37.57946016,126.9862321,안국
31,슬로우파크,서울 종로구 삼청로 141-0,맛집,카페/찻집,안국역,37.58791624,126.981501,안국
32,런던베이글뮤지엄안국점,서울 종로구 북촌로4길 20-0,맛집,간이음식,안국역,37.57917013,126.9862027,안국
33,마이클바이해비치,서울 종로구 우정국로 26-0,맛집,외국식,종각역,37.57149666,126.983659,종각
34,한일관광화문점,서울 종로구 종로1길 50-0,맛집,한식,광화문역,37.57472447,126.9790224,광화문
35,서린낙지,서울 종로구 종로 19-0,맛집,외국식,종각역,37.57000616,127.0028359,종각
36,핏제리아오,서울 종로구 동숭길 86-0,맛집,간이음식,혜화역,37.58209584,127.0043262,혜화
37,JW메리어트동대문더라운지,서울 종로구 청계천로 279-0,맛집,카페/찻집,동대문역,37.57044853,127.0087438,동대문
38,청수당,서울 종로구 돈화문로11나길 31-9,맛집,카페/찻집,종로3가역,37.57388148,126.9897844,종로3가
39,애슐리퀸즈종각역점,서울 종로구 종로 51-0,맛집,외국식,종각역,37.57506029,127.017487,종각
40,하이디라오대학로점,서울 종로구 대학로 146-0,맛집,외국식,혜화역,37.58424892,127.00203,혜화
41,스미스가좋아하는한옥,서울 종로구 삼청로 22-7,맛집,외국식,안국역,37.57802796,126.9800739,안국
42,메이탄종로점,서울 종로구 경교장1길 17-0,맛집,외국식,서대문역,37.56854813,126.964615,서대문
43,서울서둘째로잘하는집,서울 종로구 삼청로 122-1,맛집,카페/찻집,안국역,37.58625008,126.9818339,안국
44,디마떼오대학로점,서울 종로구 동숭길 29-0,맛집,간이음식,혜화역,37.58001879,127.0039362,혜화
45,용수산비원점,서울 종로구 창덕궁1길 2-0,맛집,한식,안국역,37.57944506,126.989199,안국
46,다운타우너안국,서울 종로구 북촌로 6-4,맛집,간이음식,안국역,37.57746763,126.9863721,안국
47,덕후선생광화문D타워점,서울 종로구 종로3길 17-0,맛집,외국식,광화문역,37.57099586,126.9789145,광화문
48,백제정육점,서울 종로구 종로35길 34-0,맛집,한식,종로5가역,37.57265983,127.0040409,종로5가
49,암소서울,서울 종로구 새문안로 76-0,맛집,한식,광화문역,37.56979754,126.9731774,광화문
50,삿뽀로관훈점,서울 종로구 인사동5길 38-0,맛집,외국식,종각역,37.57258424,126.9842107,종각
51,베이징코야,서울 종로구 율곡로2길 25-0,맛집,외국식,안국역,37.57436423,126.9805173,안국
52,크리스탈제이드광화문상하이팰리스점,서울 종로구 율곡로2길 7-0,맛집,외국식,안국역,37.57501181,126.9812496,안국
53,경복궁,서울 종로구 사직로 101-0,맛집,한식,경복궁역,37.57630322,126.9700007,경복궁
54,더코너키친,서울 종로구 평창문화로 98-0,맛집,외국식,옥수역,37.60708032,126.9719142,옥수
55,아우어베이커리광화문디팰리스점,서울 종로구 새문안로2길 10-0,맛집,간이음식,광화문역,37.56870301,126.971984,광화문
56,라그릴리아광화문점,서울 종로구 청계천로 11-0,맛집,외국식,광화문역,37.5694838,126.9788679,광화문
57,개뿔,서울 종로구 낙산성곽서1길 26-0,맛집,카페/찻집,동대문역,37.57817768,127.0080466,동대문
58,편안한집,서울 종로구 북촌로 133-0,맛집,한식,안국역,37.58732131,126.9833227,안국
59,눈나무집,서울 종로구 삼청로 136-1,맛집,한식,안국역,37.58747986,126.9818871,안국
60,갓덴스시종로점,서울 종로구 종로12길 14-0,맛집,외국식,종각역,37.56944805,126.9855843,종각
61,들풀청운동점,서울 종로구 자하문로 118-0,맛집,한식,경복궁역,37.5864261,126.9701359,경복궁
62,강남면옥정동점,서울 종로구 새문안로 38-0,맛집,한식,서대문역,37.56836828,126.9697592,서대문
63,폴바셋광화문점,서울 종로구 종로1길 50-0,맛집,카페/찻집,광화문역,37.57472447,126.9790224,광화문
64,순대실록대학로본점,서울 종로구 동숭길 127-0,맛집,한식,혜화역,37.58329492,127.0030573,혜화
65,대련집,서울 종로구 종로16길 37-0,맛집,한식,을지로3가역,37.56843183,126.9890915,을지로3가
66,파리크라상광화문점,서울 종로구 종로 1-0,맛집,간이음식,광화문역,37.57305391,127.0165904,광화문
67,싸리집,서울 종로구 진흥로 463-0,맛집,한식,보라매역,37.60685499,126.9600649,보라매
