,NAME,ADDRESS,CATE,SUBCATE,,LAT,LON,STATION_NAME
0,우래옥본점,서울 중구 창경궁로 62-29,맛집,한식,을지로4가역,37.56821852,126.9987145,을지로4가
1,마복림떡볶이,서울 중구 다산로35길 5-0,맛집,간이음식,신당역,37.56320992,127.0150979,신당
2,필동면옥,서울 중구 서애로 26-0,맛집,한식,충무로역,37.56039316,126.9970043,충무로
3,오장동함흥냉면,서울 중구 마른내로 108-0,맛집,한식,동대문역사문화공원역,37.56427217,126.999884,동대문역사문화공원
4,명동교자본점,서울 중구 명동10길 29-0,맛집,한식,명동역,37.56781482,126.9841906,명동
5,태극당장충본점,서울 중구 동호로24길 7-0,맛집,간이음식,동대입구역,37.55952173,127.0050878,동대입구
6,원조남산돈까스,서울 중구 소파로 23-0,맛집,외국식,명동역,37.55609799,126.9795343,명동
7,진주회관,서울 중구 세종대로11길 26-0,맛집,한식,시청역,37.562314,126.9745828,시청
8,오장동흥남집본점,서울 중구 마른내로 114-0,맛집,한식,동대문역사문화공원역,37.56434145,127.0005421,동대문역사문화공원
9,평양면옥장충본점,서울 중구 장충단로 207-0,맛집,한식,동대문역사문화공원역,37.56303006,127.0064695,동대문역사문화공원
10,한국의집,서울 중구 퇴계로36길 10-0,맛집,한식,충무로역,37.5602235,126.9944983,충무로
11,아이러브신당동,서울 중구 퇴계로76길 50-0,맛집,간이음식,신당역,37.56318924,127.0147608,신당
12,원조남산왕돈까스,서울 중구 소파로 107-0,맛집,외국식,명동역,37.5573681,126.9861231,명동
13,금돼지식당,서울 중구 다산로 149-0,맛집,한식,약수역,37.55709164,127.0116665,약수
14,101번지남산돈까스본점,서울 중구 소파로 101-0,맛집,외국식,명동역,37.55694927,126.9857469,명동
15,컨퍼런스하우스달개비,서울 중구 세종대로19길 16-0,맛집,한식,시청역,37.56672262,126.976533,시청
16,무교동북어국집,서울 중구 을지로1길 38-0,맛집,한식,시청역,37.56774838,126.9798516,시청
17,우정,서울 중구 퇴계로76길 55-0,맛집,간이음식,신당역,37.56278972,127.0149191,신당
18,하니칼국수,서울 중구 퇴계로 411-15,맛집,한식,신당역,37.56617391,127.0171737,신당
19,원할머니보쌈족발본점,서울 중구 난계로 201-0,맛집,외국식,신당역,37.56962946,127.0232061,신당
20,라세느롯데호텔서울,서울 중구 을지로 30-0,맛집,외국식,을지로입구역,37.56534589,126.9810076,을지로입구
21,정원레스토랑어반가든,서울 중구 정동길 12-15,맛집,외국식,서대문역,37.56743272,126.9692035,서대문
22,웨스틴 조선서울 아리아,서울 중구 소공로 106-0,맛집,외국식,시청역,37.56448413,126.9801845,시청
23,남산골산채집,서울 중구 소파로 93-0,맛집,한식,명동역,37.55677648,126.9851873,명동
24,청와옥을지로3가직영점,서울 중구 을지로 110-0,맛집,한식,을지로3가역,37.56602094,126.9900525,을지로3가
25,VIPS제일제당센터점,서울 중구 동호로 330-0,맛집,외국식,동대문역사문화공원역,37.56397362,127.0032532,동대문역사문화공원
26,하동관명동본점,서울 중구 명동9길 12-0,맛집,한식,을지로입구역,37.56347814,126.9879846,을지로입구
27,목멱산방,서울 중구 퇴계로20길 71-0,맛집,한식,명동역,37.5581161,126.9868879,명동
28,더킹스앰배서더서울풀만호텔,서울 중구 동호로 287-0,맛집,외국식,동대입구역,37.56059897,127.002136,동대입구
29,약수순대국,서울 중구 다산로8길 7-0,맛집,한식,약수역,37.55301721,127.0100372,약수
30,양미옥남대문점,서울 중구 남대문로5길 9-1,맛집,외국식,회현역,37.56156023,126.9786994,회현
31,조선옥,서울 중구 을지로15길 8-0,맛집,한식,을지로3가역,37.56681118,126.9934811,을지로3가
32,몽중헌페럼타워점,서울 중구 을지로5길 19-0,맛집,외국식,을지로입구역,37.5669394,126.9841405,을지로입구
33,더파크뷰,서울 중구 동호로 249-0,맛집,외국식,동대입구역,37.55750551,127.0079529,동대입구
34,호박식당약수본점,서울 중구 다산로 154-0,맛집,한식,약수역,37.557307,127.0123241,약수
35,은주정,서울 중구 창경궁로8길 32-0,맛집,한식,을지로4가역,37.56868245,126.9997573,을지로4가
36,한암동정동점,서울 중구 정동길 21-15,맛집,한식,서대문역,37.5678521,126.9708542,서대문
37,마복림할머니막내아들네,서울 중구 다산로 221-0,맛집,간이음식,신당역,37.56292322,127.0150905,신당
38,만포막국수,서울 중구 동호로14길 2-0,맛집,한식,약수역,37.5557964,127.0103186,약수
39,원조남산돈까스,서울 중구 소파로 23-0,맛집,전문음식,명동역,37.55609799,126.9795343,명동
40,진고개[한식],서울 중구 충무로 19-1,맛집,한식,동대문역,37.56309102,126.992822,동대문
41,몰또이탈리안에스프레소바,서울 중구 명동길 73-0,맛집,카페/찻집,명동역,37.56441057,126.9862338,명동
42,남포면옥,서울 중구 을지로3길 24-0,맛집,한식,을지로입구역,37.56714637,126.981676,을지로입구
43,리사르커피로스터스,서울 중구 다산로8길 16-7,맛집,카페/찻집,약수역,37.55247306,127.0104266,약수
44,오발탄충무로점,서울 중구 퇴계로 205-0,맛집,외국식,충무로역,37.56175584,126.9948552,충무로
45,광화문국밥본점,서울 중구 세종대로21길 53-0,맛집,한식,광화문역,37.56895479,126.9754226,광화문
46,크리스탈제이드소공점,서울 중구 남대문로7길 16-0,맛집,외국식,을지로입구역,37.56416561,126.9811636,을지로입구
47,쉐이크쉑두타점,서울 중구 장충단로 275-0,맛집,간이음식,동대문역,37.56888494,127.0087751,동대문
48,만족오향족발시청점,서울 중구 서소문로 134-7,맛집,외국식,시청역,37.56325764,126.9760141,시청
49,원조남산왕돈까스,서울 중구 소파로 107-0,맛집,전문음식,명동역,37.5573681,126.9861231,명동
50,장충동족발골목,서울 중구 장충단로 0-0,맛집,외국식,동대입구역,37.5573681,126.9861231,동대입구
51,평안도족발집,서울 중구 장충단로 174-6,맛집,외국식,동대입구역,37.56026204,127.0060494,동대입구
52,촛불1978,서울 중구 소파로 95-0,맛집,외국식,명동역,37.5568129,126.985348,명동
53,평래옥,서울 중구 마른내로 21-1,맛집,한식,을지로3가역,37.56491058,126.9903881,을지로3가
54,디라이프스타일키친,서울 중구 세종대로 136-0,맛집,외국식,광화문역,37.56842322,126.9782565,광화문
55,하이디라오명동점,서울 중구 명동3길 36-0,맛집,외국식,을지로입구역,37.56534729,126.9837355,을지로입구
56,해담채시청점 [한식],서울 중구 칠패로 37-0,맛집,한식,서울역,37.56009459,126.973029,서울
57,APM럭스카페,서울 중구 퇴계로73길 51-0,맛집,카페/찻집,신당역,37.56737099,127.0135879,신당
58,유즈라멘,서울 중구 만리재로 217-0,맛집,외국식,서울역,37.55688584,126.9682123,서울
59,딘타이펑명동중앙점,서울 중구 명동7길 13-0,맛집,외국식,을지로입구역,37.56435253,126.9839692,을지로입구
60,안동장[중식],서울 중구 을지로 124-0,맛집,외국식,을지로3가역,37.56611287,126.9915799,을지로3가
61,뚱뚱이할머니족발집,서울 중구 장충단로 174-1,맛집,외국식,동대입구역,37.56041251,127.0058953,동대입구
62,붓처스컷광화문점,서울 중구 세종대로 136-0,맛집,외국식,광화문역,37.56842322,126.9782565,광화문
63,101번지남산돈까스본점,서울 중구 소파로 101-0,맛집,전문음식,명동역,37.55694927,126.9857469,명동
64,이남장을지로본점,서울 중구 삼일대로12길 16-0,맛집,한식,을지로3가역,37.56664593,126.9886552,을지로3가
65,오제제[일식],서울 중구 세종대로 136-0,맛집,외국식,광화문역,37.56842322,126.9782565,광화문
66,페스타바이민구,서울 중구 장충단로 60-0,맛집,외국식,버티고개역,37.55007101,127.0004975,버티고개
67,사랑방칼국수,서울 중구 퇴계로27길 46-0,맛집,한식,종로3가역,37.56327319,126.9913374,종로3가
68,부민옥,서울 중구 다동길 24-12,맛집,한식,을지로입구역,37.56753103,126.9801777,을지로입구
69,창고43무교점,서울 중구 무교로 21-0,맛집,외국식,시청역,37.56785487,126.9787423,시청
70,중림장,서울 중구 청파로 459-1,맛집,한식,충정로역,37.56027625,126.967708,충정로
71,카페마뫼,서울 중구 소파로 41-0,맛집,카페/찻집,회현역,37.55517126,126.981357,회현
72,애성회관,서울 중구 남대문로5길 23-0,맛집,한식,시청역,37.56243865,126.9789201,시청
73,소담촌약수점,서울 중구 동호로10길 30-0,맛집,외국식,약수역,37.5551916,127.0163594,약수
74,그릴1492본점,서울 중구 퇴계로 369-0,맛집,한식,동대문역사문화공원역,37.56516322,127.0125536,동대문역사문화공원
75,우육미,서울 중구 퇴계로 373-0,맛집,한식,동대문역사문화공원역,37.56521714,127.0129881,동대문역사문화공원
76,동대문매운김밥,서울 중구 다산로 255-0,맛집,간이음식,신당역,37.56583514,127.015909,신당
77,더파크뷰서울신라호텔,서울 중구 동호로 249-0,맛집,외국식,동대입구역,37.55750551,127.0079529,동대입구
78,아웃백스테이크하우스명동점,서울 중구 명동3길 36-0,맛집,외국식,을지로입구역,37.56534729,126.9837355,을지로입구
79,아티제대신파이낸스센터점,서울 중구 삼일대로 343-0,맛집,카페/찻집,을지로3가역,37.56510046,126.9869596,을지로3가
80,창고43명동점,서울 중구 을지로 100-0,맛집,한식,을지로3가역,37.56564902,126.9881426,을지로3가
81,루소랩정동점,서울 중구 정동길 17-0,맛집,카페/찻집,서대문역,37.56716189,126.9706421,서대문
82,산수갑산,서울 중구 을지로20길 24-0,맛집,한식,을지로4가역,37.56541166,126.9953232,을지로4가
83,브레라,서울 중구 다산로 41-0,맛집,외국식,버티고개역,37.54829133,127.0070085,버티고개
84,팔레드신[중식],서울 중구 퇴계로 67-0,맛집,외국식,회현역,37.55973234,126.9795234,회현
85,땡초곱창,서울 중구 퇴계로87길 54-0,맛집,외국식,신당역,37.56799699,127.0210584,신당
86,뱅커스 클럽 바이 반얀트리,서울 중구 명동11길 19-0,맛집,한식,을지로입구역,37.56502162,126.98546,을지로입구
